Name_Arztpraxis,Art,Name_Arzt,Fachrichtung,PLZ,Gemeindename/Ort,Stra�ennamen,Hsnr,HsnrZus,Adresse,Stra�enschl�ssel,x,y,Adresse_query,Adresse_merge,lat,lon,display_name,type,category,geometry
Dr. med. Norbert Kuhl,Hauptpraxis,Dr. med. Norbert Kuhl,Facharzt f�r Chirurgie,14770,Brandenburg an der Havel,Altst�dtischer Markt,5,,Altst�dtischer Markt 5,75,333598.73,5809873.9,"['5, Brandenburg an der Havel']",brandenburg an der havel,52.4156791,12.5664862,"Domdechanel, 5, Burghof, Dom, Brandenburg an der Havel, Brandenburg, 14776, Deutschland",government,building,POINT (12.5664862 52.4156791)
Dres. med. B. Wild/R. Gaub/P. Boye/ G.Jan�en,Hauptpraxis,Priv.-Doz. Dr. med. Rona Reibis,Facharzt f�r Innere Medizin,14770,Brandenburg an der Havel,Altst�dtischer Markt,5,,Altst�dtischer Markt 5,75,333598.73,5809873.9,"['5, Brandenburg an der Havel']",brandenburg an der havel,52.4156791,12.5664862,"Domdechanel, 5, Burghof, Dom, Brandenburg an der Havel, Brandenburg, 14776, Deutschland",government,building,POINT (12.5664862 52.4156791)
Dres. med. B. Wild/R. Gaub/P. Boye/ G.Jan�en,Hauptpraxis,Dr. med. Stephan Hiller,Facharzt f�r Innere Medizin,14770,Brandenburg an der Havel,Altst�dtischer Markt,5,,Altst�dtischer Markt 5,75,333598.73,5809873.9,"['5, Brandenburg an der Havel']",brandenburg an der havel,52.4156791,12.5664862,"Domdechanel, 5, Burghof, Dom, Brandenburg an der Havel, Brandenburg, 14776, Deutschland",government,building,POINT (12.5664862 52.4156791)
Dres. med. B. Wild/R. Gaub/P. Boye/ G.Jan�en,Hauptpraxis,Dr. med. Gerhard Jan�en,Facharzt f�r Innere Medizin,14770,Brandenburg an der Havel,Altst�dtischer Markt,5,,Altst�dtischer Markt 5,75,333598.73,5809873.9,"['5, Brandenburg an der Havel']",brandenburg an der havel,52.4156791,12.5664862,"Domdechanel, 5, Burghof, Dom, Brandenburg an der Havel, Brandenburg, 14776, Deutschland",government,building,POINT (12.5664862 52.4156791)
Praxis Dr. med. Imina Stark,Hauptpraxis,Dr. med. Imina Stark,Facharzt f�r Innere Medizin/Angiologie,14770,Brandenburg an der Havel,Altst�dtischer Markt,5,,Altst�dtischer Markt 5,75,333598.73,5809873.9,"['5, Brandenburg an der Havel']",brandenburg an der havel,52.4156791,12.5664862,"Domdechanel, 5, Burghof, Dom, Brandenburg an der Havel, Brandenburg, 14776, Deutschland",government,building,POINT (12.5664862 52.4156791)
Dres. med. B. Wild/R. Gaub/P. Boye/ G.Jan�en14471 Potsdam,Zweigpraxis,Dr. med. Martina Diezmann,Facharzt f�r Innere Medizin,14770,Brandenburg an der Havel,Altst�dtischer Markt,5,,Altst�dtischer Markt 5,75,333598.73,5809873.9,"['5, Brandenburg an der Havel']",brandenburg an der havel,52.4156791,12.5664862,"Domdechanel, 5, Burghof, Dom, Brandenburg an der Havel, Brandenburg, 14776, Deutschland",government,building,POINT (12.5664862 52.4156791)
Dres. med. B. Wild/R. Gaub/P. Boye/ G.Jan�en14471 Potsdam,Zweigpraxis,Dr. med. Florian Funk,Facharzt f�r Innere Medizin,14770,Brandenburg an der Havel,Altst�dtischer Markt,5,,Altst�dtischer Markt 5,75,333598.73,5809873.9,"['5, Brandenburg an der Havel']",brandenburg an der havel,52.4156791,12.5664862,"Domdechanel, 5, Burghof, Dom, Brandenburg an der Havel, Brandenburg, 14776, Deutschland",government,building,POINT (12.5664862 52.4156791)
Dres. med. B. Wild/R. Gaub/P. Boye/ G.Jan�en14471 Potsdam,Zweigpraxis,Dr. med. Uwe Rennhak,Facharzt f�r Innere Medizin,14770,Brandenburg an der Havel,Altst�dtischer Markt,5,,Altst�dtischer Markt 5,75,333598.73,5809873.9,"['5, Brandenburg an der Havel']",brandenburg an der havel,52.4156791,12.5664862,"Domdechanel, 5, Burghof, Dom, Brandenburg an der Havel, Brandenburg, 14776, Deutschland",government,building,POINT (12.5664862 52.4156791)
Dres. med. B. Wild/R. Gaub/P. Boye/ G.Jan�en14471 Potsdam,Zweigpraxis,Dr. med. Philipp Boye,Facharzt f�r Innere Medizin,14770,Brandenburg an der Havel,Altst�dtischer Markt,5,,Altst�dtischer Markt 5,75,333598.73,5809873.9,"['5, Brandenburg an der Havel']",brandenburg an der havel,52.4156791,12.5664862,"Domdechanel, 5, Burghof, Dom, Brandenburg an der Havel, Brandenburg, 14776, Deutschland",government,building,POINT (12.5664862 52.4156791)
Dres. med. B. Wild/R. Gaub/P. Boye/ G.Jan�en14471 Potsdam,Zweigpraxis,Dr. med. Regina Gaub,Facharzt f�r Innere Medizin,14770,Brandenburg an der Havel,Altst�dtischer Markt,5,,Altst�dtischer Markt 5,75,333598.73,5809873.9,"['5, Brandenburg an der Havel']",brandenburg an der havel,52.4156791,12.5664862,"Domdechanel, 5, Burghof, Dom, Brandenburg an der Havel, Brandenburg, 14776, Deutschland",government,building,POINT (12.5664862 52.4156791)
Dres. med. B. Wild/R. Gaub/P. Boye/ G.Jan�en14471 Potsdam,Zweigpraxis,Dr. med. Beate Wild,Facharzt f�r Innere Medizin,14770,Brandenburg an der Havel,Altst�dtischer Markt,5,,Altst�dtischer Markt 5,75,333598.73,5809873.9,"['5, Brandenburg an der Havel']",brandenburg an der havel,52.4156791,12.5664862,"Domdechanel, 5, Burghof, Dom, Brandenburg an der Havel, Brandenburg, 14776, Deutschland",government,building,POINT (12.5664862 52.4156791)
Dres. med. B. Wild/R. Gaub/P. Boye/ G.Jan�en14471 Potsdam,Zweigpraxis,Dr. med. Hartmut von Ameln,Facharzt f�r Innere Medizin,14770,Brandenburg an der Havel,Altst�dtischer Markt,5,,Altst�dtischer Markt 5,75,333598.73,5809873.9,"['5, Brandenburg an der Havel']",brandenburg an der havel,52.4156791,12.5664862,"Domdechanel, 5, Burghof, Dom, Brandenburg an der Havel, Brandenburg, 14776, Deutschland",government,building,POINT (12.5664862 52.4156791)
Dres. med. B. Wild/R. Gaub/P. Boye/ G.Jan�en14471 Potsdam,Zweigpraxis,Dr. med. Thomas Vogtmann,Facharzt f�r Innere Medizin und Kardiologie,14770,Brandenburg an der Havel,Altst�dtischer Markt,5,,Altst�dtischer Markt 5,75,333598.73,5809873.9,"['5, Brandenburg an der Havel']",brandenburg an der havel,52.4156791,12.5664862,"Domdechanel, 5, Burghof, Dom, Brandenburg an der Havel, Brandenburg, 14776, Deutschland",government,building,POINT (12.5664862 52.4156791)
Praxis Dr. med. Sebastian Schmidt,Hauptpraxis,Dr. med. Sebastian Schmidt,"Facharzt f�r Allgemeinmedizin, Hausarzt",14770,Brandenburg an der Havel,Am Gallberg,21,,Am Gallberg 21,105,,,"['21, Brandenburg an der Havel']",brandenburg an der havel,52.4108261,12.5497933,"Brandenburg an der Havel, Brandenburg, Deutschland",administrative,boundary,POINT (12.5497933 52.4108261)
Dr. med. Oliver Klein,Hauptpraxis,Dr. med. Oliver Klein,Facharzt f�r Orthop�die und Unfallchirurgie,14774,Brandenburg an der Havel,Am S�dtor,8,,Am S�dtor 8,235,323684.9,5807418.7,"['8, Brandenburg an der Havel']",brandenburg an der havel,52.3724811,12.5045967,"Dorfkirche Wilhelmsdorf, 8, Wilhelmsdorf, Neustadt, Brandenburg an der Havel, Brandenburg, 14776, Deutschland",building,historic,POINT (12.5045967 52.3724811)
Praxis Hans-Friede Boekhoff,Hauptpraxis,Hans-Friede Boekhoff,"Facharzt f�r Allgemeinmedizin, Hausarzt",14774,Brandenburg an der Havel,Am S�dtor,8,A,Am S�dtor 8 A,235,323695.43,5807431.95,"['8A, Brandenburg an der Havel']",brandenburg an der havel,52.4108261,12.5497933,"Brandenburg an der Havel, Brandenburg, Deutschland",administrative,boundary,POINT (12.5497933 52.4108261)
Praxis Dr. med. Sabine Nickisch,Hauptpraxis,Dr. med. Sabine Nickisch,Facharzt f�r Kinderheilkunde,14774,Brandenburg an der Havel,Am S�dtor,8,A,Am S�dtor 8 A,235,323695.43,5807431.95,"['8A, Brandenburg an der Havel']",brandenburg an der havel,52.4108261,12.5497933,"Brandenburg an der Havel, Brandenburg, Deutschland",administrative,boundary,POINT (12.5497933 52.4108261)
Mechthild Neubert,Hauptpraxis,Mechthild Neubert,"Facharzt f�r Allgemeinmedizin, Hausarzt",14770,Brandenburg an der Havel,B�ckerstra�e,44,,B�ckerstra�e 44,310,333759.82,5809955.89,"['44, Brandenburg an der Havel']",brandenburg an der havel,52.4108261,12.5497933,"Brandenburg an der Havel, Brandenburg, Deutschland",administrative,boundary,POINT (12.5497933 52.4108261)
Praxis Dr. med. Sara Flassig,Hauptpraxis,Dr. med. Katrin Draber,"Facharzt f�r Allgemeinmedizin, Hausarzt",14774,Brandenburg an der Havel,Bahnhofstra�e,36,,Bahnhofstra�e 36,315,324629.18,5805863.19,"['36, Brandenburg an der Havel']",brandenburg an der havel,52.3989898,12.5990426,"36, Großmathenweg, Neuschmerzke, Schmerzke, Brandenburg an der Havel, Brandenburg, 14776, Deutschland",yes,building,POINT (12.5990426 52.3989898)
Praxis Dr. med. Sara Flassig,Hauptpraxis,Dr. med. Sara Flassig,"Facharzt f�r Allgemeinmedizin, Hausarzt",14774,Brandenburg an der Havel,Bahnhofstra�e,36,,Bahnhofstra�e 36,315,324629.18,5805863.19,"['36, Brandenburg an der Havel']",brandenburg an der havel,52.3989898,12.5990426,"36, Großmathenweg, Neuschmerzke, Schmerzke, Brandenburg an der Havel, Brandenburg, 14776, Deutschland",yes,building,POINT (12.5990426 52.3989898)
Praxis Andrea Weber,Hauptpraxis,Andrea Weber,Facharzt f�r Hals-Nasen-Ohrenheilkunde,14776,Brandenburg an der Havel,Bauhofstra�e,9,,Bauhofstra�e 9,319,333540.47,5809023.23,"['9, Brandenburg an der Havel']",brandenburg an der havel,52.4163983,12.5562830,"9, Gotthardtkirchplatz, Altstadt, Brandenburg an der Havel, Brandenburg, 14770, Deutschland",yes,building,POINT (12.556283 52.4163983)
Praxis Dr. med. Katharina Zumbusch,Hauptpraxis,Dr. med. Katharina Zumbusch,Facharzt f�r Innere Medizin; Hausarzt,14770,Brandenburg an der Havel,Bergstra�e,6,,Bergstra�e 6,335,333533.07,5810164.68,"['6, Brandenburg an der Havel']",brandenburg an der havel,52.4139321,12.5670041,"6, Domlinden, Dom, Brandenburg an der Havel, Brandenburg, 14776, Deutschland",residential,building,POINT (12.5670041 52.4139321)
Praxis Dr. med. Nicki Gie�mann,Hauptpraxis,Dr. med. Nicki Gie�mann,Facharzt f�r Frauenheilkunde u. Geburtshilfe,14772,Brandenburg an der Havel,Brielower Aue,22,,Brielower Aue 22,405,331447.3,5813811.1,"['22, Brandenburg an der Havel']",brandenburg an der havel,52.4001737,12.5993279,"22, Großmathenweg, Neuschmerzke, Schmerzke, Brandenburg an der Havel, Brandenburg, 14776, Deutschland",yes,building,POINT (12.5993279 52.4001737)
Praxis Dr. med. Grit Dummann,Hauptpraxis,Dr. med. Grit Dummann,"Facharzt f�r Allgemeinmedizin, Hausarzt",14770,Brandenburg an der Havel,Brielower Stra�e,59,,Brielower Stra�e 59,420,333770.0,5810356.3,"['59, Brandenburg an der Havel']",brandenburg an der havel,52.4108261,12.5497933,"Brandenburg an der Havel, Brandenburg, Deutschland",administrative,boundary,POINT (12.5497933 52.4108261)
Peter Stojanow,Hauptpraxis,Peter Stojanow,Facharzt f�r Innere Medizin; Hausarzt,14770,Brandenburg an der Havel,Carl-Reichstein-Stra�e,8,,Carl-Reichstein-Stra�e 8,484,331412.8,5809986.2,"['8, Brandenburg an der Havel']",brandenburg an der havel,52.3724811,12.5045967,"Dorfkirche Wilhelmsdorf, 8, Wilhelmsdorf, Neustadt, Brandenburg an der Havel, Brandenburg, 14776, Deutschland",building,historic,POINT (12.5045967 52.3724811)
Praxis Dr. med. Christiane Pache,Hauptpraxis,Dr med. Franziska Deichsel,Facharzt f�r Kinderheilkunde,14770,Brandenburg an der Havel,Carl-Reichstein-Stra�e,8,,Carl-Reichstein-Stra�e 8,484,331412.8,5809986.2,"['8, Brandenburg an der Havel']",brandenburg an der havel,52.3724811,12.5045967,"Dorfkirche Wilhelmsdorf, 8, Wilhelmsdorf, Neustadt, Brandenburg an der Havel, Brandenburg, 14776, Deutschland",building,historic,POINT (12.5045967 52.3724811)
Praxis Dr. med. Christiane Pache,Hauptpraxis,Dr.med. Christiane Pache,Facharzt f�r Kinderheilkunde,14770,Brandenburg an der Havel,Carl-Reichstein-Stra�e,8,,Carl-Reichstein-Stra�e 8,484,331412.8,5809986.2,"['8, Brandenburg an der Havel']",brandenburg an der havel,52.3724811,12.5045967,"Dorfkirche Wilhelmsdorf, 8, Wilhelmsdorf, Neustadt, Brandenburg an der Havel, Brandenburg, 14776, Deutschland",building,historic,POINT (12.5045967 52.3724811)
Praxis Dr. med. Mina Stoyanova,Hauptpraxis,Dr. med. Mina Stoyanova,Facharzt f�r Innere Medizin; Hausarzt,14770,Brandenburg an der Havel,Carl-Reichstein-Stra�e,8,,Carl-Reichstein-Stra�e 8,484,331412.8,5809986.2,"['8, Brandenburg an der Havel']",brandenburg an der havel,52.3724811,12.5045967,"Dorfkirche Wilhelmsdorf, 8, Wilhelmsdorf, Neustadt, Brandenburg an der Havel, Brandenburg, 14776, Deutschland",building,historic,POINT (12.5045967 52.3724811)
MVZ Hauptstra�e,Hauptpraxis,Dr. med. Linda Walther,Facharzt f�r Kinderheilkunde,14776,Brandenburg an der Havel,Deutsches Dorf,47,,Deutsches Dorf 47,525,334457.5,5809252.0,"['47, Brandenburg an der Havel']",brandenburg an der havel,52.4108261,12.5497933,"Brandenburg an der Havel, Brandenburg, Deutschland",administrative,boundary,POINT (12.5497933 52.4108261)
MVZ Hauptstra�e,Hauptpraxis,Dr. med. Ralf Damwerth,"Facharzt f�r Allgemeinmedizin, Hausarzt",14776,Brandenburg an der Havel,Deutsches Dorf,47,,Deutsches Dorf 47,925,334457.5,5809252.0,"['47, Brandenburg an der Havel']",brandenburg an der havel,52.4108261,12.5497933,"Brandenburg an der Havel, Brandenburg, Deutschland",administrative,boundary,POINT (12.5497933 52.4108261)
Praxis Dr. med. Mathias M�ller,Hauptpraxis,Dr. med. Mathias M�ller,"Facharzt f�r Allgemeinmedizin, Hausarzt",14772,Brandenburg an der Havel,Geranienweg,6,,Geranienweg 6,740,330627.89,5811456.66,"['6, Brandenburg an der Havel']",brandenburg an der havel,52.4139321,12.5670041,"6, Domlinden, Dom, Brandenburg an der Havel, Brandenburg, 14776, Deutschland",residential,building,POINT (12.5670041 52.4139321)
Praxis Dr. med. Anne Mantke,Hauptpraxis,Dr. med. Anne Mantke,"Facharzt f�r Allgemeinmedizin, Hausarzt",14770,Brandenburg an der Havel,Gertrud-Piter-Platz,3,,Gertrud-Piter-Platz 3,755,333115.7,5809703.94,"['3, Brandenburg an der Havel']",brandenburg an der havel,52.4152387,12.5660118,"Kurie III, 3, Burghof, Dom, Brandenburg an der Havel, Brandenburg, 14776, Deutschland",yes,building,POINT (12.5660118 52.4152387)
Praxis Dr. med. Thomas Resch,Hauptpraxis,Julia Dethloff,Facharzt f�r Frauenheilkunde u. Geburtshilfe,14770,Brandenburg an der Havel,Gertrud-Piter-Platz,3,,Gertrud-Piter-Platz 3,755,333115.7,5809703.94,"['3, Brandenburg an der Havel']",brandenburg an der havel,52.4152387,12.5660118,"Kurie III, 3, Burghof, Dom, Brandenburg an der Havel, Brandenburg, 14776, Deutschland",yes,building,POINT (12.5660118 52.4152387)
Praxis Dr. med. Thomas Resch,Hauptpraxis,Dr. med. Thomas Resch,Facharzt f�r Frauenheilkunde u. Geburtshilfe,14770,Brandenburg an der Havel,Gertrud-Piter-Platz,3,,Gertrud-Piter-Platz 3,755,333115.7,5809703.94,"['3, Brandenburg an der Havel']",brandenburg an der havel,52.4152387,12.5660118,"Kurie III, 3, Burghof, Dom, Brandenburg an der Havel, Brandenburg, 14776, Deutschland",yes,building,POINT (12.5660118 52.4152387)
Praxis Dr. med. Thomas Resch,Hauptpraxis,Kirsten Jungnickel,Facharzt f�r Frauenheilkunde u. Geburtshilfe,14770,Brandenburg an der Havel,Gertrud-Piter-Platz,6,,Gertrud-Piter-Platz 6,755,333066.2,5809714.0,"['6, Brandenburg an der Havel']",brandenburg an der havel,52.4139321,12.5670041,"6, Domlinden, Dom, Brandenburg an der Havel, Brandenburg, 14776, Deutschland",residential,building,POINT (12.5670041 52.4139321)
Praxis Dr. med. Thomas Resch,Hauptpraxis,Dr. med. Thomas Resch,Facharzt f�r Frauenheilkunde u. Geburtshilfe,14770,Brandenburg an der Havel,Gertrud-Piter-Platz,6,,Gertrud-Piter-Platz 6,755,333066.2,5809714.0,"['6, Brandenburg an der Havel']",brandenburg an der havel,52.4139321,12.5670041,"6, Domlinden, Dom, Brandenburg an der Havel, Brandenburg, 14776, Deutschland",residential,building,POINT (12.5670041 52.4139321)
Kerstin Grimmer,Hauptpraxis,Kerstin Grimmer,"Facharzt f�r Allgemeinmedizin, Hausarzt",14776,Brandenburg an der Havel,Geschwister-Scholl-Stra�e,32,,Geschwister-Scholl-Stra�e 32,760,334614.3,5808683.8,"['32, Brandenburg an der Havel']",brandenburg an der havel,52.3993655,12.5990400,"32, Großmathenweg, Neuschmerzke, Schmerzke, Brandenburg an der Havel, Brandenburg, 14776, Deutschland",yes,building,POINT (12.59904 52.3993655)
Praxis Dr. med. Hans Hoffmann,Hauptpraxis,Dr. med. Hans Hoffmann,"Facharzt f�r Innere Medizin, Hausarzt",14776,Brandenburg an der Havel,Geschwister-Scholl-Stra�e,32,,Geschwister-Scholl-Stra�e 32,760,334614.3,5808683.8,"['32, Brandenburg an der Havel']",brandenburg an der havel,52.3993655,12.5990400,"32, Großmathenweg, Neuschmerzke, Schmerzke, Brandenburg an der Havel, Brandenburg, 14776, Deutschland",yes,building,POINT (12.59904 52.3993655)
Praxis Dr. med. Hans Hoffmann,Hauptpraxis,Stefanie Michalke,"Facharzt f�r Allgemeinmedizin, Hausarzt",14776,Brandenburg an der Havel,Geschwister-Scholl-Stra�e,32,,Geschwister-Scholl-Stra�e 32,760,334614.3,5808683.8,"['32, Brandenburg an der Havel']",brandenburg an der havel,52.3993655,12.5990400,"32, Großmathenweg, Neuschmerzke, Schmerzke, Brandenburg an der Havel, Brandenburg, 14776, Deutschland",yes,building,POINT (12.59904 52.3993655)
Praxis Stephanie Ko�mehl-M�ller,Hauptpraxis,Stephanie Ko�mehl-M�ller,"Facharzt f�r Allgemeinmedizin, Hausarzt",14772,Brandenburg an der Havel,Gladiolenweg,28,,Gladiolenweg 28,763,330545.5,5811028.6,"['28, Brandenburg an der Havel']",brandenburg an der havel,52.4141261,12.5666198,"28, Domlinden, Dom, Brandenburg an der Havel, Brandenburg, 14776, Deutschland",yes,building,POINT (12.5666198 52.4141261)
Dr. med. Karin Arp,Hauptpraxis,Dr. med. Karin Arp,"Facharzt f�r Allgemeinmedizin, Hausarzt",14772,Brandenburg an der Havel,G�rdenallee,58,,G�rdenallee 58,773,330782.5,5811372.1,"['58, Brandenburg an der Havel']",brandenburg an der havel,52.4108261,12.5497933,"Brandenburg an der Havel, Brandenburg, Deutschland",administrative,boundary,POINT (12.5497933 52.4108261)
Praxis Dr. med. Thomas Denke,Hauptpraxis,Dr. med. Thomas Denke,"Facharzt f�r Innere Medizin, Hausarzt",14772,Brandenburg an der Havel,G�rdenallee,62,,G�rdenallee 62,773,330823.79,5811387.09,"['62, Brandenburg an der Havel']",brandenburg an der havel,52.4108261,12.5497933,"Brandenburg an der Havel, Brandenburg, Deutschland",administrative,boundary,POINT (12.5497933 52.4108261)
Dres. med. F. Sprenger/K. Langer und G. Noack,Hauptpraxis,Dr. med. Klarissa Langer,Facharzt f�r Innere Medizin\r\nSP Nephrologie,14776,Brandenburg an der Havel,G�ttiner Landstra�e,28,,G�ttiner Landstra�e 28,795,332985.78,5807199.67,"['28, Brandenburg an der Havel']",brandenburg an der havel,52.4141261,12.5666198,"28, Domlinden, Dom, Brandenburg an der Havel, Brandenburg, 14776, Deutschland",yes,building,POINT (12.5666198 52.4141261)
Dres. med. F. Sprenger/K. Langer und G. Noack,Hauptpraxis,Dr. med. Volkmar Jenke,Facharzt f�r Innere Medizin,14776,Brandenburg an der Havel,G�ttiner Stra�e,2,,G�ttiner Stra�e 2,805,332994.7,5807972.5,"['2, Brandenburg an der Havel']",brandenburg an der havel,52.4033893,12.5541053,"Theodor-Fontane-Schule, 2, Wredowplatz, Ring, Brandenburg an der Havel, Brandenburg, 14776, Deutschland",school,building,POINT (12.5541053 52.4033893)
Dres. med. F. Sprenger/K. Langer und G. Noack,Hauptpraxis,G�nter Noack,Facharzt f�r Innere Medizin,14776,Brandenburg an der Havel,G�ttiner Stra�e,28,,G�ttiner Stra�e 28,805,333018.0,5807744.9,"['28, Brandenburg an der Havel']",brandenburg an der havel,52.4141261,12.5666198,"28, Domlinden, Dom, Brandenburg an der Havel, Brandenburg, 14776, Deutschland",yes,building,POINT (12.5666198 52.4141261)
Dres. med. F. Sprenger/K. Langer und G. Noack,Hauptpraxis,Dipl.-Med. Fabian Sprenger,Facharzt f�r Innere Medizin\r\nSP Nephrologie,14776,Brandenburg an der Havel,G�ttiner Stra�e,28,,G�ttiner Stra�e 28,805,333018.0,5807744.9,"['28, Brandenburg an der Havel']",brandenburg an der havel,52.4141261,12.5666198,"28, Domlinden, Dom, Brandenburg an der Havel, Brandenburg, 14776, Deutschland",yes,building,POINT (12.5666198 52.4141261)
Susanne Heindorf,Hauptpraxis,Susanne Heindorf,Facharzt f�r Frauenheilkunde u. Geburtshilfe,14776,Brandenburg an der Havel,Gro�e M�nzenstra�e,2,,Gro�e M�nzenstra�e 2,862,334173.74,5809405.19,"['2, Brandenburg an der Havel']",brandenburg an der havel,52.4033893,12.5541053,"Theodor-Fontane-Schule, 2, Wredowplatz, Ring, Brandenburg an der Havel, Brandenburg, 14776, Deutschland",school,building,POINT (12.5541053 52.4033893)
Susanne Heindorf,Hauptpraxis,Josefine Manthei,Facharzt f�r Frauenheilkunde u. Geburtshilfe,14776,Brandenburg an der Havel,Gro�e M�nzenstra�e,2,,Gro�e M�nzenstra�e 2,862,334173.74,5809405.19,"['2, Brandenburg an der Havel']",brandenburg an der havel,52.4033893,12.5541053,"Theodor-Fontane-Schule, 2, Wredowplatz, Ring, Brandenburg an der Havel, Brandenburg, 14776, Deutschland",school,building,POINT (12.5541053 52.4033893)
Jan Heinrich K�neke/ Jakob Sebastian Engst,Hauptpraxis,Jakob Sebastian Engst,Facharzt f�r Innere Medizin und Kardiologie,14776,Brandenburg an der Havel,Hauptstra�e,34,,Hauptstra�e 34,925,334022.9,5809440.3,"['34, Brandenburg an der Havel']",brandenburg an der havel,52.3992482,12.5990581,"34, Großmathenweg, Neuschmerzke, Schmerzke, Brandenburg an der Havel, Brandenburg, 14776, Deutschland",yes,building,POINT (12.5990581 52.3992482)
Jan Heinrich K�neke/ Jakob Sebastian Engst,Hauptpraxis,Jan Heinrich K�neke,Facharzt f�r Innere Medizin und Kardiologie,14776,Brandenburg an der Havel,Hauptstra�e,34,,Hauptstra�e 34,925,334022.9,5809440.3,"['34, Brandenburg an der Havel']",brandenburg an der havel,52.3992482,12.5990581,"34, Großmathenweg, Neuschmerzke, Schmerzke, Brandenburg an der Havel, Brandenburg, 14776, Deutschland",yes,building,POINT (12.5990581 52.3992482)
Praxis Dr. rer. medic. Franziska Sch�nig,Hauptpraxis,Dr. rer. Medic. Franziska Sch�nig,Facharzt f�r Haut- und Geschlechtskrankheiten,14776,Brandenburg an der Havel,Hauptstra�e,34,A,Hauptstra�e 34 A,925,334001.57,5809407.19,"['34A, Brandenburg an der Havel']",brandenburg an der havel,52.4108261,12.5497933,"Brandenburg an der Havel, Brandenburg, Deutschland",administrative,boundary,POINT (12.5497933 52.4108261)
Praxis Katharina Tugendreich,Hauptpraxis,Katharina Tugendreich,Facharzt f�r Haut- und Geschlechtskrankheiten,14776,Brandenburg an der Havel,Hauptstra�e,34,A,Hauptstra�e 34 A,925,334001.57,5809407.19,"['34A, Brandenburg an der Havel']",brandenburg an der havel,52.4108261,12.5497933,"Brandenburg an der Havel, Brandenburg, Deutschland",administrative,boundary,POINT (12.5497933 52.4108261)
Dr. Zerbaum & Kollegen MVZ,Hauptpraxis,Dr. med. Chrissanti Riegel,"Facharzt f�r Allgemeinmedizin, Hausarzt",14776,Brandenburg an der Havel,Petersilienstra�e,12,,Petersilienstra�e 12,925,5809477.0,334039.55,"['12, Brandenburg an der Havel']",brandenburg an der havel,52.4144666,12.5679037,"12, Domlinden, Dom, Brandenburg an der Havel, Brandenburg, 14776, Deutschland",yes,building,POINT (12.5679037 52.4144666)
Dr. Zerbaum & Kollegen MVZ,Hauptpraxis,Dr. med. Franziska Zerbaum,"Facharzt f�r Allgemeinmedizin, Hausarzt",14776,Brandenburg an der Havel,Petersilienstra�e,12,,Petersilienstra�e 12,925,5809477.0,334039.55,"['12, Brandenburg an der Havel']",brandenburg an der havel,52.4144666,12.5679037,"12, Domlinden, Dom, Brandenburg an der Havel, Brandenburg, 14776, Deutschland",yes,building,POINT (12.5679037 52.4144666)
Dr. Zerbaum & Kollegen MVZ,Hauptpraxis,Dr. med. Mario Zerbaum,"Facharzt f�r Allgemeinmedizin, Hausarzt",14776,Brandenburg an der Havel,Petersilienstra�e,12,,Petersilienstra�e 12,925,5809477.0,334039.55,"['12, Brandenburg an der Havel']",brandenburg an der havel,52.4144666,12.5679037,"12, Domlinden, Dom, Brandenburg an der Havel, Brandenburg, 14776, Deutschland",yes,building,POINT (12.5679037 52.4144666)
Dr. Zerbaum & Kollegen MVZ,Hauptpraxis,Dr. med. Anika Ulbrich,Facharzt f�r Innere Medizin; Hausarzt,14776,Brandenburg an der Havel,Petersilienstra�e,12,,Petersilienstra�e 12,925,5809477.0,334039.55,"['12, Brandenburg an der Havel']",brandenburg an der havel,52.4144666,12.5679037,"12, Domlinden, Dom, Brandenburg an der Havel, Brandenburg, 14776, Deutschland",yes,building,POINT (12.5679037 52.4144666)
Praxis Dr. med. Florian Connolly,Hauptpraxis,Dr. med. Florian Connoly,Facharzt f�r Neurologie,14776,Brandenburg an der Havel,Petersilienstra�e,12,,Petersilienstra�e 12,925,5809477.0,334039.55,"['12, Brandenburg an der Havel']",brandenburg an der havel,52.4144666,12.5679037,"12, Domlinden, Dom, Brandenburg an der Havel, Brandenburg, 14776, Deutschland",yes,building,POINT (12.5679037 52.4144666)
Praxis Dr. med. Florian Connolly,Hauptpraxis,Dr. med. Mischa Schwerdtfeger,Facharzt f�r Neurologie,14776,Brandenburg an der Havel,Petersilienstra�e,12,,Petersilienstra�e 12,925,5809477.0,334039.55,"['12, Brandenburg an der Havel']",brandenburg an der havel,52.4144666,12.5679037,"12, Domlinden, Dom, Brandenburg an der Havel, Brandenburg, 14776, Deutschland",yes,building,POINT (12.5679037 52.4144666)
Praxis Dr. med. Kerstin Behring,Hauptpraxis,Dr. med. Kerstin Behring,Facharzt f�r Kinder- u. Jugendpsychiatrie,14776,Brandenburg an der Havel,Hauptstra�e,58,,Hauptstra�e 58,925,333902.91,5809532.28,"['58, Brandenburg an der Havel']",brandenburg an der havel,52.4108261,12.5497933,"Brandenburg an der Havel, Brandenburg, Deutschland",administrative,boundary,POINT (12.5497933 52.4108261)
Dr. med. Susanne K�pper,Hauptpraxis,Dr.med. Susanne K�pper,Facharzt f�r Innere Medizin; Hausarzt,14776,Brandenburg an der Havel,Havelstra�e,3,,Havelstra�e 3,935,333707.0,5809324.7,"['3, Brandenburg an der Havel']",brandenburg an der havel,52.4152387,12.5660118,"Kurie III, 3, Burghof, Dom, Brandenburg an der Havel, Brandenburg, 14776, Deutschland",yes,building,POINT (12.5660118 52.4152387)
Dr. med. Tanja Wach,Hauptpraxis,Dr. med. Tanja Wach,Facharzt f�r Augenheilkunde,14776,Brandenburg an der Havel,Havelstra�e,9,,Havelstra�e 9,935,333669.59,5809298.91,"['9, Brandenburg an der Havel']",brandenburg an der havel,52.4163983,12.5562830,"9, Gotthardtkirchplatz, Altstadt, Brandenburg an der Havel, Brandenburg, 14770, Deutschland",yes,building,POINT (12.556283 52.4163983)
OGD MVZ Neuruppin II,Hauptpraxis,Ina M�kelburg,Facharzt f�r Strahlentherapie,14770,Brandenburg an der Havel,Hochstra�e,25,,Hochstra�e 25,1000,332911.56,5809937.24,"['25, Brandenburg an der Havel']",brandenburg an der havel,52.4155279,12.5669023,"Ev. Grundschule, 25, Domlinden, Dom, Brandenburg an der Havel, Brandenburg, 14776, Deutschland",school,building,POINT (12.5669023 52.4155279)
OGD MVZ Neuruppin II,Hauptpraxis,Dr. med. Sebastian Welsch,Facharzt f�r Strahlentherapie,14770,Brandenburg an der Havel,Hochstra�e,25,,Hochstra�e 25,1000,332911.56,5809937.24,"['25, Brandenburg an der Havel']",brandenburg an der havel,52.4155279,12.5669023,"Ev. Grundschule, 25, Domlinden, Dom, Brandenburg an der Havel, Brandenburg, 14776, Deutschland",school,building,POINT (12.5669023 52.4155279)
OGD MVZ Neuruppin II,Zweigpraxis,Dr. med. Andre Buchali,Facharzt f�r Strahlentherapie,14770,Brandenburg an der Havel,Hochstra�e,25,,Hochstra�e 25,1000,332911.56,5809937.24,"['25, Brandenburg an der Havel']",brandenburg an der havel,52.4155279,12.5669023,"Ev. Grundschule, 25, Domlinden, Dom, Brandenburg an der Havel, Brandenburg, 14776, Deutschland",school,building,POINT (12.5669023 52.4155279)
OGD MVZ Neuruppin II,Zweigpraxis,Dr. med. Winfried Huhnt ,Facharzt f�r Strahlentherapie,14770,Brandenburg an der Havel,Hochstra�e,25,,Hochstra�e 25,1000,332911.56,5809937.24,"['25, Brandenburg an der Havel']",brandenburg an der havel,52.4155279,12.5669023,"Ev. Grundschule, 25, Domlinden, Dom, Brandenburg an der Havel, Brandenburg, 14776, Deutschland",school,building,POINT (12.5669023 52.4155279)
Klinikum Westbrandenburg GmbH ,Hauptpraxis,Dr. med. Hans K�ssel,Facharzt f�r Kinderheilkunde,14770,Brandenburg an der Havel,Hochstra�e,29,,Hochstra�e 29,1000,333125.74,5809871.35,"['29, Brandenburg an der Havel']",brandenburg an der havel,52.4108261,12.5497933,"Brandenburg an der Havel, Brandenburg, Deutschland",administrative,boundary,POINT (12.5497933 52.4108261)
Klinikum Westbrandenburg GmbH ,Hauptpraxis,Stefanie Lindstedt-Wolter       ,Facharzt f�r Kinderheilkunde,14770,Brandenburg an der Havel,Hochstra�e,29,,Hochstra�e 29,1000,333125.74,5809871.35,"['29, Brandenburg an der Havel']",brandenburg an der havel,52.4108261,12.5497933,"Brandenburg an der Havel, Brandenburg, Deutschland",administrative,boundary,POINT (12.5497933 52.4108261)
Klinikum Westbrandenburg GmbH ,Hauptpraxis,PD Dr. med. habil. Jochen Mainz,Facharzt f�r Kinderheilkunde,14770,Brandenburg an der Havel,Hochstra�e,29,,Hochstra�e 29,1000,333125.74,5809871.35,"['29, Brandenburg an der Havel']",brandenburg an der havel,52.4108261,12.5497933,"Brandenburg an der Havel, Brandenburg, Deutschland",administrative,boundary,POINT (12.5497933 52.4108261)
Klinikum Westbrandenburg GmbH ,Hauptpraxis,Mathias M�ller,Facharzt f�r Kinderheilkunde,14770,Brandenburg an der Havel,Hochstra�e,29,,Hochstra�e 29,1000,333125.74,5809871.35,"['29, Brandenburg an der Havel']",brandenburg an der havel,52.4108261,12.5497933,"Brandenburg an der Havel, Brandenburg, Deutschland",administrative,boundary,POINT (12.5497933 52.4108261)
MVZ Hochstra�e,Hauptpraxis,Dr. med. Thomas Kalinski,Facharzt f�r Pathologie,14770,Brandenburg an der Havel,Hochstra�e,29,,Hochstra�e 29,1000,333125.74,5809871.35,"['29, Brandenburg an der Havel']",brandenburg an der havel,52.4108261,12.5497933,"Brandenburg an der Havel, Brandenburg, Deutschland",administrative,boundary,POINT (12.5497933 52.4108261)
MVZ Hochstra�e,Hauptpraxis,Christian Baars,Facharzt f�r Diagnostische Radiologie,14770,Brandenburg an der Havel,Hochstra�e,29,,Hochstra�e 29,1000,333125.74,5809871.35,"['29, Brandenburg an der Havel']",brandenburg an der havel,52.4108261,12.5497933,"Brandenburg an der Havel, Brandenburg, Deutschland",administrative,boundary,POINT (12.5497933 52.4108261)
MVZ Hochstra�e,Hauptpraxis,Christian Dettenborn,Facharzt f�r Diagnostische Radiologie,14770,Brandenburg an der Havel,Hochstra�e,29,,Hochstra�e 29,1000,333125.74,5809871.35,"['29, Brandenburg an der Havel']",brandenburg an der havel,52.4108261,12.5497933,"Brandenburg an der Havel, Brandenburg, Deutschland",administrative,boundary,POINT (12.5497933 52.4108261)
MVZ Hochstra�e,Hauptpraxis,Christian Stasche,Facharzt f�r Diagnostische Radiologie,14770,Brandenburg an der Havel,Hochstra�e,29,,Hochstra�e 29,1000,333125.74,5809871.35,"['29, Brandenburg an der Havel']",brandenburg an der havel,52.4108261,12.5497933,"Brandenburg an der Havel, Brandenburg, Deutschland",administrative,boundary,POINT (12.5497933 52.4108261)
MVZ Hochstra�e,Hauptpraxis,Aileen Jagdhuhnrg ,Facharzt f�r Frauenheilkunde u. Geburtshilfe,14770,Brandenburg an der Havel,Hochstra�e,29,,Hochstra�e 29,1000,333125.74,5809871.35,"['29, Brandenburg an der Havel']",brandenburg an der havel,52.4108261,12.5497933,"Brandenburg an der Havel, Brandenburg, Deutschland",administrative,boundary,POINT (12.5497933 52.4108261)
MVZ Hochstra�e,Hauptpraxis,Dr. med. Cornelia M�ller,Facharzt f�r Frauenheilkunde u. Geburtshilfe,14776,Brandenburg an der Havel,Hochstra�e,29,,Hochstra�e 29,1000,333125.74,5809871.35,"['29, Brandenburg an der Havel']",brandenburg an der havel,52.4108261,12.5497933,"Brandenburg an der Havel, Brandenburg, Deutschland",administrative,boundary,POINT (12.5497933 52.4108261)
MVZ Hochstra�e,Hauptpraxis,Jessica Schr�der,Facharzt f�r Frauenheilkunde u. Geburtshilfe,14770,Brandenburg an der Havel,Hochstra�e,29,,Hochstra�e 29,1000,333125.74,5809871.35,"['29, Brandenburg an der Havel']",brandenburg an der havel,52.4108261,12.5497933,"Brandenburg an der Havel, Brandenburg, Deutschland",administrative,boundary,POINT (12.5497933 52.4108261)
MVZ Hochstra�e,Hauptpraxis,Dr. med. Matthias Tregel,Facharzt f�r Laboratoriumsmedizin und Transfusionsmedizin,14770,Brandenburg an der Havel,Hochstra�e,29,,Hochstra�e 29,1000,333125.74,5809871.35,"['29, Brandenburg an der Havel']",brandenburg an der havel,52.4108261,12.5497933,"Brandenburg an der Havel, Brandenburg, Deutschland",administrative,boundary,POINT (12.5497933 52.4108261)
MVZ Hochstra�e,Hauptpraxis,Dr. med Oliver Glocker,"Facharzt f�r Mikrobiologie, Virologie und Infektionsepidemiologie",14770,Brandenburg an der Havel,Hochstra�e,29,,Hochstra�e 29,1000,333125.74,5809871.35,"['29, Brandenburg an der Havel']",brandenburg an der havel,52.4108261,12.5497933,"Brandenburg an der Havel, Brandenburg, Deutschland",administrative,boundary,POINT (12.5497933 52.4108261)
MVZ Hochstra�e,Hauptpraxis,Dr. med. Ute R�dig,Facharzt f�r Nuklearmedizin,14770,Brandenburg an der Havel,Hochstra�e,29,,Hochstra�e 29,1000,333125.74,5809871.35,"['29, Brandenburg an der Havel']",brandenburg an der havel,52.4108261,12.5497933,"Brandenburg an der Havel, Brandenburg, Deutschland",administrative,boundary,POINT (12.5497933 52.4108261)
MVZ Hochstra�e,Hauptpraxis,Dr. med. Marlis G�nther,Facharzt f�r Pathologie,14770,Brandenburg an der Havel,Hochstra�e,29,,Hochstra�e 29,1000,333125.74,5809871.35,"['29, Brandenburg an der Havel']",brandenburg an der havel,52.4108261,12.5497933,"Brandenburg an der Havel, Brandenburg, Deutschland",administrative,boundary,POINT (12.5497933 52.4108261)
MVZ Hochstra�e,Hauptpraxis,Dr. med. Sabine Hippe,Facharzt f�r Pathologie,14770,Brandenburg an der Havel,Hochstra�e,29,,Hochstra�e 29,1000,333125.74,5809871.35,"['29, Brandenburg an der Havel']",brandenburg an der havel,52.4108261,12.5497933,"Brandenburg an der Havel, Brandenburg, Deutschland",administrative,boundary,POINT (12.5497933 52.4108261)
MVZ Hochstra�e,Hauptpraxis,Dr. med. Christian Hirschmann,Facharzt f�r Pathologie,14770,Brandenburg an der Havel,Hochstra�e,29,,Hochstra�e 29,1000,333125.74,5809871.35,"['29, Brandenburg an der Havel']",brandenburg an der havel,52.4108261,12.5497933,"Brandenburg an der Havel, Brandenburg, Deutschland",administrative,boundary,POINT (12.5497933 52.4108261)
MVZ Hochstra�e,Hauptpraxis,Dr. med .Branko Novak,Facharzt f�r Innere Medizin u. SP Endokrinologie u. Diabetologie,14770,Brandenburg an der Havel,Hochstra�e,29,,Hochstra�e 29,1000,333125.74,5809871.35,"['29, Brandenburg an der Havel']",brandenburg an der havel,52.4108261,12.5497933,"Brandenburg an der Havel, Brandenburg, Deutschland",administrative,boundary,POINT (12.5497933 52.4108261)
PD Dr. med. K. Jahnke / Dipl.-Med. C. Saati u. L. Fritz,Hauptpraxis,L�der Fritz,Facharzt f�r Innere Medizin,14770,Brandenburg an der Havel,Hochstra�e,29,,Hochstra�e 29,1000,333125.74,5809871.35,"['29, Brandenburg an der Havel']",brandenburg an der havel,52.4108261,12.5497933,"Brandenburg an der Havel, Brandenburg, Deutschland",administrative,boundary,POINT (12.5497933 52.4108261)
PD Dr. med. K. Jahnke / Dipl.-Med. C. Saati u. L. Fritz,Hauptpraxis,PD Dr. med. Kristoph Jahnke ,Facharzt f�r Innere Medizin,14770,Brandenburg an der Havel,Hochstra�e,29,,Hochstra�e 29,1000,333125.74,5809871.35,"['29, Brandenburg an der Havel']",brandenburg an der havel,52.4108261,12.5497933,"Brandenburg an der Havel, Brandenburg, Deutschland",administrative,boundary,POINT (12.5497933 52.4108261)
PD Dr. med. K. Jahnke / Dipl.-Med. C. Saati u. L. Fritz,Hauptpraxis,Dipl.-Med. Carola Saati ,Facharzt f�r Innere Medizin,14770,Brandenburg an der Havel,Hochstra�e,29,,Hochstra�e 29,1000,333125.74,5809871.35,"['29, Brandenburg an der Havel']",brandenburg an der havel,52.4108261,12.5497933,"Brandenburg an der Havel, Brandenburg, Deutschland",administrative,boundary,POINT (12.5497933 52.4108261)
St�dt. Klinikum Brandenburg GmbH,Hauptpraxis,Matthias G�tze,Facharzt f�r Urologie,14770,Brandenburg an der Havel,Hochstra�e,29,,Hochstra�e 29,1000,333125.74,5809871.35,"['29, Brandenburg an der Havel']",brandenburg an der havel,52.4108261,12.5497933,"Brandenburg an der Havel, Brandenburg, Deutschland",administrative,boundary,POINT (12.5497933 52.4108261)
St�dt. Klinikum Brandenburg GmbH,Hauptpraxis,Dr. med. Birgit Didczuneit-Sandhops,Facharzt f�r Hals-Nasen-Ohrenheilkunde,14770,Brandenburg an der Havel,Hochstra�e,29,,Hochstra�e 29,1000,333125.74,5809871.35,"['29, Brandenburg an der Havel']",brandenburg an der havel,52.4108261,12.5497933,"Brandenburg an der Havel, Brandenburg, Deutschland",administrative,boundary,POINT (12.5497933 52.4108261)
St�dt. Klinikum Brandenburg GmbH,Hauptpraxis,Dr. med. Andreas Wichterei,Facharzt f�r Hals-Nasen-Ohrenheilkunde,14770,Brandenburg an der Havel,Hochstra�e,29,,Hochstra�e 29,1000,333125.74,5809871.35,"['29, Brandenburg an der Havel']",brandenburg an der havel,52.4108261,12.5497933,"Brandenburg an der Havel, Brandenburg, Deutschland",administrative,boundary,POINT (12.5497933 52.4108261)
St�dt. Klinikum Brandenburg GmbH,Hauptpraxis,Prof. Dr. med. Christian Ewald,Facharzt f�r Neurochirurgie,14770,Brandenburg an der Havel,Hochstra�e,29,,Hochstra�e 29,1000,333125.74,5809871.35,"['29, Brandenburg an der Havel']",brandenburg an der havel,52.4108261,12.5497933,"Brandenburg an der Havel, Brandenburg, Deutschland",administrative,boundary,POINT (12.5497933 52.4108261)
St�dt. Klinikum Brandenburg GmbH,Hauptpraxis,Dr. med. Ekkehard Scholz,Facharzt f�r Neurologie,14770,Brandenburg an der Havel,Hochstra�e,29,,Hochstra�e 29,1000,333125.74,5809871.35,"['29, Brandenburg an der Havel']",brandenburg an der havel,52.4108261,12.5497933,"Brandenburg an der Havel, Brandenburg, Deutschland",administrative,boundary,POINT (12.5497933 52.4108261)
St�dt. Klinikum Brandenburg GmbH Dr. med. Annette Sturm,Hauptpraxis,Dr. med. Annette Sturmenburg,Facharzt f�r Augenheilkunde,14770,Brandenburg an der Havel,Hochstra�e,29,,Hochstra�e 29,1000,333125.74,5809871.35,"['29, Brandenburg an der Havel']",brandenburg an der havel,52.4108261,12.5497933,"Brandenburg an der Havel, Brandenburg, Deutschland",administrative,boundary,POINT (12.5497933 52.4108261)
St�dt. Klinikum Brandenburg GmbH Dr. med. G�tz Mollenhauer,Hauptpraxis,Dr. med. G�tz Mollenhauer,Facharzt f�r Innere Medizin,14770,Brandenburg an der Havel,Hochstra�e,29,,Hochstra�e 29,1000,333125.74,5809871.35,"['29, Brandenburg an der Havel']",brandenburg an der havel,52.4108261,12.5497933,"Brandenburg an der Havel, Brandenburg, Deutschland",administrative,boundary,POINT (12.5497933 52.4108261)
Praxis Dr. med. Friederike Nowak,Hauptpraxis,Dr. med. Friederike Nowak,Facharzt f�r Haut- und Geschlechtskrankheiten,14776,Brandenburg an der Havel,Jacobstra�e,10,,Jacobstra�e 10,1032,333765.2,5808811.11,"['10, Brandenburg an der Havel']",brandenburg an der havel,52.4166548,12.5560971,"Saldria, 10, Gotthardtkirchplatz, Altstadt, Brandenburg an der Havel, Brandenburg, 14770, Deutschland",yes,building,POINT (12.5560971 52.4166548)
Praxis Dr. med. Christian Wilke,Hauptpraxis,Dr. med. Christian Wilke,"Facharzt f�r Allgemeinmedizin, Hausarzt",14776,Brandenburg an der Havel,Jacobstra�e,13,,Jacobstra�e 13,1032,333716.17,5808748.37,"['13, Brandenburg an der Havel']",brandenburg an der havel,52.4145442,12.5680108,"13, Domlinden, Dom, Brandenburg an der Havel, Brandenburg, 14776, Deutschland",yes,building,POINT (12.5680108 52.4145442)
Praxis Dr. med. Christian Wilke,Hauptpraxis,Dr. med. Rainer Wilke,"Praktischer Arzt, Hausarzt",14776,Brandenburg an der Havel,Jacobstra�e,13,,Jacobstra�e 13,1032,333716.17,5808748.37,"['13, Brandenburg an der Havel']",brandenburg an der havel,52.4145442,12.5680108,"13, Domlinden, Dom, Brandenburg an der Havel, Brandenburg, 14776, Deutschland",yes,building,POINT (12.5680108 52.4145442)
Dipl.-Med. Bianka Krause                            Anja Mollenhauer,Hauptpraxis,Dipl.-Med. Bianka Krause,Facharzt f�r Kinderheilkunde,14776,Brandenburg an der Havel,Jacobstra�e,14,,Jacobstra�e 14,1032,333706.55,5808736.01,"['14, Brandenburg an der Havel']",brandenburg an der havel,52.4146082,12.5681119,"14, Domlinden, Dom, Brandenburg an der Havel, Brandenburg, 14776, Deutschland",yes,building,POINT (12.5681119 52.4146082)
Dipl.-Med. Bianka Krause                            Anja Mollenhauer,Hauptpraxis,Anja Mollenhauer,Facharzt f�r Kinderheilkunde,14776,Brandenburg an der Havel,Jacobstra�e,14,,Jacobstra�e 14,1032,333706.55,5808736.01,"['14, Brandenburg an der Havel']",brandenburg an der havel,52.4146082,12.5681119,"14, Domlinden, Dom, Brandenburg an der Havel, Brandenburg, 14776, Deutschland",yes,building,POINT (12.5681119 52.4146082)
Dipl.-Med. Ina Grasemann,Hauptpraxis,Dipl.-Med. Ina Grasemann,Facharzt f�r Frauenheilkunde u. Geburtshilfe,14776,Brandenburg an der Havel,Johann-Carl-Sybel-Stra�e,1,,Johann-Carl-Sybel-Stra�e 1,1042,334332.0,5808509.62,"['1, Brandenburg an der Havel']",brandenburg an der havel,52.4013265,12.3916843,"Dorotheenhof, 1, Zum Dorotheenhof, Dorotheenhof, Woltersdorf, Brandenburg an der Havel, Wusterwitz, Potsdam-Mittelmark, Brandenburg, 14789, Deutschland",yes,building,POINT (12.3916843 52.4013265)
Dr. med. Nina Harbisch,Hauptpraxis,Dr. med. Nina Harbisch,Facharzt f�r Innere Medizin; Pneumologie,14776,Brandenburg an der Havel,Johann-Carl-Sybel-Stra�e,1,,Johann-Carl-Sybel-Stra�e 1,1042,334332.0,5808509.62,"['1, Brandenburg an der Havel']",brandenburg an der havel,52.4013265,12.3916843,"Dorotheenhof, 1, Zum Dorotheenhof, Dorotheenhof, Woltersdorf, Brandenburg an der Havel, Wusterwitz, Potsdam-Mittelmark, Brandenburg, 14789, Deutschland",yes,building,POINT (12.3916843 52.4013265)
Medizinisches Zentrum Am Hauptbahnhof,Hauptpraxis,Dr. med. Gabriele Zeidler,Facharzt f�r Innere Medizin,14776,Brandenburg an der Havel,Johann-Carl-Sybel-Stra�e,1,,Johann-Carl-Sybel-Stra�e 1,1042,334332.0,5808509.62,"['1, Brandenburg an der Havel']",brandenburg an der havel,52.4013265,12.3916843,"Dorotheenhof, 1, Zum Dorotheenhof, Dorotheenhof, Woltersdorf, Brandenburg an der Havel, Wusterwitz, Potsdam-Mittelmark, Brandenburg, 14789, Deutschland",yes,building,POINT (12.3916843 52.4013265)
Medizinisches Zentrum Am Hauptbahnhof,Hauptpraxis,Ourania Gioti,Facharzt f�r Innere Medizin SP Rheumatologie,14776,Brandenburg an der Havel,Johann-Carl-Sybel-Stra�e,1,,Johann-Carl-Sybel-Stra�e 1,1042,334332.0,5808509.62,"['1, Brandenburg an der Havel']",brandenburg an der havel,52.4013265,12.3916843,"Dorotheenhof, 1, Zum Dorotheenhof, Dorotheenhof, Woltersdorf, Brandenburg an der Havel, Wusterwitz, Potsdam-Mittelmark, Brandenburg, 14789, Deutschland",yes,building,POINT (12.3916843 52.4013265)
Medizinisches Zentrum Am Hauptbahnhof,Hauptpraxis,Jakob Feldmann,"Facharzt f�r Innere Medizin, Hausarzt",14776,Brandenburg an der Havel,Johann-Carl-Sybel-Stra�e,1,,Johann-Carl-Sybel-Stra�e 1,1042,334332.0,5808509.62,"['1, Brandenburg an der Havel']",brandenburg an der havel,52.4013265,12.3916843,"Dorotheenhof, 1, Zum Dorotheenhof, Dorotheenhof, Woltersdorf, Brandenburg an der Havel, Wusterwitz, Potsdam-Mittelmark, Brandenburg, 14789, Deutschland",yes,building,POINT (12.3916843 52.4013265)
Medizinisches Zentrum Am Hauptbahnhof,Hauptpraxis,Dr. med. Susann Patschan,Facharzt f�r Innere Medizin/Rheumatologie,14776,Brandenburg an der Havel,Johann-Carl-Sybel-Stra�e,1,,Johann-Carl-Sybel-Stra�e 1,1042,334332.0,5808509.62,"['1, Brandenburg an der Havel']",brandenburg an der havel,52.4013265,12.3916843,"Dorotheenhof, 1, Zum Dorotheenhof, Dorotheenhof, Woltersdorf, Brandenburg an der Havel, Wusterwitz, Potsdam-Mittelmark, Brandenburg, 14789, Deutschland",yes,building,POINT (12.3916843 52.4013265)
Medizinisches Zentrum Am Hauptbahnhof,Hauptpraxis,Dipl.-Med. Wulf-Eckahard Grasemann,"Facharzt f�r Allgemeinmedizin, Hausarzt",14776,Brandenburg an der Havel,Johann-Carl-Sybel-Stra�e,1,,Johann-Carl-Sybel-Stra�e 1,1042,334332.0,5808509.62,"['1, Brandenburg an der Havel']",brandenburg an der havel,52.4013265,12.3916843,"Dorotheenhof, 1, Zum Dorotheenhof, Dorotheenhof, Woltersdorf, Brandenburg an der Havel, Wusterwitz, Potsdam-Mittelmark, Brandenburg, 14789, Deutschland",yes,building,POINT (12.3916843 52.4013265)
Medizinisches Zentrum Am Hauptbahnhof,Hauptpraxis,Senol G�naltan,"Facharzt f�r Allgemeinmedizin, Hausarzt",14776,Brandenburg an der Havel,Johann-Carl-Sybel-Stra�e,1,,Johann-Carl-Sybel-Stra�e 1,1042,334332.0,5808509.62,"['1, Brandenburg an der Havel']",brandenburg an der havel,52.4013265,12.3916843,"Dorotheenhof, 1, Zum Dorotheenhof, Dorotheenhof, Woltersdorf, Brandenburg an der Havel, Wusterwitz, Potsdam-Mittelmark, Brandenburg, 14789, Deutschland",yes,building,POINT (12.3916843 52.4013265)
Medizinisches Zentrum Am Hauptbahnhof,Hauptpraxis,Dr. med. Milena Schaeffer-Kurepkat,"Facharzt f�r Allgemeinmedizin, Hausarzt",14776,Brandenburg an der Havel,Johann-Carl-Sybel-Stra�e,1,,Johann-Carl-Sybel-Stra�e 1,1042,334332.0,5808509.62,"['1, Brandenburg an der Havel']",brandenburg an der havel,52.4013265,12.3916843,"Dorotheenhof, 1, Zum Dorotheenhof, Dorotheenhof, Woltersdorf, Brandenburg an der Havel, Wusterwitz, Potsdam-Mittelmark, Brandenburg, 14789, Deutschland",yes,building,POINT (12.3916843 52.4013265)
Medizinisches Zentrum Am Hauptbahnhof,Hauptpraxis,Dr. med. Birgit Jeske,"Facharzt f�r Allgemeinmedizin, Hausarzt",14776,Brandenburg an der Havel,Johann-Carl-Sybel-Stra�e,1,,Johann-Carl-Sybel-Stra�e 1,1042,334332.0,5808509.62,"['1, Brandenburg an der Havel']",brandenburg an der havel,52.4013265,12.3916843,"Dorotheenhof, 1, Zum Dorotheenhof, Dorotheenhof, Woltersdorf, Brandenburg an der Havel, Wusterwitz, Potsdam-Mittelmark, Brandenburg, 14789, Deutschland",yes,building,POINT (12.3916843 52.4013265)
Medizinisches Zentrum Am Hauptbahnhof,Hauptpraxis,Jana Neinert,Facharzt f�r Kinderheilkunde,14776,Brandenburg an der Havel,Johann-Carl-Sybel-Stra�e,1,,Johann-Carl-Sybel-Stra�e 1,1042,334332.0,5808509.62,"['1, Brandenburg an der Havel']",brandenburg an der havel,52.4013265,12.3916843,"Dorotheenhof, 1, Zum Dorotheenhof, Dorotheenhof, Woltersdorf, Brandenburg an der Havel, Wusterwitz, Potsdam-Mittelmark, Brandenburg, 14789, Deutschland",yes,building,POINT (12.3916843 52.4013265)
MVZ -Am Hauptbahnhof-1,Hauptpraxis,Dr. med. Sophia Arndt,Facharzt f�r Augenheilkunde,14776,Brandenburg an der Havel,Johann-Carl-Sybel-Stra�e,1,,Johann-Carl-Sybel-Stra�e 1,1042,334332.0,5808509.62,"['1, Brandenburg an der Havel']",brandenburg an der havel,52.4013265,12.3916843,"Dorotheenhof, 1, Zum Dorotheenhof, Dorotheenhof, Woltersdorf, Brandenburg an der Havel, Wusterwitz, Potsdam-Mittelmark, Brandenburg, 14789, Deutschland",yes,building,POINT (12.3916843 52.4013265)
MVZ -Am Hauptbahnhof-1,Hauptpraxis,Dr. med. Luise Langhans,Facharzt f�r Augenheilkunde,14776,Brandenburg an der Havel,Johann-Carl-Sybel-Stra�e,1,,Johann-Carl-Sybel-Stra�e 1,1042,334332.0,5808509.62,"['1, Brandenburg an der Havel']",brandenburg an der havel,52.4013265,12.3916843,"Dorotheenhof, 1, Zum Dorotheenhof, Dorotheenhof, Woltersdorf, Brandenburg an der Havel, Wusterwitz, Potsdam-Mittelmark, Brandenburg, 14789, Deutschland",yes,building,POINT (12.3916843 52.4013265)
MVZ -Am Hauptbahnhof-1,Hauptpraxis,Roswitha Lukas-Heger,Facharzt f�r Augenheilkunde,14776,Brandenburg an der Havel,Johann-Carl-Sybel-Stra�e,1,,Johann-Carl-Sybel-Stra�e 1,1042,334332.0,5808509.62,"['1, Brandenburg an der Havel']",brandenburg an der havel,52.4013265,12.3916843,"Dorotheenhof, 1, Zum Dorotheenhof, Dorotheenhof, Woltersdorf, Brandenburg an der Havel, Wusterwitz, Potsdam-Mittelmark, Brandenburg, 14789, Deutschland",yes,building,POINT (12.3916843 52.4013265)
MVZ -Am Hauptbahnhof-1,Hauptpraxis,Dr. med. Wolfgang Achtelik,Facharzt f�r Haut- und Geschlechtskrankheiten,14776,Brandenburg an der Havel,Johann-Carl-Sybel-Stra�e,1,,Johann-Carl-Sybel-Stra�e 1,1042,334332.0,5808509.62,"['1, Brandenburg an der Havel']",brandenburg an der havel,52.4013265,12.3916843,"Dorotheenhof, 1, Zum Dorotheenhof, Dorotheenhof, Woltersdorf, Brandenburg an der Havel, Wusterwitz, Potsdam-Mittelmark, Brandenburg, 14789, Deutschland",yes,building,POINT (12.3916843 52.4013265)
MVZ -Am Hauptbahnhof-1,Hauptpraxis,Dr. med. Andre Kutz,Facharzt f�r Orthop�die und Unfallchirurgie,14776,Brandenburg an der Havel,Johann-Carl-Sybel-Stra�e,1,,Johann-Carl-Sybel-Stra�e 1,1042,334332.0,5808509.62,"['1, Brandenburg an der Havel']",brandenburg an der havel,52.4013265,12.3916843,"Dorotheenhof, 1, Zum Dorotheenhof, Dorotheenhof, Woltersdorf, Brandenburg an der Havel, Wusterwitz, Potsdam-Mittelmark, Brandenburg, 14789, Deutschland",yes,building,POINT (12.3916843 52.4013265)
MVZ -Am Hauptbahnhof-2,Hauptpraxis,"Dr. med. Herrmann, Christian",Facharzt f�r Chirurgie,14776,Brandenburg an der Havel,Johann-Carl-Sybel-Stra�e,1,,Johann-Carl-Sybel-Stra�e 1,1042,334332.0,5808509.62,"['1, Brandenburg an der Havel']",brandenburg an der havel,52.4013265,12.3916843,"Dorotheenhof, 1, Zum Dorotheenhof, Dorotheenhof, Woltersdorf, Brandenburg an der Havel, Wusterwitz, Potsdam-Mittelmark, Brandenburg, 14789, Deutschland",yes,building,POINT (12.3916843 52.4013265)
MVZ -Am Hauptbahnhof-2,Hauptpraxis,Dr. med. Yvonne Gie�mann,Facharzt f�r Hals-Nasen-Ohrenheilkunde,14776,Brandenburg an der Havel,Johann-Carl-Sybel-Stra�e,1,,Johann-Carl-Sybel-Stra�e 1,1042,334332.0,5808509.62,"['1, Brandenburg an der Havel']",brandenburg an der havel,52.4013265,12.3916843,"Dorotheenhof, 1, Zum Dorotheenhof, Dorotheenhof, Woltersdorf, Brandenburg an der Havel, Wusterwitz, Potsdam-Mittelmark, Brandenburg, 14789, Deutschland",yes,building,POINT (12.3916843 52.4013265)
MVZ 'an der Havel',Hauptpraxis,Antje Merk,Facharzt f�r Neurologie,14776,Brandenburg an der Havel,Johann-Carl-Sybel-Stra�e,1,,Johann-Carl-Sybel-Stra�e 1,1042,334332.0,5808509.62,"['1, Brandenburg an der Havel']",brandenburg an der havel,52.4013265,12.3916843,"Dorotheenhof, 1, Zum Dorotheenhof, Dorotheenhof, Woltersdorf, Brandenburg an der Havel, Wusterwitz, Potsdam-Mittelmark, Brandenburg, 14789, Deutschland",yes,building,POINT (12.3916843 52.4013265)
MVZ 'an der Havel',Hauptpraxis,Dr. med. Angela Enzmann,Facharzt f�r Neurologie und Psychiatrie,14776,Brandenburg an der Havel,Johann-Carl-Sybel-Stra�e,1,,Johann-Carl-Sybel-Stra�e 1,1042,334332.0,5808509.62,"['1, Brandenburg an der Havel']",brandenburg an der havel,52.4013265,12.3916843,"Dorotheenhof, 1, Zum Dorotheenhof, Dorotheenhof, Woltersdorf, Brandenburg an der Havel, Wusterwitz, Potsdam-Mittelmark, Brandenburg, 14789, Deutschland",yes,building,POINT (12.3916843 52.4013265)
MVZ 'an der Havel',Hauptpraxis,Sabine Riedel,Facharzt f�r Psychiatrie und Psychotherapie,14776,Brandenburg an der Havel,Johann-Carl-Sybel-Stra�e,1,,Johann-Carl-Sybel-Stra�e 1,1042,334332.0,5808509.62,"['1, Brandenburg an der Havel']",brandenburg an der havel,52.4013265,12.3916843,"Dorotheenhof, 1, Zum Dorotheenhof, Dorotheenhof, Woltersdorf, Brandenburg an der Havel, Wusterwitz, Potsdam-Mittelmark, Brandenburg, 14789, Deutschland",yes,building,POINT (12.3916843 52.4013265)
MVZ 'an der Havel',Hauptpraxis,Regina Gl�nzel,Facharzt f�r An�sthesiologie,14776,Brandenburg an der Havel,Johann-Carl-Sybel-Stra�e,1,,Johann-Carl-Sybel-Stra�e 1,1042,334332.0,5808509.62,"['1, Brandenburg an der Havel']",brandenburg an der havel,52.4013265,12.3916843,"Dorotheenhof, 1, Zum Dorotheenhof, Dorotheenhof, Woltersdorf, Brandenburg an der Havel, Wusterwitz, Potsdam-Mittelmark, Brandenburg, 14789, Deutschland",yes,building,POINT (12.3916843 52.4013265)
MVZ 'an der Havel',Hauptpraxis,Peter Krause,Facharzt f�r Neurologie,14776,Brandenburg an der Havel,Johann-Carl-Sybel-Stra�e,1,,Johann-Carl-Sybel-Stra�e 1,1042,334332.0,5808509.62,"['1, Brandenburg an der Havel']",brandenburg an der havel,52.4013265,12.3916843,"Dorotheenhof, 1, Zum Dorotheenhof, Dorotheenhof, Woltersdorf, Brandenburg an der Havel, Wusterwitz, Potsdam-Mittelmark, Brandenburg, 14789, Deutschland",yes,building,POINT (12.3916843 52.4013265)
Praxis Anke M�ckel,Hauptpraxis,Anke M�ckel,Facharzt f�r Frauenheilkunde u. Geburtshilfe,14776,Brandenburg an der Havel,Johann-Carl-Sybel-Stra�e,1,,Johann-Carl-Sybel-Stra�e 1,1042,334332.0,5808509.62,"['1, Brandenburg an der Havel']",brandenburg an der havel,52.4013265,12.3916843,"Dorotheenhof, 1, Zum Dorotheenhof, Dorotheenhof, Woltersdorf, Brandenburg an der Havel, Wusterwitz, Potsdam-Mittelmark, Brandenburg, 14789, Deutschland",yes,building,POINT (12.3916843 52.4013265)
Praxis Dr. med. Dr. med. dent. T. Teltzrow,Hauptpraxis,Dr. med. Dr. med. dent Thomas Teltzrow,"Facharzt f�r Mund-, Kiefer- u.\r\nGesichtschirurgie",14776,Brandenburg an der Havel,Johann-Carl-Sybel-Stra�e,1,,Johann-Carl-Sybel-Stra�e 1,1042,334332.0,5808509.62,"['1, Brandenburg an der Havel']",brandenburg an der havel,52.4013265,12.3916843,"Dorotheenhof, 1, Zum Dorotheenhof, Dorotheenhof, Woltersdorf, Brandenburg an der Havel, Wusterwitz, Potsdam-Mittelmark, Brandenburg, 14789, Deutschland",yes,building,POINT (12.3916843 52.4013265)
Praxis Stefan Wei�,Hauptpraxis,Stefan Wei�,Facharzt f�r An�sthesiologie,14776,Brandenburg an der Havel,Johann-Carl-Sybel-Stra�e,1,,Johann-Carl-Sybel-Stra�e 1,1042,334332.0,5808509.62,"['1, Brandenburg an der Havel']",brandenburg an der havel,52.4013265,12.3916843,"Dorotheenhof, 1, Zum Dorotheenhof, Dorotheenhof, Woltersdorf, Brandenburg an der Havel, Wusterwitz, Potsdam-Mittelmark, Brandenburg, 14789, Deutschland",yes,building,POINT (12.3916843 52.4013265)
��BAG Polikl. Ernst v. Bergmann und Medizinische Versorgungszentren,Hauptpraxis,Dr. med. Christian Kentner,Facharzt f�r Orthop�die und Unfallchirurgie,14776,Brandenburg an der Havel,Johann-Carl-Sybel-Stra�e,1,,Johann-Carl-Sybel-Stra�e 1,1042,334332.0,5808509.62,"['1, Brandenburg an der Havel']",brandenburg an der havel,52.4013265,12.3916843,"Dorotheenhof, 1, Zum Dorotheenhof, Dorotheenhof, Woltersdorf, Brandenburg an der Havel, Wusterwitz, Potsdam-Mittelmark, Brandenburg, 14789, Deutschland",yes,building,POINT (12.3916843 52.4013265)
��BAG Polikl. Ernst v. Bergmann und Medizinische Versorgungszentren,Hauptpraxis,Dr. med. Reinhard Dahlmann,Facharzt f�r Orthop�die und Unfallchirurgie,14776,Brandenburg an der Havel,Johann-Carl-Sybel-Stra�e,1,,Johann-Carl-Sybel-Stra�e 1,1042,334332.0,5808509.62,"['1, Brandenburg an der Havel']",brandenburg an der havel,52.4013265,12.3916843,"Dorotheenhof, 1, Zum Dorotheenhof, Dorotheenhof, Woltersdorf, Brandenburg an der Havel, Wusterwitz, Potsdam-Mittelmark, Brandenburg, 14789, Deutschland",yes,building,POINT (12.3916843 52.4013265)
Dres. med. Breitwieser/Schilling/ Delius,Hauptpraxis,Dres. med. Christian Breitwieser,Facharzt f�r Radiologie,14776,Brandenburg an der Havel,Kanalstra�e,8,,Kanalstra�e 8,1095,333442.9,5809200.7,"['8, Brandenburg an der Havel']",brandenburg an der havel,52.3724811,12.5045967,"Dorfkirche Wilhelmsdorf, 8, Wilhelmsdorf, Neustadt, Brandenburg an der Havel, Brandenburg, 14776, Deutschland",building,historic,POINT (12.5045967 52.3724811)
Dres. med. Breitwieser/Schilling/ Delius,Hauptpraxis,Dr. med. Rene Schilling,Facharzt f�r Radiologie,14776,Brandenburg an der Havel,Kanalstra�e,8,,Kanalstra�e 8,1095,333442.9,5809200.7,"['8, Brandenburg an der Havel']",brandenburg an der havel,52.3724811,12.5045967,"Dorfkirche Wilhelmsdorf, 8, Wilhelmsdorf, Neustadt, Brandenburg an der Havel, Brandenburg, 14776, Deutschland",building,historic,POINT (12.5045967 52.3724811)
Dipl.-Med. Carola Kettner,Hauptpraxis,Dipl.-med. Carola Kettner,"Facharzt f�r Innere Medizin, Hausarzt",14776,Brandenburg an der Havel,Kanalstra�e,9,,Kanalstra�e 9,1095,333429.52,5809215.93,"['9, Brandenburg an der Havel']",brandenburg an der havel,52.4163983,12.5562830,"9, Gotthardtkirchplatz, Altstadt, Brandenburg an der Havel, Brandenburg, 14770, Deutschland",yes,building,POINT (12.556283 52.4163983)
Dr. med. Janette M�hlbach                           Dr. med. Marco Weiland,Hauptpraxis,Dr. med. Jantte M�hlbach,"Facharzt f�r Allgemeinmedizin, Hausarzt",14776,Brandenburg an der Havel,Kanalstra�e,9,,Kanalstra�e 9,1095,333429.52,5809215.93,"['9, Brandenburg an der Havel']",brandenburg an der havel,52.4163983,12.5562830,"9, Gotthardtkirchplatz, Altstadt, Brandenburg an der Havel, Brandenburg, 14770, Deutschland",yes,building,POINT (12.556283 52.4163983)
Dr. med. Janette M�hlbach                           Dr. med. Marco Weiland,Hauptpraxis,Dr. med. Marco Weiland,Facharzt f�r Orthop�die und Unfallchirurgie,14776,Brandenburg an der Havel,Kanalstra�e,9,,Kanalstra�e 9,1095,333429.52,5809215.93,"['9, Brandenburg an der Havel']",brandenburg an der havel,52.4163983,12.5562830,"9, Gotthardtkirchplatz, Altstadt, Brandenburg an der Havel, Brandenburg, 14770, Deutschland",yes,building,POINT (12.556283 52.4163983)
Praxis Agnes Engst,Hauptpraxis,Agnes Engst,Facharzt f�r Kinderheilkunde,14776,Brandenburg an der Havel,Kanalstra�e,9,,Kanalstra�e 9,1095,333429.52,5809215.93,"['9, Brandenburg an der Havel']",brandenburg an der havel,52.4163983,12.5562830,"9, Gotthardtkirchplatz, Altstadt, Brandenburg an der Havel, Brandenburg, 14770, Deutschland",yes,building,POINT (12.556283 52.4163983)
Praxis Dr. med. Bernd Wauschkuhn,Hauptpraxis,Dr. med. Bernd Wauschkuhn,"Facharzt f�r Psychiatrie, Psychotherapie und Neurologie",14776,Brandenburg an der Havel,Kanalstra�e,9,,Kanalstra�e 9,1095,333429.52,5809215.93,"['9, Brandenburg an der Havel']",brandenburg an der havel,52.4163983,12.5562830,"9, Gotthardtkirchplatz, Altstadt, Brandenburg an der Havel, Brandenburg, 14770, Deutschland",yes,building,POINT (12.556283 52.4163983)
Praxis Georgios Papageorgiou,Hauptpraxis,Georgios Papageorgiou,Facharzt f�r Augenheilkunde,14776,Brandenburg an der Havel,Kanalstra�e,9,,Kanalstra�e 9,1095,333429.52,5809215.93,"['9, Brandenburg an der Havel']",brandenburg an der havel,52.4163983,12.5562830,"9, Gotthardtkirchplatz, Altstadt, Brandenburg an der Havel, Brandenburg, 14770, Deutschland",yes,building,POINT (12.556283 52.4163983)
Praxis Henrike Haase,Hauptpraxis,Henrike Haase,Facharzt f�r Frauenheilkunde u. Geburtshilfe,14776,Brandenburg an der Havel,Kanalstra�e,9,,Kanalstra�e 9,1095,333429.52,5809215.93,"['9, Brandenburg an der Havel']",brandenburg an der havel,52.4163983,12.5562830,"9, Gotthardtkirchplatz, Altstadt, Brandenburg an der Havel, Brandenburg, 14770, Deutschland",yes,building,POINT (12.556283 52.4163983)
Praxis Katrin Bluhm,Hauptpraxis,Katrin Bluhm,Facharzt f�r Innere Medizin SP Rheumatologie,14776,Brandenburg an der Havel,Kanalstra�e,9,,Kanalstra�e 9,1095,333429.52,5809215.93,"['9, Brandenburg an der Havel']",brandenburg an der havel,52.4163983,12.5562830,"9, Gotthardtkirchplatz, Altstadt, Brandenburg an der Havel, Brandenburg, 14770, Deutschland",yes,building,POINT (12.556283 52.4163983)
Praxis Dr. med. Oliver K�nen,Hauptpraxis,Dr.med.Oliver K�nen,Facharzt f�r An�sthesiologie,14776,Brandenburg an der Havel,Katharinenkirchplatz,1,,Katharinenkirchplatz 1,1150,334106.6,5809369.3,"['1, Brandenburg an der Havel']",brandenburg an der havel,52.4013265,12.3916843,"Dorotheenhof, 1, Zum Dorotheenhof, Dorotheenhof, Woltersdorf, Brandenburg an der Havel, Wusterwitz, Potsdam-Mittelmark, Brandenburg, 14789, Deutschland",yes,building,POINT (12.3916843 52.4013265)
Praxis Dr. med. Oliver K�nen,Hauptpraxis,Dr. med. Iris Hohls,Facharzt f�r An�sthesiologie,14776,Brandenburg an der Havel,Katharinenkirchplatz,1,,Katharinenkirchplatz 1,1150,334106.6,5809369.3,"['1, Brandenburg an der Havel']",brandenburg an der havel,52.4013265,12.3916843,"Dorotheenhof, 1, Zum Dorotheenhof, Dorotheenhof, Woltersdorf, Brandenburg an der Havel, Wusterwitz, Potsdam-Mittelmark, Brandenburg, 14789, Deutschland",yes,building,POINT (12.3916843 52.4013265)
Praxis Dr. med. Oliver K�nen,Hauptpraxis,Dr. med. Christoph M�nch,Facharzt f�r An�sthesiologie,14776,Brandenburg an der Havel,Katharinenkirchplatz,1,,Katharinenkirchplatz 1,1150,334106.6,5809369.3,"['1, Brandenburg an der Havel']",brandenburg an der havel,52.4013265,12.3916843,"Dorotheenhof, 1, Zum Dorotheenhof, Dorotheenhof, Woltersdorf, Brandenburg an der Havel, Wusterwitz, Potsdam-Mittelmark, Brandenburg, 14789, Deutschland",yes,building,POINT (12.3916843 52.4013265)
Lutz Jenek/Kathrin Meiburg,Hauptpraxis,Lutz Jenek,"Facharzt f�r Innere Medizin, Hausarzt",14776,Brandenburg an der Havel,Kirchhofstra�e,5,,Kirchhofstra�e 5,1177,334459.59,5808920.25,"['5, Brandenburg an der Havel']",brandenburg an der havel,52.4156791,12.5664862,"Domdechanel, 5, Burghof, Dom, Brandenburg an der Havel, Brandenburg, 14776, Deutschland",government,building,POINT (12.5664862 52.4156791)
Lutz Jenek/Kathrin Meiburg,Hauptpraxis,Kathrin Meiburg,"Facharzt f�r Allgemeinmedizin, Hausarzt",14776,Brandenburg an der Havel,Kirchhofstra�e,5,,Kirchhofstra�e 5,1177,334459.59,5808920.25,"['5, Brandenburg an der Havel']",brandenburg an der havel,52.4156791,12.5664862,"Domdechanel, 5, Burghof, Dom, Brandenburg an der Havel, Brandenburg, 14776, Deutschland",government,building,POINT (12.5664862 52.4156791)
Dr. med. Yvonne H�fer                 Katja Apel,Hauptpraxis,Katja Apel,"Facharzt f�r Allgemeinmedizin, Hausarzt",14774,Brandenburg an der Havel,Kirchstra�e,6,,Kirchstra�e 6,1180,324230.5,5809448.1,"['6, Brandenburg an der Havel']",brandenburg an der havel,52.4139321,12.5670041,"6, Domlinden, Dom, Brandenburg an der Havel, Brandenburg, 14776, Deutschland",residential,building,POINT (12.5670041 52.4139321)
Dr. med. Yvonne H�fer                 Katja Apel,Hauptpraxis,Dr. med. Yvonne H�fer ,"Facharzt f�r Allgemeinmedizin, Hausarzt",14774,Brandenburg an der Havel,Kirchstra�e,6,,Kirchstra�e 6,1180,324230.5,5809448.1,"['6, Brandenburg an der Havel']",brandenburg an der havel,52.4139321,12.5670041,"6, Domlinden, Dom, Brandenburg an der Havel, Brandenburg, 14776, Deutschland",residential,building,POINT (12.5670041 52.4139321)
Dr. med. Yvonne H�fer                 Katja Apel,Hauptpraxis,Dr. med. Maja Mainz,"Facharzt f�r Allgemeinmedizin, Hausarzt",14774,Brandenburg an der Havel,Kirchstra�e,6,,Kirchstra�e 6,1180,324230.5,5809448.1,"['6, Brandenburg an der Havel']",brandenburg an der havel,52.4139321,12.5670041,"6, Domlinden, Dom, Brandenburg an der Havel, Brandenburg, 14776, Deutschland",residential,building,POINT (12.5670041 52.4139321)
Praxis Dr. med. Karoline Hennig,Hauptpraxis,Dr. med. Karoline Hennig,Facharzt f�r Frauenheilkunde u. Geburtshilfe,14776,Brandenburg an der Havel,Kurstra�e,15,,Kurstra�e 15,1255,333964.38,5809226.3,"['15, Brandenburg an der Havel']",brandenburg an der havel,52.4161762,12.5566951,"St. Gotthardt, 15, Gotthardtkirchplatz, Altstadt, Brandenburg an der Havel, Brandenburg, 14770, Deutschland",place_of_worship,amenity,POINT (12.5566951 52.4161762)
Dr. med. Ann-Kathrin Keidel Andreas Denecke,Hauptpraxis,Dr. med. Ann-Kathrin Keidel,Fachartz f�r Orthop�die,14770,Brandenburg an der Havel,Lilli-Friesicke-Stra�e,2,,Lilli-Friesicke-Stra�e 2,1303,333403.83,5810674.54,"['2, Brandenburg an der Havel']",brandenburg an der havel,52.4033893,12.5541053,"Theodor-Fontane-Schule, 2, Wredowplatz, Ring, Brandenburg an der Havel, Brandenburg, 14776, Deutschland",school,building,POINT (12.5541053 52.4033893)
Dr. med. Ann-Kathrin Keidel Andreas Denecke,Hauptpraxis,Andreas Denecke,Facharzt f�r Orthop�die und Unfallchirurgie,14770,Brandenburg an der Havel,Lilli-Friesicke-Stra�e,2,,Lilli-Friesicke-Stra�e 2,1303,333403.83,5810674.54,"['2, Brandenburg an der Havel']",brandenburg an der havel,52.4033893,12.5541053,"Theodor-Fontane-Schule, 2, Wredowplatz, Ring, Brandenburg an der Havel, Brandenburg, 14776, Deutschland",school,building,POINT (12.5541053 52.4033893)
Dr. med. Marianne Eisenschmidt                                  Dipl.-Med. Detlef Marx,Hauptpraxis,Beate Kockisch,"Facharzt f�r Innere Medizin, Hausarzt",14770,Brandenburg an der Havel,Lilli-Friesicke-Stra�e,2,,Lilli-Friesicke-Stra�e 2,1303,333403.83,5810674.54,"['2, Brandenburg an der Havel']",brandenburg an der havel,52.4033893,12.5541053,"Theodor-Fontane-Schule, 2, Wredowplatz, Ring, Brandenburg an der Havel, Brandenburg, 14776, Deutschland",school,building,POINT (12.5541053 52.4033893)
Dr. med. Marianne Eisenschmidt                                  Dipl.-Med. Detlef Marx,Hauptpraxis,Rebecca Marx,"Facharzt f�r Allgemeinmedizin, Hausarzt",14770,Brandenburg an der Havel,Lilli-Friesicke-Stra�e,2,,Lilli-Friesicke-Stra�e 2,1303,333403.83,5810674.54,"['2, Brandenburg an der Havel']",brandenburg an der havel,52.4033893,12.5541053,"Theodor-Fontane-Schule, 2, Wredowplatz, Ring, Brandenburg an der Havel, Brandenburg, 14776, Deutschland",school,building,POINT (12.5541053 52.4033893)
Dr. med. Marianne Eisenschmidt                                  Dipl.-Med. Detlef Marx,Hauptpraxis,Dr. med. Marianne Eisenschmidt ,"Facharzt f�r Allgemeinmedizin, Hausarzt",14770,Brandenburg an der Havel,Lilli-Friesicke-Stra�e,2,,Lilli-Friesicke-Stra�e 2,1303,333403.83,5810674.54,"['2, Brandenburg an der Havel']",brandenburg an der havel,52.4033893,12.5541053,"Theodor-Fontane-Schule, 2, Wredowplatz, Ring, Brandenburg an der Havel, Brandenburg, 14776, Deutschland",school,building,POINT (12.5541053 52.4033893)
Dr. med. Lutz Fochtmann,Hauptpraxis,Dr. med. Lutz Fochtmann,"Facharzt f�r Allgemeinmedizin, Hausarzt",14770,Brandenburg an der Havel,Magdeburger Landstra�e,5,,Magdeburger Landstra�e 5,1347,331516.5,5809902.3,"['5, Brandenburg an der Havel']",brandenburg an der havel,52.4156791,12.5664862,"Domdechanel, 5, Burghof, Dom, Brandenburg an der Havel, Brandenburg, 14776, Deutschland",government,building,POINT (12.5664862 52.4156791)
Praxis Swetlana Osadtschy,Hauptpraxis,Swetlana Osadtschy,Facharzt f�r Haut- und Geschlechtskrankheiten,14770,Brandenburg an der Havel,Magdeburger Landstra�e,5,,Magdeburger Landstra�e 5,1347,331516.5,5809902.3,"['5, Brandenburg an der Havel']",brandenburg an der havel,52.4156791,12.5664862,"Domdechanel, 5, Burghof, Dom, Brandenburg an der Havel, Brandenburg, 14776, Deutschland",government,building,POINT (12.5664862 52.4156791)
Dr. med. Dr. med. dent. T. Ulbricht,Hauptpraxis,Dr. med. Tobias Ulbricht,"Facharzt f�r Mund-, Kiefer- u.\r\nGesichtschirurgie",14776,Brandenburg an der Havel,Neust�dtischer Markt,23,,Neust�dtischer Markt 23,1510,334376.7,5809461.8,"['23, Brandenburg an der Havel']",brandenburg an der havel,52.4159561,12.5686481,"Sankt-Petri-Hospital, 23, Domlinden, Dom, Brandenburg an der Havel, Brandenburg, 14776, Deutschland",yes,building,POINT (12.5686481 52.4159561)
Dr. med. Frank B�hm,Hauptpraxis,Dr.med. Frank B�hm,Facharzt f�r Hals-Nasen-Ohrenheilkunde,14776,Brandenburg an der Havel,Neust�dtischer Markt,8,,Neust�dtischer Markt 8,1510,334356.4,5809365.4,"['8, Brandenburg an der Havel']",brandenburg an der havel,52.3724811,12.5045967,"Dorfkirche Wilhelmsdorf, 8, Wilhelmsdorf, Neustadt, Brandenburg an der Havel, Brandenburg, 14776, Deutschland",building,historic,POINT (12.5045967 52.3724811)
Dr. med. Mathias Zurke,Hauptpraxis,Dr. med. Mathias Zurke,"Facharzt f�r Allgemeinmedizin, Hausarzt",14776,Brandenburg an der Havel,Neust�dtischer Markt,8,,Neust�dtischer Markt 8,1510,334356.4,5809365.4,"['8, Brandenburg an der Havel']",brandenburg an der havel,52.3724811,12.5045967,"Dorfkirche Wilhelmsdorf, 8, Wilhelmsdorf, Neustadt, Brandenburg an der Havel, Brandenburg, 14776, Deutschland",building,historic,POINT (12.5045967 52.3724811)
Dr. med. Wodatschek und Kollegen,Hauptpraxis,Faraj Saati,Facharzt f�r Urologie,14776,Brandenburg an der Havel,Neust�dtischer Markt,8,,Neust�dtischer Markt 8,1510,334356.4,5809365.4,"['8, Brandenburg an der Havel']",brandenburg an der havel,52.3724811,12.5045967,"Dorfkirche Wilhelmsdorf, 8, Wilhelmsdorf, Neustadt, Brandenburg an der Havel, Brandenburg, 14776, Deutschland",building,historic,POINT (12.5045967 52.3724811)
Dr. med. Wodatschek und Kollegen,Hauptpraxis,Dipl.-Med.Fred Trapp,Facharzt f�r Urologie,14776,Brandenburg an der Havel,Neust�dtischer Markt,8,,Neust�dtischer Markt 8,1510,334356.4,5809365.4,"['8, Brandenburg an der Havel']",brandenburg an der havel,52.3724811,12.5045967,"Dorfkirche Wilhelmsdorf, 8, Wilhelmsdorf, Neustadt, Brandenburg an der Havel, Brandenburg, 14776, Deutschland",building,historic,POINT (12.5045967 52.3724811)
Dr. med. Wodatschek und Kollegen,Hauptpraxis,Dr. med. Rainer Wodatschek,Facharzt f�r Urologie,14776,Brandenburg an der Havel,Neust�dtischer Markt,8,,Neust�dtischer Markt 8,1510,334356.4,5809365.4,"['8, Brandenburg an der Havel']",brandenburg an der havel,52.3724811,12.5045967,"Dorfkirche Wilhelmsdorf, 8, Wilhelmsdorf, Neustadt, Brandenburg an der Havel, Brandenburg, 14776, Deutschland",building,historic,POINT (12.5045967 52.3724811)
Katri Pichelbauer,Hauptpraxis,Katri Pichelbauer,Facharzt f�r Frauenheilkunde u. Geburtshilfe,14776,Brandenburg an der Havel,Neust�dtischer Markt,8,,Neust�dtischer Markt 8,1510,334356.4,5809365.4,"['8, Brandenburg an der Havel']",brandenburg an der havel,52.3724811,12.5045967,"Dorfkirche Wilhelmsdorf, 8, Wilhelmsdorf, Neustadt, Brandenburg an der Havel, Brandenburg, 14776, Deutschland",building,historic,POINT (12.5045967 52.3724811)
Dr. med. Bernhard-Michael Wolff,Hauptpraxis,Dr. med. Bernhard Wolff,Facharzt f�r Augenheilkunde,14770,Brandenburg an der Havel,Nicolaiplatz,9,,Nicolaiplatz 9,1518,333280.65,5809620.01,"['9, Brandenburg an der Havel']",brandenburg an der havel,52.4163983,12.5562830,"9, Gotthardtkirchplatz, Altstadt, Brandenburg an der Havel, Brandenburg, 14770, Deutschland",yes,building,POINT (12.556283 52.4163983)
Dr. med. Ulrike Wolff,Hauptpraxis,Dr. med. Ulrike Wolff,Facharzt f�r Haut- und Geschlechtskrankheiten,14770,Brandenburg an der Havel,Nicolaiplatz,9,,Nicolaiplatz 9,1518,333280.65,5809620.01,"['9, Brandenburg an der Havel']",brandenburg an der havel,52.4163983,12.5562830,"9, Gotthardtkirchplatz, Altstadt, Brandenburg an der Havel, Brandenburg, 14770, Deutschland",yes,building,POINT (12.556283 52.4163983)
Dr. med. Holger Siggel/ Dr. med. Evi Engelhardt,Hauptpraxis,Dr. med. Holger Siggel,Facharzt f�r Augenheilkunde,14776,Brandenburg an der Havel,Packhofstra�e,32,,Packhofstra�e 32,1565,333947.32,5809597.51,"['32, Brandenburg an der Havel']",brandenburg an der havel,52.3993655,12.5990400,"32, Großmathenweg, Neuschmerzke, Schmerzke, Brandenburg an der Havel, Brandenburg, 14776, Deutschland",yes,building,POINT (12.59904 52.3993655)
Dr. med. Holger Siggel              Dr. med. Evi Engelhardt,Hauptpraxis,Dr. med. Evi Engelhardt,Facharzt f�r Augenheilkunde,14776,Brandenburg an der Havel,Packhofstra�e,32,,Packhofstra�e 32,1565,333947.32,5809597.51,"['32, Brandenburg an der Havel']",brandenburg an der havel,52.3993655,12.5990400,"32, Großmathenweg, Neuschmerzke, Schmerzke, Brandenburg an der Havel, Brandenburg, 14776, Deutschland",yes,building,POINT (12.59904 52.3993655)
Dr. med. Holger Siggel              Dr. med. Evi Engelhardt,Hauptpraxis,Dr. med. Ann-Sophie Lindenberg,Facharzt f�r Augenheilkunde,14776,Brandenburg an der Havel,Packhofstra�e,32,,Packhofstra�e 32,1565,333947.32,5809597.51,"['32, Brandenburg an der Havel']",brandenburg an der havel,52.3993655,12.5990400,"32, Großmathenweg, Neuschmerzke, Schmerzke, Brandenburg an der Havel, Brandenburg, 14776, Deutschland",yes,building,POINT (12.59904 52.3993655)
Dr. med. Holger Siggel              Dr. med. Evi Engelhardt,Hauptpraxis,Magdalena Z�lsdorff-Utke,Facharzt f�r Augenheilkunde,14776,Brandenburg an der Havel,Packhofstra�e,32,,Packhofstra�e 32,1565,333947.32,5809597.51,"['32, Brandenburg an der Havel']",brandenburg an der havel,52.3993655,12.5990400,"32, Großmathenweg, Neuschmerzke, Schmerzke, Brandenburg an der Havel, Brandenburg, 14776, Deutschland",yes,building,POINT (12.59904 52.3993655)
Praxis Dr. med. Regina Rusch,Hauptpraxis,Dr. med. Regina Rusch,"Facharzt f�r Allgemeinmedizin, Hausarzt",14772,Brandenburg an der Havel,Rosa-Luxemburg-Allee,2,,Rosa-Luxemburg-Allee 2,1762,332172.6,5811890.0,"['2, Brandenburg an der Havel']",brandenburg an der havel,52.4033893,12.5541053,"Theodor-Fontane-Schule, 2, Wredowplatz, Ring, Brandenburg an der Havel, Brandenburg, 14776, Deutschland",school,building,POINT (12.5541053 52.4033893)
Praxis Dr. med. Christian Bahls,Hauptpraxis,Dr. med. Christian Bahls,Facharzt f�r Nuklearmedizin,14772,Brandenburg an der Havel,Rosa-Luxemburg-Allee,34,A,Rosa-Luxemburg-Allee 34 A,1762,331938.26,5811937.14,"['34A, Brandenburg an der Havel']",brandenburg an der havel,52.4108261,12.5497933,"Brandenburg an der Havel, Brandenburg, Deutschland",administrative,boundary,POINT (12.5497933 52.4108261)
Dr. med. Kristin Menzel                      Dr. med. Carsten Koops,Hauptpraxis,Dr. med. Kristin Menzel,Facharzt f�r Chirurgie/Gef��chirurgie,14776,Brandenburg an der Havel,Steinstra�e,60,,Steinstra�e 60,1940,334121.98,5809170.86,"['60, Brandenburg an der Havel']",brandenburg an der havel,52.4108261,12.5497933,"Brandenburg an der Havel, Brandenburg, Deutschland",administrative,boundary,POINT (12.5497933 52.4108261)
Dr. med. Kristin Menzel                      Dr. med. Carsten Koops,Hauptpraxis,Dr. med. Carsten Koops,Facharzt f�r Gef��chirurgie,14776,Brandenburg an der Havel,Steinstra�e,60,,Steinstra�e 60,1940,334121.98,5809170.86,"['60, Brandenburg an der Havel']",brandenburg an der havel,52.4108261,12.5497933,"Brandenburg an der Havel, Brandenburg, Deutschland",administrative,boundary,POINT (12.5497933 52.4108261)
Praxis Dr. med. Christoph Kloth,Hauptpraxis,Dr. med. Christoph Kloth,Facharzt f�r Orthop�die und Unfallchirurgie,14776,Brandenburg an der Havel,Steinstra�e,60,,Steinstra�e 60,1940,334121.98,5809170.86,"['60, Brandenburg an der Havel']",brandenburg an der havel,52.4108261,12.5497933,"Brandenburg an der Havel, Brandenburg, Deutschland",administrative,boundary,POINT (12.5497933 52.4108261)
Praxis Dr. med. Christine Zimny,Hauptpraxis,Dr.med. Christine Zimny,"Facharzt f�r Allgemeinmedizin, Hausarzt",14770,Brandenburg an der Havel,Th�ringer Stra�e,3,,Th�ringer Stra�e 3,1985,331198.1,5809724.2,"['3, Brandenburg an der Havel']",brandenburg an der havel,52.4152387,12.5660118,"Kurie III, 3, Burghof, Dom, Brandenburg an der Havel, Brandenburg, 14776, Deutschland",yes,building,POINT (12.5660118 52.4152387)
Dr. med. Kristina Ulbricht,Hauptpraxis,Dr. med. Kristina Ulbricht,"Praktischer Arzt, Hausarzt",14776,Brandenburg an der Havel,Trauerberg,27,,Trauerberg 27,2000,333825.3,5808636.5,"['27, Brandenburg an der Havel']",brandenburg an der havel,52.4108261,12.5497933,"Brandenburg an der Havel, Brandenburg, Deutschland",administrative,boundary,POINT (12.5497933 52.4108261)
Dr. med. Johannes Behrendt,Hauptpraxis,Dr.med. Johannes Behrendt,Facharzt f�r Innere Medizin; Gastroenterologie,14776,Brandenburg an der Havel,Trauerberg,27,,Trauerberg 27,2000,333825.3,5808636.5,"['27, Brandenburg an der Havel']",brandenburg an der havel,52.4108261,12.5497933,"Brandenburg an der Havel, Brandenburg, Deutschland",administrative,boundary,POINT (12.5497933 52.4108261)
Praxis Dr. med. Christina J. Bernard,Hauptpraxis,Dr. med. Christina Bernard,Facharzt f�r Frauenheilkunde u. Geburtshilfe,14776,Brandenburg an der Havel,Trauerberg,27,,Trauerberg 27,2000,333825.3,5808636.5,"['27, Brandenburg an der Havel']",brandenburg an der havel,52.4108261,12.5497933,"Brandenburg an der Havel, Brandenburg, Deutschland",administrative,boundary,POINT (12.5497933 52.4108261)
Dr. med. Johannes Behrendt,Hauptpraxis,J�rg-Friedrich Hirte,Facharzt f�r Innere Medizin; Gastroenterologie,14776,Brandenburg an der Havel,Trauerberg,27,,Trauerberg 27,2000,333825.3,5808636.5,"['27, Brandenburg an der Havel']",brandenburg an der havel,52.4108261,12.5497933,"Brandenburg an der Havel, Brandenburg, Deutschland",administrative,boundary,POINT (12.5497933 52.4108261)
Medizinisches Zentrum Am Hauptbahnhof,Hauptpraxis,Dr. med. Alexander Schmidtchen,"Facharzt f�r Innere Medizin, Hausarzt",14772,Brandenburg an der Havel,Upstallstra�e,13,,Upstallstra�e 13,2045,332823.82,5811853.52,"['13, Brandenburg an der Havel']",brandenburg an der havel,52.4145442,12.5680108,"13, Domlinden, Dom, Brandenburg an der Havel, Brandenburg, 14776, Deutschland",yes,building,POINT (12.5680108 52.4145442)
Sabine Glatz u. Birgit Frahm,Hauptpraxis,Birgit Frahm,"Facharzt f�r Allgemeinmedizin, Hausarzt",14772,Brandenburg an der Havel,Veilchenweg,2,,Veilchenweg 2,2048,330254.0,5811367.7,"['2, Brandenburg an der Havel']",brandenburg an der havel,52.4033893,12.5541053,"Theodor-Fontane-Schule, 2, Wredowplatz, Ring, Brandenburg an der Havel, Brandenburg, 14776, Deutschland",school,building,POINT (12.5541053 52.4033893)
Sabine Glatz u. Birgit Frahm,Hauptpraxis,Sabine Glatz,"Facharzt f�r Allgemeinmedizin, Hausarzt",14772,Brandenburg an der Havel,Veilchenweg,2,,Veilchenweg 2,2048,330254.0,5811367.7,"['2, Brandenburg an der Havel']",brandenburg an der havel,52.4033893,12.5541053,"Theodor-Fontane-Schule, 2, Wredowplatz, Ring, Brandenburg an der Havel, Brandenburg, 14776, Deutschland",school,building,POINT (12.5541053 52.4033893)
Dipl.-Med. Helga Jennrich,Hauptpraxis,Dipl.-Med. Helga Jennrich,"Praktischer Arzt, Hausarzt",14772,Brandenburg an der Havel,Walther-Ausl�nder-Stra�e,4,,Walther-Ausl�nder-Stra�e 4,2083,331591.2,5812359.8,"['4, Brandenburg an der Havel']",brandenburg an der havel,52.4154325,12.5662208,"Kurie IV, 4, Burghof, Dom, Brandenburg an der Havel, Brandenburg, 14776, Deutschland",yes,building,POINT (12.5662208 52.4154325)
Dipl.-Med. Torsten Christoph,Hauptpraxis,Dipl.-med. Torsten Christoph,"Facharzt f�r Allgemeinmedizin, Hausarzt",14772,Brandenburg an der Havel,Walther-Ausl�nder-Stra�e,4,,Walther-Ausl�nder-Stra�e 4,2083,331591.2,5812359.8,"['4, Brandenburg an der Havel']",brandenburg an der havel,52.4154325,12.5662208,"Kurie IV, 4, Burghof, Dom, Brandenburg an der Havel, Brandenburg, 14776, Deutschland",yes,building,POINT (12.5662208 52.4154325)
MVZ -Am Hauptbahnhof-1,Hauptpraxis,Cathrin Uhl,Facharzt f�r Hals-Nasen-Ohrenheilkunde,14772,Brandenburg an der Havel,Walther-Ausl�nder-Stra�e,4,,Walther-Ausl�nder-Stra�e 4,2083,331591.2,5812359.8,"['4, Brandenburg an der Havel']",brandenburg an der havel,52.4154325,12.5662208,"Kurie IV, 4, Burghof, Dom, Brandenburg an der Havel, Brandenburg, 14776, Deutschland",yes,building,POINT (12.5662208 52.4154325)
Praxis Dr. med. Andreas Rzadkiewicz,Hauptpraxis,Dr. med. Andreas Rzadkiewicz,Facharzt f�r Frauenheilkunde u. Geburtshilfe,14772,Brandenburg an der Havel,Walther-Ausl�nder-Stra�e,4,,Walther-Ausl�nder-Stra�e 4,2083,331591.2,5812359.8,"['4, Brandenburg an der Havel']",brandenburg an der havel,52.4154325,12.5662208,"Kurie IV, 4, Burghof, Dom, Brandenburg an der Havel, Brandenburg, 14776, Deutschland",yes,building,POINT (12.5662208 52.4154325)
Praxis Dr. med. Kristin Kahrau,Hauptpraxis,Dr. med. Kristin Kahrau,Facharzt f�r Kinderheilkunde,14772,Brandenburg an der Havel,Walther-Ausl�nder-Stra�e,4,,Walther-Ausl�nder-Stra�e 4,2083,331591.2,5812359.8,"['4, Brandenburg an der Havel']",brandenburg an der havel,52.4154325,12.5662208,"Kurie IV, 4, Burghof, Dom, Brandenburg an der Havel, Brandenburg, 14776, Deutschland",yes,building,POINT (12.5662208 52.4154325)
Praxis Kristina Penkawa,Hauptpraxis,Kristina Penkawa,Facharzt f�r Kinderheilkunde,14772,Brandenburg an der Havel,Walther-Ausl�nder-Stra�e,4,,Walther-Ausl�nder-Stra�e 4,2083,331591.2,5812359.8,"['4, Brandenburg an der Havel']",brandenburg an der havel,52.4154325,12.5662208,"Kurie IV, 4, Burghof, Dom, Brandenburg an der Havel, Brandenburg, 14776, Deutschland",yes,building,POINT (12.5662208 52.4154325)
Praxis Mandy Hopf,Hauptpraxis,Mandy Hopf,Facharzt f�r Innere Medizin; Hausarzt,14772,Brandenburg an der Havel,Walther-Ausl�nder-Stra�e,4,,Walther-Ausl�nder-Stra�e 4,2083,331591.2,5812359.8,"['4, Brandenburg an der Havel']",brandenburg an der havel,52.4154325,12.5662208,"Kurie IV, 4, Burghof, Dom, Brandenburg an der Havel, Brandenburg, 14776, Deutschland",yes,building,POINT (12.5662208 52.4154325)
Wolf Albrecht,Hauptpraxis,Wolf Albrecht,Fachartz f�r Orthop�die,14776,Brandenburg an der Havel,Wilhelmsdorfer Landstra�e,37,,Wilhelmsdorfer Landstra�e 37,2150,332700.41,5807819.13,"['37, Brandenburg an der Havel']",brandenburg an der havel,52.4108261,12.5497933,"Brandenburg an der Havel, Brandenburg, Deutschland",administrative,boundary,POINT (12.5497933 52.4108261)
 Dr. med. Matthias Pichelbauer,Hauptpraxis,Dr. med. Mathias Pichelbauer,Fachartz f�r Orthop�die,14776,Brandenburg an der Havel,Wilhelmsdorfer Landstra�e,37,,Wilhelmsdorfer Landstra�e 37,2150,332700.41,5807819.13,"['37, Brandenburg an der Havel']",brandenburg an der havel,52.4108261,12.5497933,"Brandenburg an der Havel, Brandenburg, Deutschland",administrative,boundary,POINT (12.5497933 52.4108261)
Kirsten Pichelbauer,Hauptpraxis,Kirsten Pichelbauer,"Facharzt f�r Allgemeinmedizin, Hausarzt",14776,Brandenburg an der Havel,Wilhelmsdorfer Landstra�e,37,,Wilhelmsdorfer Landstra�e 37,2150,332700.41,5807819.13,"['37, Brandenburg an der Havel']",brandenburg an der havel,52.4108261,12.5497933,"Brandenburg an der Havel, Brandenburg, Deutschland",administrative,boundary,POINT (12.5497933 52.4108261)
Praxis Nicola Lutze,Hauptpraxis,Dipl.-Med. Nicola Lutze,"Facharzt f�r Allgemeinmedizin, Hausarzt",14776,Brandenburg an der Havel,Wilhelmsdorfer Stra�e,57,,Wilhelmsdorfer Stra�e 57,2155,333198.48,5808228.82,"['57, Brandenburg an der Havel']",brandenburg an der havel,52.4108261,12.5497933,"Brandenburg an der Havel, Brandenburg, Deutschland",administrative,boundary,POINT (12.5497933 52.4108261)
