id,Name_Haltestelle,Kategorie,x,y,Adresse_query,Adresse_merge,lat,lon,display_name,type,category,geometry
1,Hauptbahnhof,tram_stop,"334362,28",5808478,"['Tram stop Hauptbahnhof, Brandenburg, 14770']",haltestelle hauptbahnhof,52.4014385,12.5652094,"Hauptbahnhof, Am Hauptbahnhof, Bahnhofsvorstadt, Brandenburg an der Havel, Brandenburg, 14776, Deutschland",tram_stop,railway,POINT (12.5652094 52.4014385)
2,Geschwister-Scholl-Straße,tram_stop,"334562,3","5808718,5","['Tram stop Geschwister-Scholl-Straße, Brandenburg, 14770']",haltestelle geschwister-scholl-straße,52.4036570,12.5680283,"Geschwister-Scholl-Straße, Neustadt, Brandenburg an der Havel, Brandenburg, 14776, Deutschland",tram_stop,railway,POINT (12.5680283 52.403657)
3,"Brielow, Dorf",bus_stop,"332687,4",5815286,"['Bus stop Brielow Dorf, Brandenburg, 14770']","haltestelle brielow, dorf",52.4620792,12.5372058,"Brielow, Dorf, Chausseestraße, Brielow, Beetzsee, Amt Beetzsee, Potsdam-Mittelmark, Brandenburg, 14778, Deutschland",bus_stop,highway,POINT (12.5372058 52.4620792)
4,Mühlenweg,bus_stop,"332753,47","5816063,5","['Bus stop Mühlenweg, Brandenburg, 14770']",haltestelle mühlenweg,52.4690797,12.5377878,"Mühlenweg, Chausseestraße, Brielow, Beetzsee, Amt Beetzsee, Potsdam-Mittelmark, Brandenburg, 14778, Deutschland",bus_stop,highway,POINT (12.5377878 52.4690797)
5,"Radewege, Siedlung",bus_stop,"332842,06","5816845,5","['Bus stop Radewege Siedlung, Brandenburg, 14770']","haltestelle radewege, siedlung",52.4761334,12.5386984,"Radewege, Siedlung, Kastanienstraße, Radewege Siedlung, Radewege, Beetzsee, Amt Beetzsee, Potsdam-Mittelmark, Brandenburg, 14778, Deutschland",bus_stop,highway,POINT (12.5386984 52.4761334)
6,Marzahne,bus_stop,"332678,1","5820810,5","['Bus stop Marzahne, Brandenburg, 14770']",haltestelle marzahne,52.5116978,12.5342940,"Marzahne, Marzahner Straße, Marzahne, Havelsee, Amt Beetzsee, Potsdam-Mittelmark, Brandenburg, 14798, Deutschland",bus_stop,highway,POINT (12.534294 52.5116978)
7,"Nahmitz, Dorf",bus_stop,"345081,97","5800974,5","['Bus stop Nahmitz Dorf, Brandenburg, 14770']","haltestelle nahmitz, dorf",52.3371699,12.7261093,"Nahmitz, Dorf, Dorfstraße, Nahmitz, Kloster Lehnin, Potsdam-Mittelmark, Brandenburg, 14797, Deutschland",bus_stop,highway,POINT (12.7261093 52.3371699)
8,Trechwitz,bus_stop,"344610,53","5804114,5","['Bus stop Trechwitz, Brandenburg, 14770']",haltestelle trechwitz,52.3652439,12.7177426,"Trechwitz, Von-Knobelsdorff-Straße, Trechwitz, Kloster Lehnin, Potsdam-Mittelmark, Brandenburg, 14797, Deutschland",bus_stop,highway,POINT (12.7177426 52.3652439)
9,Trechwitz,bus_stop,"344636,78","5804097,5","['Bus stop Trechwitz, Brandenburg, 14770']",haltestelle trechwitz,52.3652439,12.7177426,"Trechwitz, Von-Knobelsdorff-Straße, Trechwitz, Kloster Lehnin, Potsdam-Mittelmark, Brandenburg, 14797, Deutschland",bus_stop,highway,POINT (12.7177426 52.3652439)
10,Bergstraße,bus_stop,347169,5803652,"['Bus stop Bergstraße, Brandenburg, 14770']",haltestelle bergstraße,52.3617386,12.7549816,"Bergstraße, Damsdorfer Hauptstraße, Damsdorf, Kloster Lehnin, Potsdam-Mittelmark, Brandenburg, 14797, Deutschland",bus_stop,highway,POINT (12.7549816 52.3617386)
11,Göhlsdorfer Straße,bus_stop,"347824,72","5803634,5","['Bus stop Göhlsdorfer Straße, Brandenburg, 14770']",haltestelle göhlsdorfer straße,52.3618340,12.7651287,"Göhlsdorfer Straße, Damsdorfer Hauptstraße, Damsdorf, Kloster Lehnin, Potsdam-Mittelmark, Brandenburg, 14797, Deutschland",bus_stop,highway,POINT (12.7651287 52.361834)
12,Göhlsdorfer Straße,bus_stop,"347829,34","5803624,5","['Bus stop Göhlsdorfer Straße, Brandenburg, 14770']",haltestelle göhlsdorfer straße,52.3618340,12.7651287,"Göhlsdorfer Straße, Damsdorfer Hauptstraße, Damsdorf, Kloster Lehnin, Potsdam-Mittelmark, Brandenburg, 14797, Deutschland",bus_stop,highway,POINT (12.7651287 52.361834)
13,Bahnhof Görden,tram_stop,"330210,97",5811493,"['Tram stop Bahnhof Görden, Brandenburg, 14770']",haltestelle bahnhof görden,52.4271809,12.5029132,"Bahnhof Görden, Gördenallee, Kolonie Görden, Brandenburg an der Havel, Brandenburg, 14772, Deutschland",tram_stop,railway,POINT (12.5029132 52.4271809)
14,Waldcafé Görden,tram_stop,"329818,72","5811576,5","['Tram stop Waldcafé Görden, Brandenburg, 14770']",haltestelle waldcafé görden,52.4278538,12.4971445,"Waldcafé Görden, Quenzweg, Kolonie Görden, Brandenburg an der Havel, Brandenburg, 14772, Deutschland",tram_stop,railway,POINT (12.4971445 52.4278538)
15,Geranienweg,tram_stop,"330610,28","5811385,5","['Tram stop Geranienweg, Brandenburg, 14770']",haltestelle geranienweg,52.4263765,12.5086333,"Geranienweg, Gördenallee, Görden, Brandenburg an der Havel, Brandenburg, 14772, Deutschland",tram_stop,railway,POINT (12.5086333 52.4263765)
16,Am Silokanal,tram_stop,"331817,1",5811061,"['Tram stop Am Silokanal, Brandenburg, 14770']",haltestelle am silokanal,52.4238611,12.5265358,"Am Silokanal, Gördenallee, Görden, Brandenburg an der Havel, Brandenburg, 14772, Deutschland",tram_stop,railway,POINT (12.5265358 52.4238611)
17,Rotdornweg,tram_stop,"331496,66","5811146,5","['Tram stop Rotdornweg, Brandenburg, 14770']",haltestelle rotdornweg,52.4245322,12.5217848,"Rotdornweg, Gördenallee, Görden, Brandenburg an der Havel, Brandenburg, 14772, Deutschland",tram_stop,railway,POINT (12.5217848 52.4245322)
18,Neustädtischer Markt,tram_stop,"334294,56","5809262,5","['Tram stop Neustädtischer Markt, Brandenburg, 14770']",haltestelle neustädtischer markt,52.4084643,12.5638264,"Neustädtischer Markt, Sankt-Annen-Straße, Neustadt, Brandenburg an der Havel, Brandenburg, 14776, Deutschland",tram_stop,railway,POINT (12.5638264 52.4084643)
19,Birkenweg,bus_stop,"347914,6","5805578,5","['Bus stop Birkenweg, Brandenburg, 14770']",haltestelle birkenweg,52.3807700,12.5215310,"Birkenweg, Ziesarer Landstraße, Siedlung Eigene Scholle, Brandenburg an der Havel, Brandenburg, 14776, Deutschland",bus_stop,highway,POINT (12.521531 52.38077)
20,Birkenweg,bus_stop,"347985,8","5805582,5","['Bus stop Birkenweg, Brandenburg, 14770']",haltestelle birkenweg,52.3807700,12.5215310,"Birkenweg, Ziesarer Landstraße, Siedlung Eigene Scholle, Brandenburg an der Havel, Brandenburg, 14776, Deutschland",bus_stop,highway,POINT (12.521531 52.38077)
21,Hauptstraße,bus_stop,"346587,34","5803664,5","['Bus stop Hauptstraße, Brandenburg, 14770']",haltestelle hauptstraße,52.3232654,12.5685209,"Hauptstraße, Krahner Hauptstraße, Krahne, Kloster Lehnin, Potsdam-Mittelmark, Brandenburg, 14797, Deutschland",bus_stop,highway,POINT (12.5685209 52.3232654)
22,Hauptstraße,bus_stop,"346569,78","5803653,5","['Bus stop Hauptstraße, Brandenburg, 14770']",haltestelle hauptstraße,52.3232654,12.5685209,"Hauptstraße, Krahner Hauptstraße, Krahne, Kloster Lehnin, Potsdam-Mittelmark, Brandenburg, 14797, Deutschland",bus_stop,highway,POINT (12.5685209 52.3232654)
23,Sankt-Annen-Straße,tram_stop,"334495,38","5809091,5","['Tram stop Sankt-Annen-Straße, Brandenburg, 14770']",haltestelle sankt-annen-straße,52.4069892,12.5668607,"Sankt-Annen-Straße, Neustadt, Brandenburg an der Havel, Brandenburg, 14776, Deutschland",tram_stop,railway,POINT (12.5668607 52.4069892)
24,Neustädtischer Markt,tram_stop,"334198,5",5809339,"['Tram stop Neustädtischer Markt, Brandenburg, 14770']",haltestelle neustädtischer markt,52.4084643,12.5638264,"Neustädtischer Markt, Sankt-Annen-Straße, Neustadt, Brandenburg an der Havel, Brandenburg, 14776, Deutschland",tram_stop,railway,POINT (12.5638264 52.4084643)
25,Ritterstraße/Museum,tram_stop,"333618,97","5809753,5","['Tram stop Ritterstraße/Museum, Brandenburg, 14770']",haltestelle ritterstraße/museum,52.4127647,12.5534941,"Ritterstraße/Museum, Ritterstraße, Altstadt, Brandenburg an der Havel, Brandenburg, 14770, Deutschland",tram_stop,railway,POINT (12.5534941 52.4127647)
26,Luckenberger Straße,tram_stop,"333243,2",5809341,"['Tram stop Luckenberger Straße, Brandenburg, 14770']",haltestelle luckenberger straße,52.4088509,12.5483455,"Luckenberger Straße, Altstadt, Brandenburg an der Havel, Brandenburg, 14770, Deutschland",tram_stop,railway,POINT (12.5483455 52.4088509)
27,Blumenstraße,tram_stop,"334116,4",5808653,"['Tram stop Blumenstraße, Brandenburg, 14770']",haltestelle blumenstraße,52.4029221,12.5614802,"Blumenstraße, Große Gartenstraße, Bahnhofsvorstadt, Brandenburg an der Havel, Brandenburg, 14776, Deutschland",tram_stop,railway,POINT (12.5614802 52.4029221)
28,Große Gartenstraße,tram_stop,"333886,47",5808843,"['Tram stop Große Gartenstraße, Brandenburg, 14770']",haltestelle große gartenstraße,52.4045742,12.5580408,"Große Gartenstraße, Bahnhofsvorstadt, Brandenburg an der Havel, Brandenburg, 14776, Deutschland",tram_stop,railway,POINT (12.5580408 52.4045742)
29,Kanalstraße,tram_stop,"333399,5","5809163,5","['Tram stop Kanalstraße, Brandenburg, 14770']",haltestelle kanalstraße,52.4073046,12.5507299,"Kanalstraße, Bauhofstraße, Ring, Brandenburg an der Havel, Brandenburg, 14776, Deutschland",tram_stop,railway,POINT (12.5507299 52.4073046)
30,Steinstraße/Kino,tram_stop,"334057,62","5809129,5","['Tram stop Steinstraße/Kino, Brandenburg, 14770']",haltestelle steinstraße/kino,52.4067080,12.5596629,"Steinstraße/Kino, Steinstraße, Neustadt, Brandenburg an der Havel, Brandenburg, 14776, Deutschland",tram_stop,railway,POINT (12.5596629 52.406708)
31,Magdeburger Straße/OLG,tram_stop,"332948,84",5809700,"['Tram stop Magdeburger Straße/OLG, Brandenburg, 14770']",haltestelle magdeburger straße/olg,52.4119856,12.5438434,"Magdeburger Straße/OLG, Magdeburger Straße, Neuendorfer Vorstadt, Brandenburg an der Havel, Brandenburg, 14770, Deutschland",tram_stop,railway,POINT (12.5438434 52.4119856)
32,Dreifertstraße,tram_stop,"331611,9",5809879,"['Tram stop Dreifertstraße, Brandenburg, 14770']",haltestelle dreifertstraße,52.4132188,12.5230108,"Dreifertstraße, Magdeburger Landstraße, Walzwerksiedlung, Brandenburg an der Havel, Brandenburg, 14770, Deutschland",tram_stop,railway,POINT (12.5230108 52.4132188)
33,Südtor,tram_stop,"331071,88","5809946,5","['Tram stop Südtor, Brandenburg, 14770']",haltestelle südtor,52.4135994,12.5161296,"Südtor, Magdeburger Landstraße, Walzwerksiedlung, Brandenburg an der Havel, Brandenburg, 14770, Deutschland",tram_stop,railway,POINT (12.5161296 52.4135994)
34,Frankenstraße,tram_stop,"330738,06",5809997,"['Tram stop Frankenstraße, Brandenburg, 14770']",haltestelle frankenstraße,52.4139719,12.5112208,"Frankenstraße, Magdeburger Landstraße, Walzwerksiedlung, Brandenburg an der Havel, Brandenburg, 14770, Deutschland",tram_stop,railway,POINT (12.5112208 52.4139719)
35,Hessenweg,tram_stop,"330459,62",5810052,"['Tram stop Hessenweg, Brandenburg, 14770']",haltestelle hessenweg,52.4143802,12.5071034,"Hessenweg, Magdeburger Landstraße, Walzwerksiedlung, Brandenburg an der Havel, Brandenburg, 14770, Deutschland",tram_stop,railway,POINT (12.5071034 52.4143802)
36,Am Stadion/Industriemuseum,tram_stop,"330180,12","5810106,5","['Tram stop Am Stadion/Industriemuseum, Brandenburg, 14770']",haltestelle am stadion/industriemuseum,52.4147815,12.5029704,"Am Stadion/Industriemuseum, Magdeburger Landstraße, Quenzsiedlung, Brandenburg an der Havel, Brandenburg, 14770, Deutschland",tram_stop,railway,POINT (12.5029704 52.4147815)
37,Quenzbrücke,tram_stop,"329917,72",5810125,"['Tram stop Quenzbrücke, Brandenburg, 14770']",haltestelle quenzbrücke,52.4148667,12.4991064,"Quenzbrücke, Magdeburger Landstraße, Quenzsiedlung, Brandenburg an der Havel, Brandenburg, 14770, Deutschland",tram_stop,railway,POINT (12.4991064 52.4148667)
38,Karl-Marx-Straße,tram_stop,"332548,94",5810013,"['Tram stop Karl-Marx-Straße, Brandenburg, 14770']",haltestelle karl-marx-straße,52.4146725,12.5378127,"Karl-Marx-Straße, Neuendorfer Vorstadt, Brandenburg an der Havel, Brandenburg, 14770, Deutschland",tram_stop,railway,POINT (12.5378127 52.4146725)
39,Fontanestraße,tram_stop,"332437,94",5810408,"['Tram stop Fontanestraße, Brandenburg, 14770']",haltestelle fontanestraße,52.4181898,12.5359840,"Fontanestraße, August-Bebel-Straße, Neuendorfer Vorstadt, Brandenburg an der Havel, Brandenburg, 14770, Deutschland",tram_stop,railway,POINT (12.535984 52.4181898)
40,August-Bebel-Straße,tram_stop,"332217,6","5810853,5","['Tram stop August-Bebel-Straße, Brandenburg, 14770']",haltestelle august-bebel-straße,52.4221198,12.5325241,"August-Bebel-Straße, Nord, Brandenburg an der Havel, Brandenburg, 14770, Deutschland",tram_stop,railway,POINT (12.5325241 52.4221198)
41,Hohenstücken Betriebshof,tram_stop,"332152,4","5811414,5","['Tram stop Hohenstücken Betriebshof, Brandenburg, 14770']",haltestelle hohenstücken betriebshof,52.4271417,12.5312844,"Hohenstücken Betriebshof, Rathenower Landstraße, Hohenstücken, Brandenburg an der Havel, Brandenburg, 14772, Deutschland",tram_stop,railway,POINT (12.5312844 52.4271417)
42,Willibald-Alexis-Straße,tram_stop,"332068,62","5811894,5","['Tram stop Willibald-Alexis-Straße, Brandenburg, 14770']",haltestelle willibald-alexis-straße,52.4313957,12.5298115,"Willibald-Alexis-Straße, Rosa-Luxemburg-Allee, Hohenstücken, Brandenburg an der Havel, Brandenburg, 14772, Deutschland",tram_stop,railway,POINT (12.5298115 52.4313957)
43,Rosa-Luxemburg-Allee,tram_stop,"331654,34","5811928,5","['Tram stop Rosa-Luxemburg-Allee, Brandenburg, 14770']",haltestelle rosa-luxemburg-allee,52.4315738,12.5237088,"Rosa-Luxemburg-Allee, Hohenstücken, Brandenburg an der Havel, Brandenburg, 14772, Deutschland",tram_stop,railway,POINT (12.5237088 52.4315738)
44,Tschirchdamm,tram_stop,"331518,7","5812226,5","['Tram stop Tschirchdamm, Brandenburg, 14770']",haltestelle tschirchdamm,52.4342152,12.5215229,"Tschirchdamm, Hohenstücken, Brandenburg an der Havel, Brandenburg, 14772, Deutschland",tram_stop,railway,POINT (12.5215229 52.4342152)
45,Hohenstücken Nord,tram_stop,331302,5812563,"['Tram stop Hohenstücken Nord, Brandenburg, 14770']",haltestelle hohenstücken nord,52.4372086,12.5182672,"Hohenstücken Nord, Betriebsweg, Hohenstücken, Brandenburg an der Havel, Brandenburg, 14772, Deutschland",tram_stop,railway,POINT (12.5182672 52.4372086)
46,Anton-Saefkow-Allee,tram_stop,"327811,4",5811145,"['Tram stop Anton-Saefkow-Allee, Brandenburg, 14770']",haltestelle anton-saefkow-allee,52.4233512,12.4676707,"Anton-Saefkow-Allee, Heidekrug, Brandenburg an der Havel, Brandenburg, 14772, Deutschland",tram_stop,railway,POINT (12.4676707 52.4233512)
47,Kaltenhausener Weg,tram_stop,"328193,4","5811318,5","['Tram stop Kaltenhausener Weg, Brandenburg, 14770']",haltestelle kaltenhausener weg,52.4250483,12.4731655,"Kaltenhausener Weg, Anton-Saefkow-Allee, Heidekrug, Brandenburg an der Havel, Brandenburg, 14772, Deutschland",tram_stop,railway,POINT (12.4731655 52.4250483)
48,Asklepios Klinik,tram_stop,"328669,22",5811546,"['Tram stop Asklepios Klinik, Brandenburg, 14770']",haltestelle asklepios klinik,52.4273201,12.4803928,"Asklepios Klinik, Anton-Saefkow-Allee, Heidekrug, Brandenburg an der Havel, Brandenburg, 14772, Deutschland",tram_stop,railway,POINT (12.4803928 52.4273201)
49,Gördenallee,tram_stop,"330960,22",5811293,"['Tram stop Gördenallee, Brandenburg, 14770']",haltestelle gördenallee,52.4256528,12.5138147,"Gördenallee, Görden, Brandenburg an der Havel, Brandenburg, 14772, Deutschland",tram_stop,railway,POINT (12.5138147 52.4256528)
50,Jacobstraße,tram_stop,"333861,3",5808924,"['Tram stop Jacobstraße, Brandenburg, 14770']",haltestelle jacobstraße,52.4052940,12.5576310,"Jacobstraße, Bahnhofsvorstadt, Brandenburg an der Havel, Brandenburg, 14776, Deutschland",tram_stop,railway,POINT (12.557631 52.405294)
51,Fischersberg,bus_stop,"346780,1",5799542,"['Bus stop Fischersberg, Brandenburg, 14770']",haltestelle fischersberg,52.3248444,12.7514871,"Fischersberg, Damsdorfer Chaussee, Lehnin, Kloster Lehnin, Potsdam-Mittelmark, Brandenburg, 14797, Deutschland",bus_stop,highway,POINT (12.7514871 52.3248444)
52,Fischersberg,bus_stop,"346768,1","5799549,5","['Bus stop Fischersberg, Brandenburg, 14770']",haltestelle fischersberg,52.3248444,12.7514871,"Fischersberg, Damsdorfer Chaussee, Lehnin, Kloster Lehnin, Potsdam-Mittelmark, Brandenburg, 14797, Deutschland",bus_stop,highway,POINT (12.7514871 52.3248444)
53,Beelitzer Straße,bus_stop,"347079,94","5799178,5","['Bus stop Beelitzer Straße, Brandenburg, 14770']",haltestelle beelitzer straße,52.3215990,12.7562278,"Beelitzer Straße, Lehnin, Kloster Lehnin, Potsdam-Mittelmark, Brandenburg, 14797, Deutschland",bus_stop,highway,POINT (12.7562278 52.321599)
54,Weinbergweg,bus_stop,"345481,6",5799604,"['Bus stop Weinbergweg, Brandenburg, 14770']",haltestelle weinbergweg,52.3249334,12.7323168,"Weinbergweg, Kaltenhausen, Lehnin, Kloster Lehnin, Potsdam-Mittelmark, Brandenburg, 14797, Deutschland",bus_stop,highway,POINT (12.7323168 52.3249334)
55,Friedhof,bus_stop,"344694,03",5801208,"['Bus stop Friedhof, Brandenburg, 14770']",haltestelle friedhof,52.3758739,12.6388835,"Friedhof, Rietzer Dorfstraße, Rietz, Kloster Lehnin, Potsdam-Mittelmark, Brandenburg, 14797, Deutschland",bus_stop,highway,POINT (12.6388835 52.3758739)
56,Beelitzer Straße,bus_stop,"347085,44","5799187,5","['Bus stop Beelitzer Straße, Brandenburg, 14770']",haltestelle beelitzer straße,52.3215990,12.7562278,"Beelitzer Straße, Lehnin, Kloster Lehnin, Potsdam-Mittelmark, Brandenburg, 14797, Deutschland",bus_stop,highway,POINT (12.7562278 52.321599)
57,Weinbergweg,bus_stop,"345462,16","5799600,5","['Bus stop Weinbergweg, Brandenburg, 14770']",haltestelle weinbergweg,52.3249334,12.7323168,"Weinbergweg, Kaltenhausen, Lehnin, Kloster Lehnin, Potsdam-Mittelmark, Brandenburg, 14797, Deutschland",bus_stop,highway,POINT (12.7323168 52.3249334)
58,Friedhof,bus_stop,"344689,03","5801214,5","['Bus stop Friedhof, Brandenburg, 14770']",haltestelle friedhof,52.3758739,12.6388835,"Friedhof, Rietzer Dorfstraße, Rietz, Kloster Lehnin, Potsdam-Mittelmark, Brandenburg, 14797, Deutschland",bus_stop,highway,POINT (12.6388835 52.3758739)
59,Kaltenhausen,bus_stop,"345761,12","5798950,5","['Bus stop Kaltenhausen, Brandenburg, 14770']",haltestelle kaltenhausen,52.4254935,12.4360028,"Kaltenhausen, Briest, Havelsee, Amt Beetzsee, Potsdam-Mittelmark, Brandenburg, 14798, Deutschland",bus_stop,highway,POINT (12.4360028 52.4254935)
60,Kaltenhausen,bus_stop,"345756,88",5798995,"['Bus stop Kaltenhausen, Brandenburg, 14770']",haltestelle kaltenhausen,52.4254935,12.4360028,"Kaltenhausen, Briest, Havelsee, Amt Beetzsee, Potsdam-Mittelmark, Brandenburg, 14798, Deutschland",bus_stop,highway,POINT (12.4360028 52.4254935)
61,"Michelsdorf, Ausbau",bus_stop,"342214,97","5796922,5","['Bus stop Michelsdorf Ausbau, Brandenburg, 14770']","haltestelle michelsdorf, ausbau",52.2999606,12.6859594,"Michelsdorf, Ausbau, L 86, Michelsdorf, Kloster Lehnin, Brück, Potsdam-Mittelmark, Brandenburg, 14797, Deutschland",bus_stop,highway,POINT (12.6859594 52.2999606)
62,"Michelsdorf, Ausbau",bus_stop,342233,"5796922,5","['Bus stop Michelsdorf Ausbau, Brandenburg, 14770']","haltestelle michelsdorf, ausbau",52.2999606,12.6859594,"Michelsdorf, Ausbau, L 86, Michelsdorf, Kloster Lehnin, Brück, Potsdam-Mittelmark, Brandenburg, 14797, Deutschland",bus_stop,highway,POINT (12.6859594 52.2999606)
63,Belziger Straße,bus_stop,"345752,53",5798288,"['Bus stop Belziger Straße, Brandenburg, 14770']",haltestelle belziger straße,52.2742032,12.5976549,"Belziger Straße, Königsberg, Golzow, Brück, Potsdam-Mittelmark, Brandenburg, 14778, Deutschland",bus_stop,highway,POINT (12.5976549 52.2742032)
64,Belziger Straße,bus_stop,"345748,9","5798276,5","['Bus stop Belziger Straße, Brandenburg, 14770']",haltestelle belziger straße,52.2742032,12.5976549,"Belziger Straße, Königsberg, Golzow, Brück, Potsdam-Mittelmark, Brandenburg, 14778, Deutschland",bus_stop,highway,POINT (12.5976549 52.2742032)
65,"Döberitz (bei Premnitz), Siedlung",bus_stop,"322483,28","5822658,5","['Bus stop Döberitz (bei Premnitz) Siedlung, Brandenburg, 14770']","haltestelle döberitz (bei premnitz), siedlung",52.5250676,12.3832392,"Döberitz (bei Premnitz), Siedlung, Siedlung, Siedlung Döberitz, Ausbau Döberitz, Döberitz, Premnitz, Havelland, Brandenburg, 14727, Deutschland",bus_stop,highway,POINT (12.3832392 52.5250676)
66,Bahnhof Zentrum,bus_stop,"319788,94","5823338,5","['Bus stop Bahnhof Zentrum, Brandenburg, 14770']",haltestelle bahnhof zentrum,52.5302918,12.3431994,"Bahnhof Zentrum, Fabrikenstraße, Neues Zentrum, Premnitz, Havelland, Brandenburg, 14727, Deutschland",bus_stop,highway,POINT (12.3431994 52.5302918)
67,"Premnitz, Friedrich-Engels-Straße",bus_stop,"319933,8",5823496,"['Bus stop Premnitz Friedrich-Engels-Straße, Brandenburg, 14770']","haltestelle premnitz, friedrich-engels-straße",52.5316357,12.3455786,"Premnitz, Friedrich-Engels-Straße, Fabrikenstraße, Neues Zentrum, Premnitz, Havelland, Brandenburg, 14727, Deutschland",bus_stop,highway,POINT (12.3455786 52.5316357)
68,"Premnitz, Friedrich-Engels-Straße",bus_stop,"319955,78",5823482,"['Bus stop Premnitz Friedrich-Engels-Straße, Brandenburg, 14770']","haltestelle premnitz, friedrich-engels-straße",52.5316357,12.3455786,"Premnitz, Friedrich-Engels-Straße, Fabrikenstraße, Neues Zentrum, Premnitz, Havelland, Brandenburg, 14727, Deutschland",bus_stop,highway,POINT (12.3455786 52.5316357)
69,Bahnhof Zentrum,bus_stop,"319750,34","5823321,5","['Bus stop Bahnhof Zentrum, Brandenburg, 14770']",haltestelle bahnhof zentrum,52.5302918,12.3431994,"Bahnhof Zentrum, Fabrikenstraße, Neues Zentrum, Premnitz, Havelland, Brandenburg, 14727, Deutschland",bus_stop,highway,POINT (12.3431994 52.5302918)
70,Thomas-Mann-Straße,bus_stop,"319926,16","5823077,5","['Bus stop Thomas-Mann-Straße, Brandenburg, 14770']",haltestelle thomas-mann-straße,52.5278463,12.3460237,"Thomas-Mann-Straße, Heinrich-Heine-Straße, Neues Zentrum, Premnitz, Havelland, Brandenburg, 14727, Deutschland",bus_stop,highway,POINT (12.3460237 52.5278463)
71,Thomas-Mann-Straße,bus_stop,"319970,47","5823059,5","['Bus stop Thomas-Mann-Straße, Brandenburg, 14770']",haltestelle thomas-mann-straße,52.5278463,12.3460237,"Thomas-Mann-Straße, Heinrich-Heine-Straße, Neues Zentrum, Premnitz, Havelland, Brandenburg, 14727, Deutschland",bus_stop,highway,POINT (12.3460237 52.5278463)
72,Rathenower Straße,bus_stop,"321416,2","5822328,5","['Bus stop Rathenower Straße, Brandenburg, 14770']",haltestelle rathenower straße,52.5216020,12.3676901,"Rathenower Straße, Döberitz, Premnitz, Havelland, Brandenburg, 14727, Deutschland",bus_stop,highway,POINT (12.3676901 52.521602)
73,Rathenower Straße,bus_stop,"321414,6","5822311,5","['Bus stop Rathenower Straße, Brandenburg, 14770']",haltestelle rathenower straße,52.5216020,12.3676901,"Rathenower Straße, Döberitz, Premnitz, Havelland, Brandenburg, 14727, Deutschland",bus_stop,highway,POINT (12.3676901 52.521602)
74,"Döberitz (bei Premnitz), Seelensdorfer Weg",bus_stop,"323382,56",5822225,"['Bus stop Döberitz (bei Premnitz) Seelensdorfer Weg, Brandenburg, 14770']","haltestelle döberitz (bei premnitz), seelensdorfer weg",52.5214662,12.3967108,"Döberitz (bei Premnitz), Seelensdorfer Weg, Industriestraße, Gapel, Ausbau Döberitz, Döberitz, Premnitz, Havelland, Brandenburg, 14727, Deutschland",bus_stop,highway,POINT (12.3967108 52.5214662)
75,"Döberitz (bei Premnitz), Werk",bus_stop,323839,"5822526,5","['Bus stop Döberitz (bei Premnitz) Werk, Brandenburg, 14770']","haltestelle döberitz (bei premnitz), werk",52.5243214,12.4032715,"Döberitz (bei Premnitz), Werk, Industriestraße, Fehr Umwelt Ost Betriebsstätte Döberitz, Ausbau Döberitz, Döberitz, Premnitz, Havelland, Brandenburg, 14727, Deutschland",bus_stop,highway,POINT (12.4032715 52.5243214)
76,Gapel,bus_stop,"323748,03","5821736,5","['Bus stop Gapel, Brandenburg, 14770']",haltestelle gapel,52.5174768,12.4048339,"Gapel, Ausbau Döberitz, Döberitz, Premnitz, Havelland, Brandenburg, 14727, Deutschland",bus_stop,highway,POINT (12.4048339 52.5174768)
77,Gapel,bus_stop,"323917,6","5821761,5","['Bus stop Gapel, Brandenburg, 14770']",haltestelle gapel,52.5174768,12.4048339,"Gapel, Ausbau Döberitz, Döberitz, Premnitz, Havelland, Brandenburg, 14727, Deutschland",bus_stop,highway,POINT (12.4048339 52.5174768)
78,Neudessau,bus_stop,"315589,97","5819868,5","['Bus stop Neudessau, Brandenburg, 14770']",haltestelle neudessau,52.4977267,12.2832936,"Neudessau, Neudessauer Straße, Neu Dessau, Milow, Milower Land, Havelland, Brandenburg, 14715, Deutschland",bus_stop,highway,POINT (12.2832936 52.4977267)
79,Wilhelminenthal,bus_stop,"316463,72","5820736,5","['Bus stop Wilhelminenthal, Brandenburg, 14770']",haltestelle wilhelminenthal,52.5058143,12.2956717,"Wilhelminenthal, Neudessauer Straße, Wilhelminenthal, Milow, Milower Land, Havelland, Brandenburg, 14715, Deutschland",bus_stop,highway,POINT (12.2956717 52.5058143)
80,Knoblauch,bus_stop,"320140,9","5814381,5","['Bus stop Knoblauch, Brandenburg, 14770']",haltestelle knoblauch,52.4499672,12.3532190,"Knoblauch, Knoblaucher Straße, Knoblauch, Nitzahn, Milower Land, Havelland, Brandenburg, 14715, Deutschland",bus_stop,highway,POINT (12.353219 52.4499672)
81,Nitzahn,bus_stop,"320507,03",5816101,"['Bus stop Nitzahn, Brandenburg, 14770']",haltestelle nitzahn,52.4664794,12.3603611,"Nitzahn, Schulstraße, Nitzahn, Milower Land, Havelland, Brandenburg, 14715, Deutschland",bus_stop,highway,POINT (12.3603611 52.4664794)
82,Nitzahn,bus_stop,"320662,9",5816180,"['Bus stop Nitzahn, Brandenburg, 14770']",haltestelle nitzahn,52.4664794,12.3603611,"Nitzahn, Schulstraße, Nitzahn, Milower Land, Havelland, Brandenburg, 14715, Deutschland",bus_stop,highway,POINT (12.3603611 52.4664794)
83,Nitzahn,bus_stop,"320693,28",5816200,"['Bus stop Nitzahn, Brandenburg, 14770']",haltestelle nitzahn,52.4664794,12.3603611,"Nitzahn, Schulstraße, Nitzahn, Milower Land, Havelland, Brandenburg, 14715, Deutschland",bus_stop,highway,POINT (12.3603611 52.4664794)
84,"Milow (HVL), Karl-Marx-Straße",bus_stop,"317669,47",5821322,"['Bus stop Milow (HVL) Karl-Marx-Straße, Brandenburg, 14770']","haltestelle milow (hvl), karl-marx-straße",52.5114510,12.3133055,"Milow (HVL), Karl-Marx-Straße, Karl-Marx-Straße, Alte Schäferei, Milow, Milower Land, Havelland, Brandenburg, 14715, Deutschland",bus_stop,highway,POINT (12.3133055 52.511451)
85,"Milow (HVL), Karl-Marx-Straße",bus_stop,"317683,6","5821318,5","['Bus stop Milow (HVL) Karl-Marx-Straße, Brandenburg, 14770']","haltestelle milow (hvl), karl-marx-straße",52.5114510,12.3133055,"Milow (HVL), Karl-Marx-Straße, Karl-Marx-Straße, Alte Schäferei, Milow, Milower Land, Havelland, Brandenburg, 14715, Deutschland",bus_stop,highway,POINT (12.3133055 52.511451)
86,Marquede,bus_stop,"318764,97","5820188,5","['Bus stop Marquede, Brandenburg, 14770']",haltestelle marquede,52.5015486,12.3297991,"Marquede, Jerchel, Milower Land, Havelland, Brandenburg, 14715, Deutschland",bus_stop,highway,POINT (12.3297991 52.5015486)
87,Marquede,bus_stop,"318761,88",5820176,"['Bus stop Marquede, Brandenburg, 14770']",haltestelle marquede,52.5015486,12.3297991,"Marquede, Jerchel, Milower Land, Havelland, Brandenburg, 14715, Deutschland",bus_stop,highway,POINT (12.3297991 52.5015486)
88,"Milow (HVL), Friedensstraße",bus_stop,"317449,7",5821758,"['Bus stop Milow (HVL) Friedensstraße, Brandenburg, 14770']","haltestelle milow (hvl), friedensstraße",52.5153202,12.3096213,"Milow (HVL), Friedensstraße, Friedensstraße, Milow, Milower Land, Havelland, Brandenburg, 14715, Deutschland",bus_stop,highway,POINT (12.3096213 52.5153202)
89,"Milow (HVL), Amt Milow",bus_stop,"317543,8","5822213,5","['Bus stop Milow (HVL) Amt Milow, Brandenburg, 14770']","haltestelle milow (hvl), amt milow",52.5194420,12.3107570,"Milow (HVL), Amt Milow, Große Gasse, Milow, Milower Land, Havelland, Brandenburg, 14715, Deutschland",bus_stop,highway,POINT (12.310757 52.519442)
90,"Milow (HVL), Amt Milow",bus_stop,"317516,56","5822147,5","['Bus stop Milow (HVL) Amt Milow, Brandenburg, 14770']","haltestelle milow (hvl), amt milow",52.5194420,12.3107570,"Milow (HVL), Amt Milow, Große Gasse, Milow, Milower Land, Havelland, Brandenburg, 14715, Deutschland",bus_stop,highway,POINT (12.310757 52.519442)
91,Max-Josef-Metzger-Straße,bus_stop,"327775,88","5810919,5","['Bus stop Max-Josef-Metzger-Straße, Brandenburg, 14770']",haltestelle max-josef-metzger-straße,52.4181857,12.4704539,"Max-Josef-Metzger-Straße, Plauer Landstraße, Heidekrug, Brandenburg an der Havel, Brandenburg, 14772, Deutschland",bus_stop,highway,POINT (12.4704539 52.4181857)
92,Anton-Saefkow-Allee,bus_stop,"327834,78","5811137,5","['Bus stop Anton-Saefkow-Allee, Brandenburg, 14770']",haltestelle anton-saefkow-allee,52.4233117,12.4679896,"Anton-Saefkow-Allee, Heidekrug, Brandenburg an der Havel, Brandenburg, 14772, Deutschland",bus_stop,highway,POINT (12.4679896 52.4233117)
93,Kaltenhausener Weg,bus_stop,"328190,84","5811303,5","['Bus stop Kaltenhausener Weg, Brandenburg, 14770']",haltestelle kaltenhausener weg,52.4248325,12.4731651,"Kaltenhausener Weg, Anton-Saefkow-Allee, Heidekrug, Brandenburg an der Havel, Brandenburg, 14772, Deutschland",bus_stop,highway,POINT (12.4731651 52.4248325)
94,Asklepios Klinik,bus_stop,"328671,88",5811530,"['Bus stop Asklepios Klinik, Brandenburg, 14770']",haltestelle asklepios klinik,52.4270998,12.4800864,"Asklepios Klinik, Anton-Saefkow-Allee, Heidekrug, Brandenburg an der Havel, Brandenburg, 14772, Deutschland",bus_stop,highway,POINT (12.4800864 52.4270998)
95,Max-Josef-Metzger-Straße,bus_stop,"327982,34","5810561,5","['Bus stop Max-Josef-Metzger-Straße, Brandenburg, 14770']",haltestelle max-josef-metzger-straße,52.4181857,12.4704539,"Max-Josef-Metzger-Straße, Plauer Landstraße, Heidekrug, Brandenburg an der Havel, Brandenburg, 14772, Deutschland",bus_stop,highway,POINT (12.4704539 52.4181857)
96,Max-Josef-Metzger-Straße,bus_stop,"327900,7","5810574,5","['Bus stop Max-Josef-Metzger-Straße, Brandenburg, 14770']",haltestelle max-josef-metzger-straße,52.4181857,12.4704539,"Max-Josef-Metzger-Straße, Plauer Landstraße, Heidekrug, Brandenburg an der Havel, Brandenburg, 14772, Deutschland",bus_stop,highway,POINT (12.4704539 52.4181857)
97,Heidekrug,bus_stop,"328815,3",5810431,"['Bus stop Heidekrug, Brandenburg, 14770']",haltestelle heidekrug,52.4167016,12.4849213,"Heidekrug, Plauer Landstraße, Heidekrug, Brandenburg an der Havel, Brandenburg, 14772, Deutschland",bus_stop,highway,POINT (12.4849213 52.4167016)
98,Malge,bus_stop,"328334,75","5805000,5","['Bus stop Malge, Brandenburg, 14770']",haltestelle malge,52.3683473,12.4784805,"Malge, Magdeburger Heerstraße, Wendgräben, Brandenburg an der Havel, Brandenburg, 14776, Deutschland",bus_stop,highway,POINT (12.4784805 52.3683473)
99,Prützke,bus_stop,"338498,97",5802713,"['Bus stop Prützke, Brandenburg, 14770']",haltestelle prützke,52.3508881,12.6287361,"Prützke, Grebser Straße, Prützke, Kloster Lehnin, Potsdam-Mittelmark, Brandenburg, 14797, Deutschland",bus_stop,highway,POINT (12.6287361 52.3508881)
100,Neubensdorf,bus_stop,"319963,2",5809992,"['Bus stop Neubensdorf, Brandenburg, 14770']",haltestelle neubensdorf,52.4105888,12.3520919,"Neubensdorf, Genthiner Straße, Neubensdorf, Bensdorf, Wusterwitz, Potsdam-Mittelmark, Brandenburg, 14789, Deutschland",bus_stop,highway,POINT (12.3520919 52.4105888)
101,Neubensdorf,bus_stop,"319975,16","5810001,5","['Bus stop Neubensdorf, Brandenburg, 14770']",haltestelle neubensdorf,52.4105888,12.3520919,"Neubensdorf, Genthiner Straße, Neubensdorf, Bensdorf, Wusterwitz, Potsdam-Mittelmark, Brandenburg, 14789, Deutschland",bus_stop,highway,POINT (12.3520919 52.4105888)
102,Signalstraße,bus_stop,"324287,5","5807296,5","['Bus stop Signalstraße, Brandenburg, 14770']",haltestelle signalstraße,52.3876863,12.4178936,"Signalstraße, Uferstraße, Kirchmöser West, Kirchmöser, Brandenburg an der Havel, Brandenburg, 14774, Deutschland",bus_stop,highway,POINT (12.4178936 52.3876863)
103,Bergstraße,bus_stop,"347133,56",5803645,"['Bus stop Bergstraße, Brandenburg, 14770']",haltestelle bergstraße,52.3617386,12.7549816,"Bergstraße, Damsdorfer Hauptstraße, Damsdorf, Kloster Lehnin, Potsdam-Mittelmark, Brandenburg, 14797, Deutschland",bus_stop,highway,POINT (12.7549816 52.3617386)
104,Forsthaus,bus_stop,"330896,2",5805934,"['Bus stop Forsthaus, Brandenburg, 14770']",haltestelle forsthaus,52.3775263,12.5155954,"Forsthaus, Ziesarer Landstraße, Siedlung Eigene Scholle, Brandenburg an der Havel, Brandenburg, 14776, Deutschland",bus_stop,highway,POINT (12.5155954 52.3775263)
105,"Niebede, Dorf",bus_stop,"350022,75",5823404,"['Bus stop Niebede Dorf, Brandenburg, 14770']","haltestelle niebede, dorf",52.5400419,12.7885011,"Niebede, Dorf, Am Anger, Niebede, Wachow, Nauen, Havelland, Brandenburg, 14641, Deutschland",bus_stop,highway,POINT (12.7885011 52.5400419)
106,"Milow (HVL), Dorfplatz",bus_stop,"317648,16","5822746,5","['Bus stop Milow (HVL) Dorfplatz, Brandenburg, 14770']","haltestelle milow (hvl), dorfplatz",52.5242611,12.3120010,"Milow (HVL), Dorfplatz, Friedensstraße, Milow, Milower Land, Havelland, Brandenburg, 14715, Deutschland",bus_stop,highway,POINT (12.312001 52.5242611)
107,"Milow (HVL), Schule",bus_stop,"317748,75",5821835,"['Bus stop Milow (HVL) Schule, Brandenburg, 14770']","haltestelle milow (hvl), schule",52.5161116,12.3139816,"Milow (HVL), Schule, 2a, Forststraße, Milow, Milower Land, Havelland, Brandenburg, 14715, Deutschland",bus_stop,highway,POINT (12.3139816 52.5161116)
108,Brücke,bus_stop,"317573,97",5822865,"['Bus stop Brücke, Brandenburg, 14770']",haltestelle brücke,52.5253014,12.3108437,"Brücke, Stremmestraße, Milow, Milower Land, Havelland, Brandenburg, 14715, Deutschland",bus_stop,highway,POINT (12.3108437 52.5253014)
109,Belziger Chaussee,bus_stop,"344476,62",5797802,"['Bus stop Belziger Chaussee, Brandenburg, 14770']",haltestelle belziger chaussee,52.4010295,12.5911959,"Belziger Chaussee, Neuschmerzke, Brandenburg an der Havel, Brandenburg, 14776, Deutschland",bus_stop,highway,POINT (12.5911959 52.4010295)
110,Belziger Chaussee,bus_stop,"344461,03",5797810,"['Bus stop Belziger Chaussee, Brandenburg, 14770']",haltestelle belziger chaussee,52.4010295,12.5911959,"Belziger Chaussee, Neuschmerzke, Brandenburg an der Havel, Brandenburg, 14776, Deutschland",bus_stop,highway,POINT (12.5911959 52.4010295)
111,"Niebede, Abzweig",bus_stop,"350167,28","5823794,5","['Bus stop Niebede Abzweig, Brandenburg, 14770']","haltestelle niebede, abzweig",52.5439067,12.7894845,"Niebede, Abzweig, Tremmener Straße, Niebede, Wachow, Nauen, Havelland, Brandenburg, 14641, Deutschland",bus_stop,highway,POINT (12.7894845 52.5439067)
112,"Niebede, Abzweig",bus_stop,"350102,6",5823832,"['Bus stop Niebede Abzweig, Brandenburg, 14770']","haltestelle niebede, abzweig",52.5439067,12.7894845,"Niebede, Abzweig, Tremmener Straße, Niebede, Wachow, Nauen, Havelland, Brandenburg, 14641, Deutschland",bus_stop,highway,POINT (12.7894845 52.5439067)
113,Dorfplatz,bus_stop,"349430,4",5817121,"['Bus stop Dorfplatz, Brandenburg, 14770']",haltestelle dorfplatz,52.4834344,12.7826177,"Dorfplatz, Dorfstraße, Zachow, Ketzin/Havel, Havelland, Brandenburg, 14669, Deutschland",bus_stop,highway,POINT (12.7826177 52.4834344)
114,Dorfplatz,bus_stop,"349476,22","5817122,5","['Bus stop Dorfplatz, Brandenburg, 14770']",haltestelle dorfplatz,52.4834344,12.7826177,"Dorfplatz, Dorfstraße, Zachow, Ketzin/Havel, Havelland, Brandenburg, 14669, Deutschland",bus_stop,highway,POINT (12.7826177 52.4834344)
115,Am Fliegerhorst,bus_stop,"327156,47",5810695,"['Bus stop Am Fliegerhorst, Brandenburg, 14770']",haltestelle am fliegerhorst,52.4188668,12.4596707,"Am Fliegerhorst, Plauer Landstraße, Heidekrug, Brandenburg an der Havel, Brandenburg, 14772, Deutschland",bus_stop,highway,POINT (12.4596707 52.4188668)
116,Briester Weg,bus_stop,"325445,56","5809955,5","['Bus stop Briester Weg, Brandenburg, 14770']",haltestelle briester weg,52.4120071,12.4342952,"Briester Weg, Plauer Landstraße, Margaretenhof, Plaue, Brandenburg an der Havel, Brandenburg, 14774, Deutschland",bus_stop,highway,POINT (12.4342952 52.4120071)
117,Plauerhof,bus_stop,"326459,5",5810437,"['Bus stop Plauerhof, Brandenburg, 14770']",haltestelle plauerhof,52.4165840,12.4481489,"Plauerhof, Plauer Landstraße, Plauerhof, Plaue, Brandenburg an der Havel, Brandenburg, 14774, Deutschland",bus_stop,highway,POINT (12.4481489 52.416584)
118,Plauerhof,bus_stop,"326407,97",5810428,"['Bus stop Plauerhof, Brandenburg, 14770']",haltestelle plauerhof,52.4165840,12.4481489,"Plauerhof, Plauer Landstraße, Plauerhof, Plaue, Brandenburg an der Havel, Brandenburg, 14774, Deutschland",bus_stop,highway,POINT (12.4481489 52.416584)
119,Quenzbrücke,bus_stop,"329973,25","5810073,5","['Bus stop Quenzbrücke, Brandenburg, 14770']",haltestelle quenzbrücke,52.4146366,12.4998076,"Quenzbrücke, Magdeburger Landstraße, Quenzsiedlung, Brandenburg an der Havel, Brandenburg, 14770, Deutschland",bus_stop,highway,POINT (12.4998076 52.4146366)
120,Quenzbrücke,bus_stop,"329964,53","5810097,5","['Bus stop Quenzbrücke, Brandenburg, 14770']",haltestelle quenzbrücke,52.4146366,12.4998076,"Quenzbrücke, Magdeburger Landstraße, Quenzsiedlung, Brandenburg an der Havel, Brandenburg, 14770, Deutschland",bus_stop,highway,POINT (12.4998076 52.4146366)
121,Am Südtor,bus_stop,"323658,4",5807401,"['Bus stop Am Südtor, Brandenburg, 14770']",haltestelle am südtor,52.3884199,12.4086042,"Am Südtor, Kirchmöser West, Kirchmöser, Brandenburg an der Havel, Brandenburg, 14774, Deutschland",bus_stop,highway,POINT (12.4086042 52.3884199)
122,Am Südtor,bus_stop,"323631,2",5807416,"['Bus stop Am Südtor, Brandenburg, 14770']",haltestelle am südtor,52.3884199,12.4086042,"Am Südtor, Kirchmöser West, Kirchmöser, Brandenburg an der Havel, Brandenburg, 14774, Deutschland",bus_stop,highway,POINT (12.4086042 52.3884199)
123,Am Weinberg,bus_stop,"324908,38","5806908,5","['Bus stop Am Weinberg, Brandenburg, 14770']",haltestelle am weinberg,52.3844683,12.4272953,"Am Weinberg, Uferstraße, Kirchmöser Ost, Kirchmöser, Brandenburg an der Havel, Brandenburg, 14774, Deutschland",bus_stop,highway,POINT (12.4272953 52.3844683)
124,Am Weinberg,bus_stop,"324914,44",5806916,"['Bus stop Am Weinberg, Brandenburg, 14770']",haltestelle am weinberg,52.3844683,12.4272953,"Am Weinberg, Uferstraße, Kirchmöser Ost, Kirchmöser, Brandenburg an der Havel, Brandenburg, 14774, Deutschland",bus_stop,highway,POINT (12.4272953 52.3844683)
125,Bahnhof Kirchmöser,bus_stop,"324555,1","5805922,5","['Bus stop Bahnhof Kirchmöser, Brandenburg, 14770']",haltestelle bahnhof kirchmöser,52.3754294,12.4225408,"Bahnhof Kirchmöser, Bahnhofstraße, Kirchmöser Dorf, Kirchmöser, Brandenburg an der Havel, Brandenburg, 14774, Deutschland",bus_stop,highway,POINT (12.4225408 52.3754294)
126,Grenzstraße,bus_stop,"325341,62","5806759,5","['Bus stop Grenzstraße, Brandenburg, 14770']",haltestelle grenzstraße,52.3832728,12.4337256,"Grenzstraße, Uferstraße, Kirchmöser Ost, Kirchmöser, Brandenburg an der Havel, Brandenburg, 14774, Deutschland",bus_stop,highway,POINT (12.4337256 52.3832728)
127,Grenzstraße,bus_stop,"325347,25","5806767,5","['Bus stop Grenzstraße, Brandenburg, 14770']",haltestelle grenzstraße,52.3832728,12.4337256,"Grenzstraße, Uferstraße, Kirchmöser Ost, Kirchmöser, Brandenburg an der Havel, Brandenburg, 14774, Deutschland",bus_stop,highway,POINT (12.4337256 52.3832728)
128,Gränertstraße,bus_stop,"324848,03",5805795,"['Bus stop Gränertstraße, Brandenburg, 14770']",haltestelle gränertstraße,52.3743815,12.4269063,"Gränertstraße, Kirchmöser Dorf, Kirchmöser, Brandenburg an der Havel, Brandenburg, 14774, Deutschland",bus_stop,highway,POINT (12.4269063 52.3743815)
129,Gränertstraße,bus_stop,"324838,1","5805795,5","['Bus stop Gränertstraße, Brandenburg, 14770']",haltestelle gränertstraße,52.3743815,12.4269063,"Gränertstraße, Kirchmöser Dorf, Kirchmöser, Brandenburg an der Havel, Brandenburg, 14774, Deutschland",bus_stop,highway,POINT (12.4269063 52.3743815)
130,Platz der Einheit,bus_stop,"323988,9",5807360,"['Bus stop Platz der Einheit, Brandenburg, 14770']",haltestelle platz der einheit,52.3882530,12.4135009,"Platz der Einheit, Uferstraße, Kirchmöser West, Kirchmöser, Brandenburg an der Havel, Brandenburg, 14774, Deutschland",bus_stop,highway,POINT (12.4135009 52.388253)
131,Platz der Einheit,bus_stop,"323990,88","5807370,5","['Bus stop Platz der Einheit, Brandenburg, 14770']",haltestelle platz der einheit,52.3882530,12.4135009,"Platz der Einheit, Uferstraße, Kirchmöser West, Kirchmöser, Brandenburg an der Havel, Brandenburg, 14774, Deutschland",bus_stop,highway,POINT (12.4135009 52.388253)
132,Signalstraße,bus_stop,"324281,06","5807290,5","['Bus stop Signalstraße, Brandenburg, 14770']",haltestelle signalstraße,52.3876863,12.4178936,"Signalstraße, Uferstraße, Kirchmöser West, Kirchmöser, Brandenburg an der Havel, Brandenburg, 14774, Deutschland",bus_stop,highway,POINT (12.4178936 52.3876863)
133,Schulstraße,bus_stop,"323561,4",5807829,"['Bus stop Schulstraße, Brandenburg, 14770']",haltestelle schulstraße,52.3928394,12.4071863,"Schulstraße, Kirchmöser West, Kirchmöser, Brandenburg an der Havel, Brandenburg, 14774, Deutschland",bus_stop,highway,POINT (12.4071863 52.3928394)
134,Schulstraße,bus_stop,"323579,56","5807895,5","['Bus stop Schulstraße, Brandenburg, 14770']",haltestelle schulstraße,52.3928394,12.4071863,"Schulstraße, Kirchmöser West, Kirchmöser, Brandenburg an der Havel, Brandenburg, 14774, Deutschland",bus_stop,highway,POINT (12.4071863 52.3928394)
135,Kirchmöser West,bus_stop,"323881,75","5808522,5","['Bus stop Kirchmöser West, Brandenburg, 14770']",haltestelle kirchmöser west,52.3985824,12.4118034,"Kirchmöser West, Am Seegarten, Kirchmöser West, Kirchmöser, Brandenburg an der Havel, Brandenburg, 14774, Deutschland",bus_stop,highway,POINT (12.4118034 52.3985824)
136,Kirchmöser West,bus_stop,"323916,53",5808523,"['Bus stop Kirchmöser West, Brandenburg, 14770']",haltestelle kirchmöser west,52.3985824,12.4118034,"Kirchmöser West, Am Seegarten, Kirchmöser West, Kirchmöser, Brandenburg an der Havel, Brandenburg, 14774, Deutschland",bus_stop,highway,POINT (12.4118034 52.3985824)
137,Plaue Görneweg,bus_stop,"324026,66","5809429,5","['Bus stop Plaue Görneweg, Brandenburg, 14770']",haltestelle plaue görneweg,52.4067596,12.4129438,"Plaue Görneweg, Koenigsmarckstraße, Plaue, Brandenburg an der Havel, Brandenburg, 14774, Deutschland",bus_stop,highway,POINT (12.4129438 52.4067596)
138,Plaue Görneweg,bus_stop,"324002,94","5809368,5","['Bus stop Plaue Görneweg, Brandenburg, 14770']",haltestelle plaue görneweg,52.4067596,12.4129438,"Plaue Görneweg, Koenigsmarckstraße, Plaue, Brandenburg an der Havel, Brandenburg, 14774, Deutschland",bus_stop,highway,POINT (12.4129438 52.4067596)
139,Genthiner Straße,bus_stop,"324410,84","5809670,5","['Bus stop Genthiner Straße, Brandenburg, 14770']",haltestelle genthiner straße,52.4090469,12.4184594,"Genthiner Straße, Margaretenhof, Plaue, Brandenburg an der Havel, Brandenburg, 14774, Deutschland",bus_stop,highway,POINT (12.4184594 52.4090469)
140,Genthiner Straße,bus_stop,"324406,66","5809678,5","['Bus stop Genthiner Straße, Brandenburg, 14770']",haltestelle genthiner straße,52.4090469,12.4184594,"Genthiner Straße, Margaretenhof, Plaue, Brandenburg an der Havel, Brandenburg, 14774, Deutschland",bus_stop,highway,POINT (12.4184594 52.4090469)
141,Rundbau,bus_stop,"325430,38",5806072,"['Bus stop Rundbau, Brandenburg, 14770']",haltestelle rundbau,52.3770321,12.4354211,"Rundbau, Uferstraße, Kirchmöser Ost, Kirchmöser, Brandenburg an der Havel, Brandenburg, 14774, Deutschland",bus_stop,highway,POINT (12.4354211 52.3770321)
142,Rundbau,bus_stop,325438,"5806069,5","['Bus stop Rundbau, Brandenburg, 14770']",haltestelle rundbau,52.3770321,12.4354211,"Rundbau, Uferstraße, Kirchmöser Ost, Kirchmöser, Brandenburg an der Havel, Brandenburg, 14774, Deutschland",bus_stop,highway,POINT (12.4354211 52.3770321)
143,Südringstraße,bus_stop,"325588,5","5806488,5","['Bus stop Südringstraße, Brandenburg, 14770']",haltestelle südringstraße,52.3806460,12.4375816,"Südringstraße, Uferstraße, Kirchmöser Ost, Kirchmöser, Brandenburg an der Havel, Brandenburg, 14774, Deutschland",bus_stop,highway,POINT (12.4375816 52.380646)
144,Südringstraße,bus_stop,"325599,28",5806466,"['Bus stop Südringstraße, Brandenburg, 14770']",haltestelle südringstraße,52.3806460,12.4375816,"Südringstraße, Uferstraße, Kirchmöser Ost, Kirchmöser, Brandenburg an der Havel, Brandenburg, 14774, Deutschland",bus_stop,highway,POINT (12.4375816 52.380646)
145,Wusterwitzer Straße,bus_stop,"323818,47","5808187,5","['Bus stop Wusterwitzer Straße, Brandenburg, 14770']",haltestelle wusterwitzer straße,52.3955368,12.4105401,"Wusterwitzer Straße, Kirchmöser West, Kirchmöser, Brandenburg an der Havel, Brandenburg, 14774, Deutschland",bus_stop,highway,POINT (12.4105401 52.3955368)
146,Wusterwitzer Straße,bus_stop,"323735,5",5808045,"['Bus stop Wusterwitzer Straße, Brandenburg, 14770']",haltestelle wusterwitzer straße,52.3955368,12.4105401,"Wusterwitzer Straße, Kirchmöser West, Kirchmöser, Brandenburg an der Havel, Brandenburg, 14774, Deutschland",bus_stop,highway,POINT (12.4105401 52.3955368)
147,Altbensdorf,bus_stop,"319437,88","5811089,5","['Bus stop Altbensdorf, Brandenburg, 14770']",haltestelle altbensdorf,52.4201715,12.3446641,"Altbensdorf, Schulplatz, Altbensdorf, Bensdorf, Wusterwitz, Potsdam-Mittelmark, Brandenburg, 14789, Deutschland",bus_stop,highway,POINT (12.3446641 52.4201715)
148,Altbensdorf,bus_stop,"319298,88","5811123,5","['Bus stop Altbensdorf, Brandenburg, 14770']",haltestelle altbensdorf,52.4201715,12.3446641,"Altbensdorf, Schulplatz, Altbensdorf, Bensdorf, Wusterwitz, Potsdam-Mittelmark, Brandenburg, 14789, Deutschland",bus_stop,highway,POINT (12.3446641 52.4201715)
149,Herrenhölzer,bus_stop,"318702,28",5809102,"['Bus stop Herrenhölzer, Brandenburg, 14770']",haltestelle herrenhölzer,52.4020775,12.3349363,"Herrenhölzer, Bensdorf, Wusterwitz, Potsdam-Mittelmark, Brandenburg, 14789, Deutschland",bus_stop,highway,POINT (12.3349363 52.4020775)
150,Plaue Görneweg,bus_stop,"323991,6","5809460,5","['Bus stop Plaue Görneweg, Brandenburg, 14770']",haltestelle plaue görneweg,52.4067596,12.4129438,"Plaue Görneweg, Koenigsmarckstraße, Plaue, Brandenburg an der Havel, Brandenburg, 14774, Deutschland",bus_stop,highway,POINT (12.4129438 52.4067596)
151,Uferstraße / Weichenwerk,bus_stop,"324677,66","5807131,5","['Bus stop Uferstraße / Weichenwerk, Brandenburg, 14770']",haltestelle uferstraße / weichenwerk,52.3864406,12.4237086,"Uferstraße / Weichenwerk, Uferstraße, Kirchmöser Dorf, Kirchmöser, Brandenburg an der Havel, Brandenburg, 14774, Deutschland",bus_stop,highway,POINT (12.4237086 52.3864406)
152,Uferstraße / Weichenwerk,bus_stop,"324678,22",5807144,"['Bus stop Uferstraße / Weichenwerk, Brandenburg, 14770']",haltestelle uferstraße / weichenwerk,52.3864406,12.4237086,"Uferstraße / Weichenwerk, Uferstraße, Kirchmöser Dorf, Kirchmöser, Brandenburg an der Havel, Brandenburg, 14774, Deutschland",bus_stop,highway,POINT (12.4237086 52.3864406)
153,"Wusterwitz, Bahnhof",bus_stop,"321327,16",5807142,"['Bus stop Wusterwitz Bahnhof, Brandenburg, 14770']","haltestelle wusterwitz, bahnhof",,,,,,
154,Wendseeufer,bus_stop,"323972,97","5809046,5","['Bus stop Wendseeufer, Brandenburg, 14770']",haltestelle wendseeufer,52.4032999,12.4123569,"Wendseeufer, Koenigsmarckstraße, Plaue, Brandenburg an der Havel, Brandenburg, 14774, Deutschland",bus_stop,highway,POINT (12.4123569 52.4032999)
155,Plaue Görneweg,bus_stop,"324018,16",5809502,"['Bus stop Plaue Görneweg, Brandenburg, 14770']",haltestelle plaue görneweg,52.4067596,12.4129438,"Plaue Görneweg, Koenigsmarckstraße, Plaue, Brandenburg an der Havel, Brandenburg, 14774, Deutschland",bus_stop,highway,POINT (12.4129438 52.4067596)
156,"Woltersdorf, Abzweig",bus_stop,"321590,3",5809751,"['Bus stop Woltersdorf Abzweig, Brandenburg, 14770']","haltestelle woltersdorf, abzweig",,,,,,
157,Prützke,bus_stop,"338495,34","5802699,5","['Bus stop Prützke, Brandenburg, 14770']",haltestelle prützke,52.3508881,12.6287361,"Prützke, Grebser Straße, Prützke, Kloster Lehnin, Potsdam-Mittelmark, Brandenburg, 14797, Deutschland",bus_stop,highway,POINT (12.6287361 52.3508881)
158,Bahnitz,bus_stop,"323709,3",5819023,"['Bus stop Bahnitz, Brandenburg, 14770']",haltestelle bahnitz,52.4928150,12.4032180,"Bahnitz, Dorfstraße, Bahnitz, Milower Land, Havelland, Brandenburg, 14715, Deutschland",bus_stop,highway,POINT (12.403218 52.492815)
159,Willibald-Alexis-Straße,tram_stop,"332068,44",5811891,"['Tram stop Willibald-Alexis-Straße, Brandenburg, 14770']",haltestelle willibald-alexis-straße,52.4313957,12.5298115,"Willibald-Alexis-Straße, Rosa-Luxemburg-Allee, Hohenstücken, Brandenburg an der Havel, Brandenburg, 14772, Deutschland",tram_stop,railway,POINT (12.5298115 52.4313957)
160,Rosa-Luxemburg-Allee,tram_stop,"331654,3",5811925,"['Tram stop Rosa-Luxemburg-Allee, Brandenburg, 14770']",haltestelle rosa-luxemburg-allee,52.4315738,12.5237088,"Rosa-Luxemburg-Allee, Hohenstücken, Brandenburg an der Havel, Brandenburg, 14772, Deutschland",tram_stop,railway,POINT (12.5237088 52.4315738)
161,Hohenstücken Nord,tram_stop,"331305,97","5812564,5","['Tram stop Hohenstücken Nord, Brandenburg, 14770']",haltestelle hohenstücken nord,52.4372086,12.5182672,"Hohenstücken Nord, Betriebsweg, Hohenstücken, Brandenburg an der Havel, Brandenburg, 14772, Deutschland",tram_stop,railway,POINT (12.5182672 52.4372086)
162,Tschirchdamm,tram_stop,"331515,8",5812224,"['Tram stop Tschirchdamm, Brandenburg, 14770']",haltestelle tschirchdamm,52.4342152,12.5215229,"Tschirchdamm, Hohenstücken, Brandenburg an der Havel, Brandenburg, 14772, Deutschland",tram_stop,railway,POINT (12.5215229 52.4342152)
163,Hohenstücken Betriebshof,tram_stop,"332148,44",5811415,"['Tram stop Hohenstücken Betriebshof, Brandenburg, 14770']",haltestelle hohenstücken betriebshof,52.4271417,12.5312844,"Hohenstücken Betriebshof, Rathenower Landstraße, Hohenstücken, Brandenburg an der Havel, Brandenburg, 14772, Deutschland",tram_stop,railway,POINT (12.5312844 52.4271417)
164,Am Silokanal,tram_stop,"331818,9","5811064,5","['Tram stop Am Silokanal, Brandenburg, 14770']",haltestelle am silokanal,52.4238611,12.5265358,"Am Silokanal, Gördenallee, Görden, Brandenburg an der Havel, Brandenburg, 14772, Deutschland",tram_stop,railway,POINT (12.5265358 52.4238611)
165,Rotdornweg,tram_stop,"331497,44","5811150,5","['Tram stop Rotdornweg, Brandenburg, 14770']",haltestelle rotdornweg,52.4245322,12.5217848,"Rotdornweg, Gördenallee, Görden, Brandenburg an der Havel, Brandenburg, 14772, Deutschland",tram_stop,railway,POINT (12.5217848 52.4245322)
166,Geranienweg,tram_stop,"330609,66","5811382,5","['Tram stop Geranienweg, Brandenburg, 14770']",haltestelle geranienweg,52.4263765,12.5086333,"Geranienweg, Gördenallee, Görden, Brandenburg an der Havel, Brandenburg, 14772, Deutschland",tram_stop,railway,POINT (12.5086333 52.4263765)
167,Bahnhof Görden,tram_stop,"330223,9","5811485,5","['Tram stop Bahnhof Görden, Brandenburg, 14770']",haltestelle bahnhof görden,52.4271809,12.5029132,"Bahnhof Görden, Gördenallee, Kolonie Görden, Brandenburg an der Havel, Brandenburg, 14772, Deutschland",tram_stop,railway,POINT (12.5029132 52.4271809)
168,Gördenallee,tram_stop,"330959,12",5811290,"['Tram stop Gördenallee, Brandenburg, 14770']",haltestelle gördenallee,52.4256528,12.5138147,"Gördenallee, Görden, Brandenburg an der Havel, Brandenburg, 14772, Deutschland",tram_stop,railway,POINT (12.5138147 52.4256528)
169,Waldcafé Görden,tram_stop,"329834,34","5811573,5","['Tram stop Waldcafé Görden, Brandenburg, 14770']",haltestelle waldcafé görden,52.4278538,12.4971445,"Waldcafé Görden, Quenzweg, Kolonie Görden, Brandenburg an der Havel, Brandenburg, 14772, Deutschland",tram_stop,railway,POINT (12.4971445 52.4278538)
170,Asklepios Klinik,tram_stop,"328693,53",5811554,"['Tram stop Asklepios Klinik, Brandenburg, 14770']",haltestelle asklepios klinik,52.4273201,12.4803928,"Asklepios Klinik, Anton-Saefkow-Allee, Heidekrug, Brandenburg an der Havel, Brandenburg, 14772, Deutschland",tram_stop,railway,POINT (12.4803928 52.4273201)
171,Anton-Saefkow-Allee,tram_stop,"327813,25",5811143,"['Tram stop Anton-Saefkow-Allee, Brandenburg, 14770']",haltestelle anton-saefkow-allee,52.4233512,12.4676707,"Anton-Saefkow-Allee, Heidekrug, Brandenburg an der Havel, Brandenburg, 14772, Deutschland",tram_stop,railway,POINT (12.4676707 52.4233512)
172,Am Stadion/Industriemuseum,tram_stop,"330180,53",5810104,"['Tram stop Am Stadion/Industriemuseum, Brandenburg, 14770']",haltestelle am stadion/industriemuseum,52.4147815,12.5029704,"Am Stadion/Industriemuseum, Magdeburger Landstraße, Quenzsiedlung, Brandenburg an der Havel, Brandenburg, 14770, Deutschland",tram_stop,railway,POINT (12.5029704 52.4147815)
173,Dreifertstraße,tram_stop,"331536,88","5809885,5","['Tram stop Dreifertstraße, Brandenburg, 14770']",haltestelle dreifertstraße,52.4132188,12.5230108,"Dreifertstraße, Magdeburger Landstraße, Walzwerksiedlung, Brandenburg an der Havel, Brandenburg, 14770, Deutschland",tram_stop,railway,POINT (12.5230108 52.4132188)
174,Frankenstraße,tram_stop,"330717,03",5809998,"['Tram stop Frankenstraße, Brandenburg, 14770']",haltestelle frankenstraße,52.4139719,12.5112208,"Frankenstraße, Magdeburger Landstraße, Walzwerksiedlung, Brandenburg an der Havel, Brandenburg, 14770, Deutschland",tram_stop,railway,POINT (12.5112208 52.4139719)
175,Hessenweg,tram_stop,"330458,97",5810049,"['Tram stop Hessenweg, Brandenburg, 14770']",haltestelle hessenweg,52.4143802,12.5071034,"Hessenweg, Magdeburger Landstraße, Walzwerksiedlung, Brandenburg an der Havel, Brandenburg, 14770, Deutschland",tram_stop,railway,POINT (12.5071034 52.4143802)
176,Quenzbrücke,tram_stop,"329919,28",5810120,"['Tram stop Quenzbrücke, Brandenburg, 14770']",haltestelle quenzbrücke,52.4148667,12.4991064,"Quenzbrücke, Magdeburger Landstraße, Quenzsiedlung, Brandenburg an der Havel, Brandenburg, 14770, Deutschland",tram_stop,railway,POINT (12.4991064 52.4148667)
177,Südtor,tram_stop,"331070,4",5809944,"['Tram stop Südtor, Brandenburg, 14770']",haltestelle südtor,52.4135994,12.5161296,"Südtor, Magdeburger Landstraße, Walzwerksiedlung, Brandenburg an der Havel, Brandenburg, 14770, Deutschland",tram_stop,railway,POINT (12.5161296 52.4135994)
178,August-Bebel-Straße,tram_stop,"332201,2",5810890,"['Tram stop August-Bebel-Straße, Brandenburg, 14770']",haltestelle august-bebel-straße,52.4221198,12.5325241,"August-Bebel-Straße, Nord, Brandenburg an der Havel, Brandenburg, 14770, Deutschland",tram_stop,railway,POINT (12.5325241 52.4221198)
179,Fontanestraße,tram_stop,"332435,56",5810407,"['Tram stop Fontanestraße, Brandenburg, 14770']",haltestelle fontanestraße,52.4181898,12.5359840,"Fontanestraße, August-Bebel-Straße, Neuendorfer Vorstadt, Brandenburg an der Havel, Brandenburg, 14770, Deutschland",tram_stop,railway,POINT (12.535984 52.4181898)
180,Karl-Marx-Straße,tram_stop,"332547,34","5810010,5","['Tram stop Karl-Marx-Straße, Brandenburg, 14770']",haltestelle karl-marx-straße,52.4146725,12.5378127,"Karl-Marx-Straße, Neuendorfer Vorstadt, Brandenburg an der Havel, Brandenburg, 14770, Deutschland",tram_stop,railway,POINT (12.5378127 52.4146725)
181,Blumenstraße,tram_stop,"334114,2","5808651,5","['Tram stop Blumenstraße, Brandenburg, 14770']",haltestelle blumenstraße,52.4029221,12.5614802,"Blumenstraße, Große Gartenstraße, Bahnhofsvorstadt, Brandenburg an der Havel, Brandenburg, 14776, Deutschland",tram_stop,railway,POINT (12.5614802 52.4029221)
182,Große Gartenstraße,tram_stop,"333898,53",5808831,"['Tram stop Große Gartenstraße, Brandenburg, 14770']",haltestelle große gartenstraße,52.4045742,12.5580408,"Große Gartenstraße, Bahnhofsvorstadt, Brandenburg an der Havel, Brandenburg, 14776, Deutschland",tram_stop,railway,POINT (12.5580408 52.4045742)
183,Hauptbahnhof,tram_stop,"334366,6","5808474,5","['Tram stop Hauptbahnhof, Brandenburg, 14770']",haltestelle hauptbahnhof,52.4014385,12.5652094,"Hauptbahnhof, Am Hauptbahnhof, Bahnhofsvorstadt, Brandenburg an der Havel, Brandenburg, 14776, Deutschland",tram_stop,railway,POINT (12.5652094 52.4014385)
184,Geschwister-Scholl-Straße,tram_stop,"334565,1",5808719,"['Tram stop Geschwister-Scholl-Straße, Brandenburg, 14770']",haltestelle geschwister-scholl-straße,52.4036570,12.5680283,"Geschwister-Scholl-Straße, Neustadt, Brandenburg an der Havel, Brandenburg, 14776, Deutschland",tram_stop,railway,POINT (12.5680283 52.403657)
185,Kietzstraße,bus_stop,"324676,44",5809920,"['Bus stop Kietzstraße, Brandenburg, 14770']",haltestelle kietzstraße,52.4113748,12.4223152,"Kietzstraße, Margaretenhof, Plaue, Brandenburg an der Havel, Brandenburg, 14774, Deutschland",bus_stop,highway,POINT (12.4223152 52.4113748)
186,Kietzstraße,bus_stop,"324682,3",5809920,"['Bus stop Kietzstraße, Brandenburg, 14770']",haltestelle kietzstraße,52.4113748,12.4223152,"Kietzstraße, Margaretenhof, Plaue, Brandenburg an der Havel, Brandenburg, 14774, Deutschland",bus_stop,highway,POINT (12.4223152 52.4113748)
187,Margaretenhof,bus_stop,"325111,22","5809915,5","['Bus stop Margaretenhof, Brandenburg, 14770']",haltestelle margaretenhof,52.4114512,12.4286003,"Margaretenhof, B 1, Margaretenhof, Plaue, Brandenburg an der Havel, Brandenburg, 14774, Deutschland",bus_stop,highway,POINT (12.4286003 52.4114512)
188,"Gohlitz, Kirche",bus_stop,"348388,1",5823781,"['Bus stop Gohlitz Kirche, Brandenburg, 14770']","haltestelle gohlitz, kirche",52.5429751,12.7642448,"Gohlitz, Kirche, Nauener Straße, Gohlitz, Wachow, Nauen, Havelland, Brandenburg, 14641, Deutschland",bus_stop,highway,POINT (12.7642448 52.5429751)
189,"Gohlitz, Kirche",bus_stop,"348396,44","5823793,5","['Bus stop Gohlitz Kirche, Brandenburg, 14770']","haltestelle gohlitz, kirche",52.5429751,12.7642448,"Gohlitz, Kirche, Nauener Straße, Gohlitz, Wachow, Nauen, Havelland, Brandenburg, 14641, Deutschland",bus_stop,highway,POINT (12.7642448 52.5429751)
190,Gutenpaaren,bus_stop,"348272,38","5816586,5","['Bus stop Gutenpaaren, Brandenburg, 14770']",haltestelle gutenpaaren,52.4783154,12.7658214,"Gutenpaaren, Gutenpaarener Dorfstraße, Gutenpaaren, Zachow, Ketzin/Havel, Havelland, Brandenburg, 14669, Deutschland",bus_stop,highway,POINT (12.7658214 52.4783154)
191,Gutenpaaren,bus_stop,"348319,72","5816591,5","['Bus stop Gutenpaaren, Brandenburg, 14770']",haltestelle gutenpaaren,52.4783154,12.7658214,"Gutenpaaren, Gutenpaarener Dorfstraße, Gutenpaaren, Zachow, Ketzin/Havel, Havelland, Brandenburg, 14669, Deutschland",bus_stop,highway,POINT (12.7658214 52.4783154)
192,Ortsmitte,bus_stop,"343529,66",5797545,"['Bus stop Ortsmitte, Brandenburg, 14770']",haltestelle ortsmitte,52.2829280,12.4681877,"Ortsmitte, Poststraße, Wollin, Ziesar, Potsdam-Mittelmark, Brandenburg, 14778, Deutschland",bus_stop,highway,POINT (12.4681877 52.282928)
193,"Premnitz, Ernst-Thälmann-Straße",bus_stop,"319393,34","5823499,5","['Bus stop Premnitz Ernst-Thälmann-Straße, Brandenburg, 14770']","haltestelle premnitz, ernst-thälmann-straße",52.5316061,12.3372864,"Premnitz, Ernst-Thälmann-Straße, Ernst-Thälmann-Straße, Neues Zentrum, Premnitz, Havelland, Brandenburg, 14727, Deutschland",bus_stop,highway,POINT (12.3372864 52.5316061)
194,"Premnitz, Ernst-Thälmann-Straße",bus_stop,"319377,16","5823532,5","['Bus stop Premnitz Ernst-Thälmann-Straße, Brandenburg, 14770']","haltestelle premnitz, ernst-thälmann-straße",52.5316061,12.3372864,"Premnitz, Ernst-Thälmann-Straße, Ernst-Thälmann-Straße, Neues Zentrum, Premnitz, Havelland, Brandenburg, 14727, Deutschland",bus_stop,highway,POINT (12.3372864 52.5316061)
195,"Premnitz, Bergstraße/Gartenstraße",bus_stop,"318942,47","5823757,5","['Bus stop Premnitz Bergstraße/Gartenstraße, Brandenburg, 14770']","haltestelle premnitz, bergstraße/gartenstraße",52.5337725,12.3305064,"Premnitz, Bergstraße/Gartenstraße, Bergstraße, Altes Stadtzentrum, Premnitz, Havelland, Brandenburg, 14727, Deutschland",bus_stop,highway,POINT (12.3305064 52.5337725)
196,"Premnitz, Bergstraße/Gartenstraße",bus_stop,"318937,88","5823767,5","['Bus stop Premnitz Bergstraße/Gartenstraße, Brandenburg, 14770']","haltestelle premnitz, bergstraße/gartenstraße",52.5337725,12.3305064,"Premnitz, Bergstraße/Gartenstraße, Bergstraße, Altes Stadtzentrum, Premnitz, Havelland, Brandenburg, 14727, Deutschland",bus_stop,highway,POINT (12.3305064 52.5337725)
197,"Döberitz, Ausbau",bus_stop,"322708,1",5822143,"['Bus stop Döberitz Ausbau, Brandenburg, 14770']","haltestelle döberitz, ausbau",52.5205133,12.3868240,"Döberitz, Ausbau, B 102, Siedlung Döberitz, Ausbau Döberitz, Döberitz, Premnitz, Havelland, Brandenburg, 14727, Deutschland",bus_stop,highway,POINT (12.386824 52.5205133)
198,"Döberitz, Ausbau",bus_stop,"322696,7",5822154,"['Bus stop Döberitz Ausbau, Brandenburg, 14770']","haltestelle döberitz, ausbau",52.5205133,12.3868240,"Döberitz, Ausbau, B 102, Siedlung Döberitz, Ausbau Döberitz, Döberitz, Premnitz, Havelland, Brandenburg, 14727, Deutschland",bus_stop,highway,POINT (12.386824 52.5205133)
199,"Döberitz (bei Premnitz), Dorf",bus_stop,"321464,8","5822201,5","['Bus stop Döberitz (bei Premnitz) Dorf, Brandenburg, 14770']","haltestelle döberitz (bei premnitz), dorf",52.5206323,12.3684884,"Döberitz (bei Premnitz), Dorf, Brandenburger Straße, Siedlung Döberitz, Ausbau Döberitz, Döberitz, Premnitz, Havelland, Brandenburg, 14727, Deutschland",bus_stop,highway,POINT (12.3684884 52.5206323)
200,Kieck,bus_stop,"335627,72","5823314,5","['Bus stop Kieck, Brandenburg, 14770']",haltestelle kieck,52.5350853,12.5764800,"Kieck, L 99, Kieck, Garlitz, Märkisch Luch, Nennhausen, Havelland, Brandenburg, 14715, Deutschland",bus_stop,highway,POINT (12.57648 52.5350853)
201,Jerchel,bus_stop,"319708,28","5818651,5","['Bus stop Jerchel, Brandenburg, 14770']",haltestelle jerchel,52.4881721,12.3445516,"Jerchel, Märkische Straße, Jerchel, Milower Land, Havelland, Brandenburg, 14715, Deutschland",bus_stop,highway,POINT (12.3445516 52.4881721)
202,Jerchel,bus_stop,"319703,84","5818661,5","['Bus stop Jerchel, Brandenburg, 14770']",haltestelle jerchel,52.4881721,12.3445516,"Jerchel, Märkische Straße, Jerchel, Milower Land, Havelland, Brandenburg, 14715, Deutschland",bus_stop,highway,POINT (12.3445516 52.4881721)
203,Brücke,bus_stop,"317573,84","5822872,5","['Bus stop Brücke, Brandenburg, 14770']",haltestelle brücke,52.5253014,12.3108437,"Brücke, Stremmestraße, Milow, Milower Land, Havelland, Brandenburg, 14715, Deutschland",bus_stop,highway,POINT (12.3108437 52.5253014)
204,"Milow (HVL), Dorfplatz",bus_stop,317633,5822725,"['Bus stop Milow (HVL) Dorfplatz, Brandenburg, 14770']","haltestelle milow (hvl), dorfplatz",52.5242611,12.3120010,"Milow (HVL), Dorfplatz, Friedensstraße, Milow, Milower Land, Havelland, Brandenburg, 14715, Deutschland",bus_stop,highway,POINT (12.312001 52.5242611)
205,"Milow (HVL), Friedensstraße",bus_stop,"317448,38","5821793,5","['Bus stop Milow (HVL) Friedensstraße, Brandenburg, 14770']","haltestelle milow (hvl), friedensstraße",52.5153202,12.3096213,"Milow (HVL), Friedensstraße, Friedensstraße, Milow, Milower Land, Havelland, Brandenburg, 14715, Deutschland",bus_stop,highway,POINT (12.3096213 52.5153202)
206,Vieritz,bus_stop,"313829,22","5823023,5","['Bus stop Vieritz, Brandenburg, 14770']",haltestelle vieritz,52.5254603,12.2556211,"Vieritz, Genthiner Straße, Vieritz, Milower Land, Havelland, Brandenburg, 14715, Deutschland",bus_stop,highway,POINT (12.2556211 52.5254603)
207,Möthlitz,bus_stop,"322673,94",5817078,"['Bus stop Möthlitz, Brandenburg, 14770']",haltestelle möthlitz,52.4750831,12.3890698,"Möthlitz, Möthlitzer Hauptstraße, Möthlitz, Milower Land, Havelland, Brandenburg, 14715, Deutschland",bus_stop,highway,POINT (12.3890698 52.4750831)
208,Möthlitz,bus_stop,"322677,66","5817085,5","['Bus stop Möthlitz, Brandenburg, 14770']",haltestelle möthlitz,52.4750831,12.3890698,"Möthlitz, Möthlitzer Hauptstraße, Möthlitz, Milower Land, Havelland, Brandenburg, 14715, Deutschland",bus_stop,highway,POINT (12.3890698 52.4750831)
209,"Wust, Festplatz",bus_stop,"336903,88","5809260,5","['Bus stop Wust Festplatz, Brandenburg, 14770']","haltestelle wust, festplatz",52.4091051,12.6021444,"Wust, Festplatz, Wuster Straße, Wust, Brandenburg an der Havel, Brandenburg, 14776, Deutschland",bus_stop,highway,POINT (12.6021444 52.4091051)
210,Einkaufszentrum,bus_stop,"337526,3","5809318,5","['Bus stop Einkaufszentrum, Brandenburg, 14770']",haltestelle einkaufszentrum,52.4267291,12.5031776,"Görden Bahnhof, Einkaufszentrum, Veilchenweg, Kolonie Görden, Brandenburg an der Havel, Brandenburg, 14772, Deutschland",bus_stop,highway,POINT (12.5031776 52.4267291)
211,"Wust, Freizeitzentrum",bus_stop,"337702,9",5809315,"['Bus stop Wust Freizeitzentrum, Brandenburg, 14770']","haltestelle wust, freizeitzentrum",52.4099588,12.6138622,"Wust, Freizeitzentrum, An der Bundesstraße 1, Wust, Brandenburg an der Havel, Brandenburg, 14776, Deutschland",bus_stop,highway,POINT (12.6138622 52.4099588)
212,Parduin,bus_stop,"333722,8",5810005,"['Bus stop Parduin, Brandenburg, 14770']",haltestelle parduin,52.4145595,12.5544162,"Parduin, Altstadt, Brandenburg an der Havel, Brandenburg, 14770, Deutschland",bus_stop,highway,POINT (12.5544162 52.4145595)
213,Plauer Straße,bus_stop,"333588,22","5809793,5","['Bus stop Plauer Straße, Brandenburg, 14770']",haltestelle plauer straße,52.4130205,12.5531881,"Plauer Straße, Altstadt, Brandenburg an der Havel, Brandenburg, 14770, Deutschland",bus_stop,highway,POINT (12.5531881 52.4130205)
214,Schienenweg,bus_stop,"334084,2","5811412,5","['Bus stop Schienenweg, Brandenburg, 14770']",haltestelle schienenweg,52.4277125,12.5596701,"Schienenweg, Massowburg, Brandenburg an der Havel, Brandenburg, 14772, Deutschland",bus_stop,highway,POINT (12.5596701 52.4277125)
215,Ferdinand-Lassalle-Straße,bus_stop,"332527,1",5809109,"['Bus stop Ferdinand-Lassalle-Straße, Brandenburg, 14770']",haltestelle ferdinand-lassalle-straße,52.4066601,12.5378503,"Ferdinand-Lassalle-Straße, Neuendorfer Straße, Neuendorfer Vorstadt, Brandenburg an der Havel, Brandenburg, 14770, Deutschland",bus_stop,highway,POINT (12.5378503 52.4066601)
216,Ferdinand-Lassalle-Straße,bus_stop,"332521,12",5809122,"['Bus stop Ferdinand-Lassalle-Straße, Brandenburg, 14770']",haltestelle ferdinand-lassalle-straße,52.4066601,12.5378503,"Ferdinand-Lassalle-Straße, Neuendorfer Straße, Neuendorfer Vorstadt, Brandenburg an der Havel, Brandenburg, 14770, Deutschland",bus_stop,highway,POINT (12.5378503 52.4066601)
217,,bus_stop,"328443,66",5811015,['Brandenburg an der Havel'],haltestelle nan,52.4108261,12.5497933,"Brandenburg an der Havel, Brandenburg, Deutschland",administrative,boundary,POINT (12.5497933 52.4108261)
218,Hohenstücken Nord,bus_stop,"331378,6","5812554,5","['Bus stop Hohenstücken Nord, Brandenburg, 14770']",haltestelle hohenstücken nord,52.4371398,12.5193399,"Hohenstücken Nord, Henriettenstraße, Hohenstücken, Brandenburg an der Havel, Brandenburg, 14772, Deutschland",bus_stop,highway,POINT (12.5193399 52.4371398)
219,Tschirchdamm,bus_stop,"331524,56",5812159,"['Bus stop Tschirchdamm, Brandenburg, 14770']",haltestelle tschirchdamm,52.4336694,12.5218625,"Tschirchdamm, Hohenstücken, Brandenburg an der Havel, Brandenburg, 14772, Deutschland",bus_stop,highway,POINT (12.5218625 52.4336694)
220,Emstal,bus_stop,"348314,66","5796888,5","['Bus stop Emstal, Brandenburg, 14770']",haltestelle emstal,52.3014468,12.7749642,"Emstal, Emstaler Hauptstraße, Emstal, Kloster Lehnin, Potsdam-Mittelmark, Brandenburg, 14797, Deutschland",bus_stop,highway,POINT (12.7749642 52.3014468)
221,Bochow-Bruch,bus_stop,"350557,53","5807810,5","['Bus stop Bochow-Bruch, Brandenburg, 14770']",haltestelle bochow-bruch,52.4001331,12.8033550,"Bochow-Bruch, An der B1, Bochow, Groß Kreutz (Havel), Potsdam-Mittelmark, Brandenburg, 14550, Deutschland",bus_stop,highway,POINT (12.803355 52.4001331)
222,Mühlenstraße,bus_stop,"349619,7","5808022,5","['Bus stop Mühlenstraße, Brandenburg, 14770']",haltestelle mühlenstraße,52.4019336,12.7889370,"Mühlenstraße, Potsdamer Straße, Groß Kreutz, Groß Kreutz (Havel), Potsdam-Mittelmark, Brandenburg, 14550, Deutschland",bus_stop,highway,POINT (12.788937 52.4019336)
223,Post,bus_stop,"348745,56","5808338,5","['Bus stop Post, Brandenburg, 14770']",haltestelle post,52.4042809,12.7764337,"Post, Bahnhofstraße, Groß Kreutz, Groß Kreutz (Havel), Potsdam-Mittelmark, Brandenburg, 14550, Deutschland",bus_stop,highway,POINT (12.7764337 52.4042809)
224,Bochow-Bruch,bus_stop,"350600,22","5807807,5","['Bus stop Bochow-Bruch, Brandenburg, 14770']",haltestelle bochow-bruch,52.4001331,12.8033550,"Bochow-Bruch, An der B1, Bochow, Groß Kreutz (Havel), Potsdam-Mittelmark, Brandenburg, 14550, Deutschland",bus_stop,highway,POINT (12.803355 52.4001331)
225,Post,bus_stop,"348739,56",5808331,"['Bus stop Post, Brandenburg, 14770']",haltestelle post,52.4042809,12.7764337,"Post, Bahnhofstraße, Groß Kreutz, Groß Kreutz (Havel), Potsdam-Mittelmark, Brandenburg, 14550, Deutschland",bus_stop,highway,POINT (12.7764337 52.4042809)
226,Mühlenstraße,bus_stop,"349582,03",5808044,"['Bus stop Mühlenstraße, Brandenburg, 14770']",haltestelle mühlenstraße,52.4019336,12.7889370,"Mühlenstraße, Potsdamer Straße, Groß Kreutz, Groß Kreutz (Havel), Potsdam-Mittelmark, Brandenburg, 14550, Deutschland",bus_stop,highway,POINT (12.788937 52.4019336)
227,Schule,bus_stop,"349454,03","5807804,5","['Bus stop Schule, Brandenburg, 14770']",haltestelle schule,52.4829607,12.5861166,"Schule, 11, Am Hasselberg, Radewege, Beetzsee, Amt Beetzsee, Potsdam-Mittelmark, Brandenburg, 14778, Deutschland",bus_stop,highway,POINT (12.5861166 52.4829607)
228,Bahnhof,bus_stop,"348746,3",5809042,"['Bus stop Bahnhof, Brandenburg, 14770']",haltestelle bahnhof,52.4989389,12.4597367,"Bahnhof, An der Marzahner Chaussee, Pritzerbe, Havelsee, Amt Beetzsee, Potsdam-Mittelmark, Brandenburg, 14798, Deutschland",bus_stop,highway,POINT (12.4597367 52.4989389)
229,Bahnhof/Nord,bus_stop,"348731,72",5809095,"['Bus stop Bahnhof/Nord, Brandenburg, 14770']",haltestelle bahnhof/nord,52.5358039,12.3333845,"Premnitz, Nord Bahnhof, Bahnhofstraße, Altes Stadtzentrum, Premnitz, Havelland, Brandenburg, 14727, Deutschland",bus_stop,highway,POINT (12.3333845 52.5358039)
230,Siedlerweg,bus_stop,"349899,28","5809715,5","['Bus stop Siedlerweg, Brandenburg, 14770']",haltestelle siedlerweg,52.4170377,12.7928469,"Siedlerweg, Lilienthalstraße, Krielow, Groß Kreutz (Havel), Potsdam-Mittelmark, Brandenburg, 14550, Deutschland",bus_stop,highway,POINT (12.7928469 52.4170377)
231,Chausseestraße,bus_stop,"349719,1","5809662,5","['Bus stop Chausseestraße, Brandenburg, 14770']",haltestelle chausseestraße,52.2824593,12.3272675,"Chausseestraße, Bücknitz, Ziesar, Potsdam-Mittelmark, Brandenburg, 14793, Deutschland",bus_stop,highway,POINT (12.3272675 52.2824593)
232,Chausseestraße,bus_stop,"349740,72","5809672,5","['Bus stop Chausseestraße, Brandenburg, 14770']",haltestelle chausseestraße,52.2824593,12.3272675,"Chausseestraße, Bücknitz, Ziesar, Potsdam-Mittelmark, Brandenburg, 14793, Deutschland",bus_stop,highway,POINT (12.3272675 52.2824593)
233,Kirche,bus_stop,"350615,34",5809598,"['Bus stop Kirche, Brandenburg, 14770']",haltestelle kirche,52.5143644,12.6422269,"Kirche, Gortzer Dorfstraße, Gortz, Beetzseeheide, Amt Beetzsee, Potsdam-Mittelmark, Brandenburg, 14778, Deutschland",bus_stop,highway,POINT (12.6422269 52.5143644)
234,Kirche,bus_stop,"350643,9",5809580,"['Bus stop Kirche, Brandenburg, 14770']",haltestelle kirche,52.5143644,12.6422269,"Kirche, Gortzer Dorfstraße, Gortz, Beetzseeheide, Amt Beetzsee, Potsdam-Mittelmark, Brandenburg, 14778, Deutschland",bus_stop,highway,POINT (12.6422269 52.5143644)
235,"Michelsdorf, Tornower Straße",bus_stop,"343075,66","5797786,5","['Bus stop Michelsdorf Tornower Straße, Brandenburg, 14770']","haltestelle michelsdorf, tornower straße",,,,,,
236,Ortsmitte,bus_stop,"343543,12","5797558,5","['Bus stop Ortsmitte, Brandenburg, 14770']",haltestelle ortsmitte,52.2829280,12.4681877,"Ortsmitte, Poststraße, Wollin, Ziesar, Potsdam-Mittelmark, Brandenburg, 14778, Deutschland",bus_stop,highway,POINT (12.4681877 52.282928)
237,Busbahnhof,bus_stop,"346291,72",5798766,"['Bus stop Busbahnhof, Brandenburg, 14770']",haltestelle busbahnhof,52.3178522,12.7449407,"Busbahnhof, Goethestraße, Lehnin, Kloster Lehnin, Potsdam-Mittelmark, Brandenburg, 14797, Deutschland",bus_stop,highway,POINT (12.7449407 52.3178522)
238,Hauptstraße,bus_stop,"334297,03","5799775,5","['Bus stop Hauptstraße, Brandenburg, 14770']",haltestelle hauptstraße,52.3232654,12.5685209,"Hauptstraße, Krahner Hauptstraße, Krahne, Kloster Lehnin, Potsdam-Mittelmark, Brandenburg, 14797, Deutschland",bus_stop,highway,POINT (12.5685209 52.3232654)
239,Hauptstraße,bus_stop,"334283,88","5799770,5","['Bus stop Hauptstraße, Brandenburg, 14770']",haltestelle hauptstraße,52.3232654,12.5685209,"Hauptstraße, Krahner Hauptstraße, Krahne, Kloster Lehnin, Potsdam-Mittelmark, Brandenburg, 14797, Deutschland",bus_stop,highway,POINT (12.5685209 52.3232654)
240,Reckahner Straße,bus_stop,"333817,88","5799582,5","['Bus stop Reckahner Straße, Brandenburg, 14770']",haltestelle reckahner straße,52.3215801,12.5615522,"Reckahner Straße, Krahne, Kloster Lehnin, Potsdam-Mittelmark, Brandenburg, 14797, Deutschland",bus_stop,highway,POINT (12.5615522 52.3215801)
241,Reckahner Straße,bus_stop,"333814,06",5799606,"['Bus stop Reckahner Straße, Brandenburg, 14770']",haltestelle reckahner straße,52.3215801,12.5615522,"Reckahner Straße, Krahne, Kloster Lehnin, Potsdam-Mittelmark, Brandenburg, 14797, Deutschland",bus_stop,highway,POINT (12.5615522 52.3215801)
242,Rotscherlinde,bus_stop,"336602,6","5800729,5","['Bus stop Rotscherlinde, Brandenburg, 14770']",haltestelle rotscherlinde,52.3331446,12.6033603,"Rotscherlinde, B 102, Rotscherlinde, Krahne, Kloster Lehnin, Potsdam-Mittelmark, Brandenburg, 14797, Deutschland",bus_stop,highway,POINT (12.6033603 52.3331446)
243,Rotscherlinde,bus_stop,"336645,6",5800737,"['Bus stop Rotscherlinde, Brandenburg, 14770']",haltestelle rotscherlinde,52.3331446,12.6033603,"Rotscherlinde, B 102, Rotscherlinde, Krahne, Kloster Lehnin, Potsdam-Mittelmark, Brandenburg, 14797, Deutschland",bus_stop,highway,POINT (12.6033603 52.3331446)
244,Bahnhof,bus_stop,"345444,03","5809154,5","['Bus stop Bahnhof, Brandenburg, 14770']",haltestelle bahnhof,52.4989389,12.4597367,"Bahnhof, An der Marzahner Chaussee, Pritzerbe, Havelsee, Amt Beetzsee, Potsdam-Mittelmark, Brandenburg, 14798, Deutschland",bus_stop,highway,POINT (12.4597367 52.4989389)
245,Dorf,bus_stop,"343347,2","5809243,5","['Bus stop Dorf, Brandenburg, 14770']",haltestelle dorf,52.4414372,12.4264739,"Dorf, Dorfstraße, Briest, Havelsee, Amt Beetzsee, Potsdam-Mittelmark, Brandenburg, 14798, Deutschland",bus_stop,highway,POINT (12.4264739 52.4414372)
246,Schule,bus_stop,"343239,2",5809470,"['Bus stop Schule, Brandenburg, 14770']",haltestelle schule,52.4829607,12.5861166,"Schule, 11, Am Hasselberg, Radewege, Beetzsee, Amt Beetzsee, Potsdam-Mittelmark, Brandenburg, 14778, Deutschland",bus_stop,highway,POINT (12.5861166 52.4829607)
247,Dorf,bus_stop,"343393,7","5809235,5","['Bus stop Dorf, Brandenburg, 14770']",haltestelle dorf,52.4414372,12.4264739,"Dorf, Dorfstraße, Briest, Havelsee, Amt Beetzsee, Potsdam-Mittelmark, Brandenburg, 14798, Deutschland",bus_stop,highway,POINT (12.4264739 52.4414372)
248,Siedlung,bus_stop,"344581,97",5808398,"['Bus stop Siedlung, Brandenburg, 14770']",haltestelle siedlung,52.4030134,12.7149264,"Siedlung, Schenkenberger Straße, Jeserig, Groß Kreutz (Havel), Potsdam-Mittelmark, Brandenburg, 14550, Deutschland",bus_stop,highway,POINT (12.7149264 52.4030134)
249,Siedlung,bus_stop,"344551,6","5808320,5","['Bus stop Siedlung, Brandenburg, 14770']",haltestelle siedlung,52.4030134,12.7149264,"Siedlung, Schenkenberger Straße, Jeserig, Groß Kreutz (Havel), Potsdam-Mittelmark, Brandenburg, 14550, Deutschland",bus_stop,highway,POINT (12.7149264 52.4030134)
250,"Wust, Festplatz",bus_stop,"336902,88","5809246,5","['Bus stop Wust Festplatz, Brandenburg, 14770']","haltestelle wust, festplatz",52.4091051,12.6021444,"Wust, Festplatz, Wuster Straße, Wust, Brandenburg an der Havel, Brandenburg, 14776, Deutschland",bus_stop,highway,POINT (12.6021444 52.4091051)
251,"Wust, An der B1",bus_stop,"337813,12",5809438,"['Bus stop Wust An der B1, Brandenburg, 14770']","haltestelle wust, an der b1",52.4110667,12.6153234,"Wust, An der B1, Wuster Straße, Wust, Brandenburg an der Havel, Brandenburg, 14776, Deutschland",bus_stop,highway,POINT (12.6153234 52.4110667)
252,Potsdamer Landstraße,bus_stop,"335679,84","5808860,5","['Bus stop Potsdamer Landstraße, Brandenburg, 14770']",haltestelle potsdamer landstraße,52.4052224,12.5843114,"Potsdamer Landstraße, Potsdamer Straße, Neuschmerzke, Brandenburg an der Havel, Brandenburg, 14776, Deutschland",bus_stop,highway,POINT (12.5843114 52.4052224)
253,Potsdamer Landstraße,bus_stop,"335714,84","5808800,5","['Bus stop Potsdamer Landstraße, Brandenburg, 14770']",haltestelle potsdamer landstraße,52.4052224,12.5843114,"Potsdamer Landstraße, Potsdamer Straße, Neuschmerzke, Brandenburg an der Havel, Brandenburg, 14776, Deutschland",bus_stop,highway,POINT (12.5843114 52.4052224)
254,Belziger Chaussee,bus_stop,"336146,47","5808374,5","['Bus stop Belziger Chaussee, Brandenburg, 14770']",haltestelle belziger chaussee,52.4010295,12.5911959,"Belziger Chaussee, Neuschmerzke, Brandenburg an der Havel, Brandenburg, 14776, Deutschland",bus_stop,highway,POINT (12.5911959 52.4010295)
255,Belziger Chaussee,bus_stop,"336129,5","5808358,5","['Bus stop Belziger Chaussee, Brandenburg, 14770']",haltestelle belziger chaussee,52.4010295,12.5911959,"Belziger Chaussee, Neuschmerzke, Brandenburg an der Havel, Brandenburg, 14776, Deutschland",bus_stop,highway,POINT (12.5911959 52.4010295)
256,Abzweig Briest,bus_stop,"328118,88","5817296,5","['Bus stop Abzweig Briest, Brandenburg, 14770']",haltestelle abzweig briest,52.4789283,12.4696619,"Abzweig Briest, B 102, Fohrde, Havelsee, Amt Beetzsee, Potsdam-Mittelmark, Brandenburg, 14798, Deutschland",bus_stop,highway,POINT (12.4696619 52.4789283)
257,Abzweig Briest,bus_stop,"328165,16","5817318,5","['Bus stop Abzweig Briest, Brandenburg, 14770']",haltestelle abzweig briest,52.4789283,12.4696619,"Abzweig Briest, B 102, Fohrde, Havelsee, Amt Beetzsee, Potsdam-Mittelmark, Brandenburg, 14798, Deutschland",bus_stop,highway,POINT (12.4696619 52.4789283)
258,Abzweig Briest,bus_stop,"328104,53","5817355,5","['Bus stop Abzweig Briest, Brandenburg, 14770']",haltestelle abzweig briest,52.4789283,12.4696619,"Abzweig Briest, B 102, Fohrde, Havelsee, Amt Beetzsee, Potsdam-Mittelmark, Brandenburg, 14798, Deutschland",bus_stop,highway,POINT (12.4696619 52.4789283)
259,Landstraße,bus_stop,"327898,6","5817962,5","['Bus stop Landstraße, Brandenburg, 14770']",haltestelle landstraße,52.4846303,12.4654079,"Landstraße, B 102, Rote Ziegelei, Fohrde, Havelsee, Amt Beetzsee, Potsdam-Mittelmark, Brandenburg, 14798, Deutschland",bus_stop,highway,POINT (12.4654079 52.4846303)
260,Havelaue,bus_stop,"318039,47","5823673,5","['Bus stop Havelaue, Brandenburg, 14770']",haltestelle havelaue,52.5327185,12.3172544,"Havelaue, Milower Straße, Havelaue, Premnitz, Havelland, Brandenburg, 14727, Deutschland",bus_stop,highway,POINT (12.3172544 52.5327185)
261,Havelaue,bus_stop,"318032,34",5823681,"['Bus stop Havelaue, Brandenburg, 14770']",haltestelle havelaue,52.5327185,12.3172544,"Havelaue, Milower Straße, Havelaue, Premnitz, Havelland, Brandenburg, 14727, Deutschland",bus_stop,highway,POINT (12.3172544 52.5327185)
262,Sportplatz,bus_stop,"345306,62",5809611,"['Bus stop Sportplatz, Brandenburg, 14770']",haltestelle sportplatz,52.4148166,12.7254196,"Sportplatz, Götzer Dorfstraße, Götz, Groß Kreutz (Havel), Potsdam-Mittelmark, Brandenburg, 14550, Deutschland",bus_stop,highway,POINT (12.7254196 52.4148166)
263,Ortsmitte,bus_stop,"344976,47",5809971,"['Bus stop Ortsmitte, Brandenburg, 14770']",haltestelle ortsmitte,52.2829280,12.4681877,"Ortsmitte, Poststraße, Wollin, Ziesar, Potsdam-Mittelmark, Brandenburg, 14778, Deutschland",bus_stop,highway,POINT (12.4681877 52.282928)
264,Ausbau,bus_stop,"345942,1",5808738,"['Bus stop Ausbau, Brandenburg, 14770']",haltestelle ausbau,52.4073364,12.7349370,"Ausbau, Groß Kreutz, Groß Kreutz (Havel), Potsdam-Mittelmark, Brandenburg, 14550, Deutschland",bus_stop,highway,POINT (12.734937 52.4073364)
265,"Woltersdorf, Dorf",bus_stop,"321364,2",5809602,"['Bus stop Woltersdorf Dorf, Brandenburg, 14770']","haltestelle woltersdorf, dorf",,,,,,
266,Rosa-Luxemburg-Allee,bus_stop,"331641,22",5811922,"['Bus stop Rosa-Luxemburg-Allee, Brandenburg, 14770']",haltestelle rosa-luxemburg-allee,52.4313195,12.5249352,"Rosa-Luxemburg-Allee, Hohenstücken, Brandenburg an der Havel, Brandenburg, 14772, Deutschland",bus_stop,highway,POINT (12.5249352 52.4313195)
267,Schmerzke,bus_stop,"336259,22",5807019,"['Bus stop Schmerzke, Brandenburg, 14770']",haltestelle schmerzke,52.3889632,12.5938864,"Schmerzke, Altes Dorf, Schmerzke, Brandenburg an der Havel, Brandenburg, 14776, Deutschland",bus_stop,highway,POINT (12.5938864 52.3889632)
268,Nicolaiplatz,tram_stop,"333276,7","5809586,5","['Tram stop Nicolaiplatz, Brandenburg, 14770']",haltestelle nicolaiplatz,52.4110630,12.5487156,"Nicolaiplatz, Altstadt, Brandenburg an der Havel, Brandenburg, 14770, Deutschland",tram_stop,railway,POINT (12.5487156 52.411063)
269,Werner-Seelenbinder-Straße,bus_stop,"333855,16","5810678,5","['Bus stop Werner-Seelenbinder-Straße, Brandenburg, 14770']",haltestelle werner-seelenbinder-straße,52.4214255,12.5559041,"Werner-Seelenbinder-Straße, Massowburg, Brandenburg an der Havel, Brandenburg, 14770, Deutschland",bus_stop,highway,POINT (12.5559041 52.4214255)
270,Werner-Seelenbinder-Straße,bus_stop,"333872,34","5810812,5","['Bus stop Werner-Seelenbinder-Straße, Brandenburg, 14770']",haltestelle werner-seelenbinder-straße,52.4214255,12.5559041,"Werner-Seelenbinder-Straße, Massowburg, Brandenburg an der Havel, Brandenburg, 14770, Deutschland",bus_stop,highway,POINT (12.5559041 52.4214255)
271,Wilhelmsdorfer Landstraße,bus_stop,"332315,78",5807458,"['Bus stop Wilhelmsdorfer Landstraße, Brandenburg, 14770']",haltestelle wilhelmsdorfer landstraße,52.3916555,12.5356674,"Wilhelmsdorfer Landstraße, Wilhelmsdorfer Vorstadt, Brandenburg an der Havel, Brandenburg, 14776, Deutschland",bus_stop,highway,POINT (12.5356674 52.3916555)
272,Mühlenfeld,bus_stop,"335570,75",5812176,"['Bus stop Mühlenfeld, Brandenburg, 14770']",haltestelle mühlenfeld,52.4350231,12.5810927,"Mühlenfeld, Mötzower Landstraße, Mötzower Vorstadt, Brandenburg an der Havel, Brandenburg, 14776, Deutschland",bus_stop,highway,POINT (12.5810927 52.4350231)
273,Hohenstücken Betriebshof,bus_stop,"332146,03",5811483,"['Bus stop Hohenstücken Betriebshof, Brandenburg, 14770']",haltestelle hohenstücken betriebshof,52.4270162,12.5307533,"Hohenstücken Betriebshof, Rathenower Landstraße, Hohenstücken, Brandenburg an der Havel, Brandenburg, 14772, Deutschland",bus_stop,highway,POINT (12.5307533 52.4270162)
274,Tierheim,bus_stop,"331657,34",5808072,"['Bus stop Tierheim, Brandenburg, 14770']",haltestelle tierheim,52.3969671,12.5256920,"Tierheim, Caasmannstraße, Neuendorf, Brandenburg an der Havel, Brandenburg, 14770, Deutschland",bus_stop,highway,POINT (12.525692 52.3969671)
275,Tierheim,bus_stop,"331730,6",5808088,"['Bus stop Tierheim, Brandenburg, 14770']",haltestelle tierheim,52.3969671,12.5256920,"Tierheim, Caasmannstraße, Neuendorf, Brandenburg an der Havel, Brandenburg, 14770, Deutschland",bus_stop,highway,POINT (12.525692 52.3969671)
276,Haveltor,bus_stop,"331919,25","5808649,5","['Bus stop Haveltor, Brandenburg, 14770']",haltestelle haveltor,52.4022627,12.5291384,"Haveltor, 11, Caasmannstraße, Klingenbergsiedlung, Brandenburg an der Havel, Brandenburg, 14770, Deutschland",bus_stop,highway,POINT (12.5291384 52.4022627)
277,Haveltor,bus_stop,"331924,3",5808665,"['Bus stop Haveltor, Brandenburg, 14770']",haltestelle haveltor,52.4022627,12.5291384,"Haveltor, 11, Caasmannstraße, Klingenbergsiedlung, Brandenburg an der Havel, Brandenburg, 14770, Deutschland",bus_stop,highway,POINT (12.5291384 52.4022627)
278,Caasmannstraße,bus_stop,"332126,78","5808896,5","['Bus stop Caasmannstraße, Brandenburg, 14770']",haltestelle caasmannstraße,52.4045176,12.5321715,"Caasmannstraße, Gewerbegebiet Caasmannstraße, Klingenbergsiedlung, Brandenburg an der Havel, Brandenburg, 14770, Deutschland",bus_stop,highway,POINT (12.5321715 52.4045176)
279,Caasmannstraße,bus_stop,"332156,5","5808918,5","['Bus stop Caasmannstraße, Brandenburg, 14770']",haltestelle caasmannstraße,52.4045176,12.5321715,"Caasmannstraße, Gewerbegebiet Caasmannstraße, Klingenbergsiedlung, Brandenburg an der Havel, Brandenburg, 14770, Deutschland",bus_stop,highway,POINT (12.5321715 52.4045176)
280,Hagelberger Straße,bus_stop,335244,5810762,"['Bus stop Hagelberger Straße, Brandenburg, 14770']",haltestelle hagelberger straße,52.4224857,12.5764431,"Hagelberger Straße, Mötzower Landstraße, Krakauer Vorstadt, Brandenburg an der Havel, Brandenburg, 14776, Deutschland",bus_stop,highway,POINT (12.5764431 52.4224857)
281,Hagelberger Straße,bus_stop,"335204,88",5810793,"['Bus stop Hagelberger Straße, Brandenburg, 14770']",haltestelle hagelberger straße,52.4224857,12.5764431,"Hagelberger Straße, Mötzower Landstraße, Krakauer Vorstadt, Brandenburg an der Havel, Brandenburg, 14776, Deutschland",bus_stop,highway,POINT (12.5764431 52.4224857)
282,Ketzürer Weg,bus_stop,"335484,1","5811891,5","['Bus stop Ketzürer Weg, Brandenburg, 14770']",haltestelle ketzürer weg,52.4324439,12.5799252,"Ketzürer Weg, Mötzower Landstraße, Mötzower Vorstadt, Brandenburg an der Havel, Brandenburg, 14776, Deutschland",bus_stop,highway,POINT (12.5799252 52.4324439)
283,Ketzürer Weg,bus_stop,"335477,22",5811903,"['Bus stop Ketzürer Weg, Brandenburg, 14770']",haltestelle ketzürer weg,52.4324439,12.5799252,"Ketzürer Weg, Mötzower Landstraße, Mötzower Vorstadt, Brandenburg an der Havel, Brandenburg, 14776, Deutschland",bus_stop,highway,POINT (12.5799252 52.4324439)
284,Lünower Weg,bus_stop,"335244,53","5811430,5","['Bus stop Lünower Weg, Brandenburg, 14770']",haltestelle lünower weg,52.4282112,12.5767708,"Lünower Weg, Mötzower Landstraße, Krakauer Vorstadt, Brandenburg an der Havel, Brandenburg, 14776, Deutschland",bus_stop,highway,POINT (12.5767708 52.4282112)
285,Lünower Weg,bus_stop,335263,"5811446,5","['Bus stop Lünower Weg, Brandenburg, 14770']",haltestelle lünower weg,52.4282112,12.5767708,"Lünower Weg, Mötzower Landstraße, Krakauer Vorstadt, Brandenburg an der Havel, Brandenburg, 14776, Deutschland",bus_stop,highway,POINT (12.5767708 52.4282112)
286,Mühlenfeld,bus_stop,"335565,34","5812180,5","['Bus stop Mühlenfeld, Brandenburg, 14770']",haltestelle mühlenfeld,52.4350231,12.5810927,"Mühlenfeld, Mötzower Landstraße, Mötzower Vorstadt, Brandenburg an der Havel, Brandenburg, 14776, Deutschland",bus_stop,highway,POINT (12.5810927 52.4350231)
287,Klein Kreutz,bus_stop,"338722,34",5812118,"['Bus stop Klein Kreutz, Brandenburg, 14770']",haltestelle klein kreutz,52.4337255,12.6180342,"Klein Kreutz, Eigenheime, Klein Kreutzer Dorfstraße, Klein Kreutz/Saaringen, Brandenburg an der Havel, Brandenburg, 14776, Deutschland",bus_stop,highway,POINT (12.6180342 52.4337255)
288,Klein Kreutz,bus_stop,"338705,53",5812123,"['Bus stop Klein Kreutz, Brandenburg, 14770']",haltestelle klein kreutz,52.4337255,12.6180342,"Klein Kreutz, Eigenheime, Klein Kreutzer Dorfstraße, Klein Kreutz/Saaringen, Brandenburg an der Havel, Brandenburg, 14776, Deutschland",bus_stop,highway,POINT (12.6180342 52.4337255)
289,Dorfstraße,bus_stop,"338960,5","5812513,5","['Bus stop Dorfstraße, Brandenburg, 14770']",haltestelle dorfstraße,52.6722586,12.3809836,"Dorfstraße, Wassersuppe, Seeblick, Rhinow, Havelland, Brandenburg, 14715, Deutschland",bus_stop,highway,POINT (12.3809836 52.6722586)
290,Dorfstraße,bus_stop,"338976,16",5812555,"['Bus stop Dorfstraße, Brandenburg, 14770']",haltestelle dorfstraße,52.6722586,12.3809836,"Dorfstraße, Wassersuppe, Seeblick, Rhinow, Havelland, Brandenburg, 14715, Deutschland",bus_stop,highway,POINT (12.3809836 52.6722586)
291,Weinberge,bus_stop,"339384,62","5812975,5","['Bus stop Weinberge, Brandenburg, 14770']",haltestelle weinberge,52.4433349,12.6368057,"Klein Kreutz, Weinberge, Alte Weinberge, Klein Kreutz/Saaringen, Brandenburg an der Havel, Brandenburg, 14776, Deutschland",bus_stop,highway,POINT (12.6368057 52.4433349)
292,Weinberge,bus_stop,"339383,56",5812983,"['Bus stop Weinberge, Brandenburg, 14770']",haltestelle weinberge,52.4433349,12.6368057,"Klein Kreutz, Weinberge, Alte Weinberge, Klein Kreutz/Saaringen, Brandenburg an der Havel, Brandenburg, 14776, Deutschland",bus_stop,highway,POINT (12.6368057 52.4433349)
293,Eigenheime,bus_stop,"338091,22","5811949,5","['Bus stop Eigenheime, Brandenburg, 14770']",haltestelle eigenheime,52.4337255,12.6180342,"Klein Kreutz, Eigenheime, Klein Kreutzer Dorfstraße, Klein Kreutz/Saaringen, Brandenburg an der Havel, Brandenburg, 14776, Deutschland",bus_stop,highway,POINT (12.6180342 52.4337255)
294,Eigenheime,bus_stop,"338072,78","5811952,5","['Bus stop Eigenheime, Brandenburg, 14770']",haltestelle eigenheime,52.4337255,12.6180342,"Klein Kreutz, Eigenheime, Klein Kreutzer Dorfstraße, Klein Kreutz/Saaringen, Brandenburg an der Havel, Brandenburg, 14776, Deutschland",bus_stop,highway,POINT (12.6180342 52.4337255)
295,Krakauer Landstraße,bus_stop,"337091,16",5811678,"['Bus stop Krakauer Landstraße, Brandenburg, 14770']",haltestelle krakauer landstraße,52.4310990,12.6036773,"Krakauer Landstraße, Klein Kreutz/Saaringen, Brandenburg an der Havel, Brandenburg, 14776, Deutschland",bus_stop,highway,POINT (12.6036773 52.431099)
296,Krakauer Landstraße,bus_stop,"337088,22",5811689,"['Bus stop Krakauer Landstraße, Brandenburg, 14770']",haltestelle krakauer landstraße,52.4310990,12.6036773,"Krakauer Landstraße, Klein Kreutz/Saaringen, Brandenburg an der Havel, Brandenburg, 14776, Deutschland",bus_stop,highway,POINT (12.6036773 52.431099)
297,Schleuse,bus_stop,"335279,94","5810734,5","['Bus stop Schleuse, Brandenburg, 14770']",haltestelle schleuse,52.4220738,12.5774963,"Schleuse, Krakauer Landstraße, Krakauer Vorstadt, Brandenburg an der Havel, Brandenburg, 14776, Deutschland",bus_stop,highway,POINT (12.5774963 52.4220738)
298,Schleuse,bus_stop,"335274,97","5810744,5","['Bus stop Schleuse, Brandenburg, 14770']",haltestelle schleuse,52.4220738,12.5774963,"Schleuse, Krakauer Landstraße, Krakauer Vorstadt, Brandenburg an der Havel, Brandenburg, 14776, Deutschland",bus_stop,highway,POINT (12.5774963 52.4220738)
299,Segelflugplatz,bus_stop,"335683,2","5812670,5","['Bus stop Segelflugplatz, Brandenburg, 14770']",haltestelle segelflugplatz,52.4395416,12.5824871,"Segelflugplatz, Mötzower Landstraße, Mötzower Vorstadt, Brandenburg an der Havel, Brandenburg, 14776, Deutschland",bus_stop,highway,POINT (12.5824871 52.4395416)
300,Ziegelstraße,bus_stop,333979,5810222,"['Bus stop Ziegelstraße, Brandenburg, 14770']",haltestelle ziegelstraße,52.4169879,12.5587157,"Ziegelstraße, Altstadt, Brandenburg an der Havel, Brandenburg, 14770, Deutschland",bus_stop,highway,POINT (12.5587157 52.4169879)
301,Ziegelstraße,bus_stop,"333965,38","5810264,5","['Bus stop Ziegelstraße, Brandenburg, 14770']",haltestelle ziegelstraße,52.4169879,12.5587157,"Ziegelstraße, Altstadt, Brandenburg an der Havel, Brandenburg, 14770, Deutschland",bus_stop,highway,POINT (12.5587157 52.4169879)
302,Brielower Straße,bus_stop,333727,5810312,"['Bus stop Brielower Straße, Brandenburg, 14770']",haltestelle brielower straße,52.4177181,12.5549689,"Brielower Straße, Altstadt, Brandenburg an der Havel, Brandenburg, 14770, Deutschland",bus_stop,highway,POINT (12.5549689 52.4177181)
303,"Premnitz, Industriepark",bus_stop,"320332,62",5823690,"['Bus stop Premnitz Industriepark, Brandenburg, 14770']","haltestelle premnitz, industriepark",52.5336292,12.3510151,"Premnitz, Industriepark, Fabrikenstraße, Industriepark Premnitz, Premnitz, Havelland, Brandenburg, 14727, Deutschland",bus_stop,highway,POINT (12.3510151 52.5336292)
304,"Premnitz, Oberschule",bus_stop,"319937,12",5823011,"['Bus stop Premnitz Oberschule, Brandenburg, 14770']","haltestelle premnitz, oberschule",52.5273993,12.3455590,"Premnitz, Oberschule, Thomas-Mann-Straße, Neues Zentrum, Premnitz, Havelland, Brandenburg, 14727, Deutschland",bus_stop,highway,POINT (12.345559 52.5273993)
305,Steinstraße/Kino,bus_stop,"334058,53","5809128,5","['Bus stop Steinstraße/Kino, Brandenburg, 14770']",haltestelle steinstraße/kino,52.4066948,12.5596118,"Steinstraße/Kino, Steinstraße, Neustadt, Brandenburg an der Havel, Brandenburg, 14776, Deutschland",bus_stop,highway,POINT (12.5596118 52.4066948)
306,Freiherr-von-Thüngen-Straße,bus_stop,"333417,72",5810786,"['Bus stop Freiherr-von-Thüngen-Straße, Brandenburg, 14770']",haltestelle freiherr-von-thüngen-straße,52.4218840,12.5501894,"Freiherr-von-Thüngen-Straße, Werner-Seelenbinder-Straße, Nord, Brandenburg an der Havel, Brandenburg, 14770, Deutschland",bus_stop,highway,POINT (12.5501894 52.421884)
307,Freiherr-von-Thüngen-Straße,bus_stop,"333414,88",5810799,"['Bus stop Freiherr-von-Thüngen-Straße, Brandenburg, 14770']",haltestelle freiherr-von-thüngen-straße,52.4218840,12.5501894,"Freiherr-von-Thüngen-Straße, Werner-Seelenbinder-Straße, Nord, Brandenburg an der Havel, Brandenburg, 14770, Deutschland",bus_stop,highway,POINT (12.5501894 52.421884)
308,Fontanestraße,bus_stop,"332442,34","5810468,5","['Bus stop Fontanestraße, Brandenburg, 14770']",haltestelle fontanestraße,52.4187332,12.5360189,"Fontanestraße, Willi-Sänger-Straße, Nord, Brandenburg an der Havel, Brandenburg, 14770, Deutschland",bus_stop,highway,POINT (12.5360189 52.4187332)
309,Fontanestraße,bus_stop,"332435,9",5810479,"['Bus stop Fontanestraße, Brandenburg, 14770']",haltestelle fontanestraße,52.4187332,12.5360189,"Fontanestraße, Willi-Sänger-Straße, Nord, Brandenburg an der Havel, Brandenburg, 14770, Deutschland",bus_stop,highway,POINT (12.5360189 52.4187332)
310,Werner-Seelenbinder-Straße,bus_stop,"333804,53",5810722,"['Bus stop Werner-Seelenbinder-Straße, Brandenburg, 14770']",haltestelle werner-seelenbinder-straße,52.4214255,12.5559041,"Werner-Seelenbinder-Straße, Massowburg, Brandenburg an der Havel, Brandenburg, 14770, Deutschland",bus_stop,highway,POINT (12.5559041 52.4214255)
311,Ruppinstraße,bus_stop,"332803,44",5810812,"['Bus stop Ruppinstraße, Brandenburg, 14770']",haltestelle ruppinstraße,52.4219276,12.5411519,"Ruppinstraße, Werner-Seelenbinder-Straße, Nord, Brandenburg an der Havel, Brandenburg, 14770, Deutschland",bus_stop,highway,POINT (12.5411519 52.4219276)
312,Ruppinstraße,bus_stop,"332807,78","5810827,5","['Bus stop Ruppinstraße, Brandenburg, 14770']",haltestelle ruppinstraße,52.4219276,12.5411519,"Ruppinstraße, Werner-Seelenbinder-Straße, Nord, Brandenburg an der Havel, Brandenburg, 14770, Deutschland",bus_stop,highway,POINT (12.5411519 52.4219276)
313,Wilhelmsdorfer Straße,bus_stop,"333192,5",5808386,"['Bus stop Wilhelmsdorfer Straße, Brandenburg, 14770']",haltestelle wilhelmsdorfer straße,52.4002583,12.5480771,"Wilhelmsdorfer Straße, Otto-Sidow-Straße, Ring, Brandenburg an der Havel, Brandenburg, 14776, Deutschland",bus_stop,highway,POINT (12.5480771 52.4002583)
314,Große Gartenstraße,bus_stop,"333917,7",5808813,"['Bus stop Große Gartenstraße, Brandenburg, 14770']",haltestelle große gartenstraße,52.4045689,12.5580346,"Große Gartenstraße, Bahnhofsvorstadt, Brandenburg an der Havel, Brandenburg, 14776, Deutschland",bus_stop,highway,POINT (12.5580346 52.4045689)
315,Große Gartenstraße,bus_stop,"333871,62",5808858,"['Bus stop Große Gartenstraße, Brandenburg, 14770']",haltestelle große gartenstraße,52.4045689,12.5580346,"Große Gartenstraße, Bahnhofsvorstadt, Brandenburg an der Havel, Brandenburg, 14776, Deutschland",bus_stop,highway,POINT (12.5580346 52.4045689)
316,Wredowplatz,bus_stop,"333717,53",5808735,"['Bus stop Wredowplatz, Brandenburg, 14770']",haltestelle wredowplatz,52.4035506,12.5556136,"Wredowplatz, Jacobstraße, Ring, Brandenburg an der Havel, Brandenburg, 14776, Deutschland",bus_stop,highway,POINT (12.5556136 52.4035506)
317,Wittstocker Gäßchen,bus_stop,"331861,34",5806878,"['Bus stop Wittstocker Gäßchen, Brandenburg, 14770']",haltestelle wittstocker gäßchen,52.3864960,12.5295703,"Wittstocker Gäßchen, Ziesarer Landstraße, Siedlung Eigene Scholle, Brandenburg an der Havel, Brandenburg, 14776, Deutschland",bus_stop,highway,POINT (12.5295703 52.386496)
318,Schlachthof,bus_stop,"332696,06",5807840,"['Bus stop Schlachthof, Brandenburg, 14770']",haltestelle schlachthof,52.3954025,12.5414735,"Schlachthof, Wilhelmsdorfer Landstraße, Wilhelmsdorfer Vorstadt, Brandenburg an der Havel, Brandenburg, 14776, Deutschland",bus_stop,highway,POINT (12.5414735 52.3954025)
319,Schlachthof,bus_stop,"332724,97","5807861,5","['Bus stop Schlachthof, Brandenburg, 14770']",haltestelle schlachthof,52.3954025,12.5414735,"Schlachthof, Wilhelmsdorfer Landstraße, Wilhelmsdorfer Vorstadt, Brandenburg an der Havel, Brandenburg, 14776, Deutschland",bus_stop,highway,POINT (12.5414735 52.3954025)
320,Am Spechtbogen,bus_stop,"330886,2",5805802,"['Bus stop Am Spechtbogen, Brandenburg, 14770']",haltestelle am spechtbogen,52.3763999,12.5156320,"Am Spechtbogen, Am Rehhagen, Siedlung Eigene Scholle, Brandenburg an der Havel, Brandenburg, 14776, Deutschland",bus_stop,highway,POINT (12.515632 52.3763999)
321,Am Spechtbogen,bus_stop,"330894,38","5805808,5","['Bus stop Am Spechtbogen, Brandenburg, 14770']",haltestelle am spechtbogen,52.3763999,12.5156320,"Am Spechtbogen, Am Rehhagen, Siedlung Eigene Scholle, Brandenburg an der Havel, Brandenburg, 14776, Deutschland",bus_stop,highway,POINT (12.515632 52.3763999)
322,Eibenweg,bus_stop,"331421,3",5805356,"['Bus stop Eibenweg, Brandenburg, 14770']",haltestelle eibenweg,52.3725081,12.5235709,"Eibenweg, Buchenweg, Siedlung Eigene Scholle, Brandenburg an der Havel, Brandenburg, 14776, Deutschland",bus_stop,highway,POINT (12.5235709 52.3725081)
323,Am Rehhagen,bus_stop,"331156,06",5805517,"['Bus stop Am Rehhagen, Brandenburg, 14770']",haltestelle am rehhagen,52.3738626,12.5196190,"Am Rehhagen, Siedlung Eigene Scholle, Brandenburg an der Havel, Brandenburg, 14776, Deutschland",bus_stop,highway,POINT (12.519619 52.3738626)
324,Buchenweg,bus_stop,"331644,4","5805657,5","['Bus stop Buchenweg, Brandenburg, 14770']",haltestelle buchenweg,52.3756303,12.5270430,"Buchenweg, Siedlung Eigene Scholle, Göttin, Brandenburg an der Havel, Brandenburg, 14776, Deutschland",bus_stop,highway,POINT (12.527043 52.3756303)
325,Buchenweg,bus_stop,"331668,06",5805696,"['Bus stop Buchenweg, Brandenburg, 14770']",haltestelle buchenweg,52.3756303,12.5270430,"Buchenweg, Siedlung Eigene Scholle, Göttin, Brandenburg an der Havel, Brandenburg, 14776, Deutschland",bus_stop,highway,POINT (12.527043 52.3756303)
326,Am Turnerheim,bus_stop,"331505,97",5805867,"['Bus stop Am Turnerheim, Brandenburg, 14770']",haltestelle am turnerheim,52.3773958,12.5238545,"Am Turnerheim, Wilhelmsdorf, Göttin, Brandenburg an der Havel, Brandenburg, 14776, Deutschland",bus_stop,highway,POINT (12.5238545 52.3773958)
327,Am Turnerheim,bus_stop,"331457,2",5805899,"['Bus stop Am Turnerheim, Brandenburg, 14770']",haltestelle am turnerheim,52.3773958,12.5238545,"Am Turnerheim, Wilhelmsdorf, Göttin, Brandenburg an der Havel, Brandenburg, 14776, Deutschland",bus_stop,highway,POINT (12.5238545 52.3773958)
328,Birkenweg,bus_stop,"331312,53","5806280,5","['Bus stop Birkenweg, Brandenburg, 14770']",haltestelle birkenweg,52.3807700,12.5215310,"Birkenweg, Ziesarer Landstraße, Siedlung Eigene Scholle, Brandenburg an der Havel, Brandenburg, 14776, Deutschland",bus_stop,highway,POINT (12.521531 52.38077)
329,Hauptbahnhof,bus_stop,"334418,06","5808484,5","['Bus stop Hauptbahnhof, Brandenburg, 14770']",haltestelle hauptbahnhof,52.4012338,12.5655665,"Hauptbahnhof, Am Hauptbahnhof, Bahnhofsvorstadt, Brandenburg an der Havel, Brandenburg, 14776, Deutschland",bus_stop,highway,POINT (12.5655665 52.4012338)
330,Beetzsee Center Landstraße,bus_stop,"333558,78","5811965,5","['Bus stop Beetzsee Center Landstraße, Brandenburg, 14770']",haltestelle beetzsee center landstraße,52.4325203,12.5516748,"Beetzsee Center Landstraße, Brielower Landstraße, Massowburg, Brandenburg an der Havel, Brandenburg, 14772, Deutschland",bus_stop,highway,POINT (12.5516748 52.4325203)
331,Beetzsee Center,bus_stop,"333414,94","5811963,5","['Bus stop Beetzsee Center, Brandenburg, 14770']",haltestelle beetzsee center,52.4324556,12.5495622,"Beetzsee Center, Brielower Landstraße, Massowburg, Brandenburg an der Havel, Brandenburg, 14772, Deutschland",bus_stop,highway,POINT (12.5495622 52.4324556)
332,Beetzsee Center,bus_stop,"333417,34",5811975,"['Bus stop Beetzsee Center, Brandenburg, 14770']",haltestelle beetzsee center,52.4324556,12.5495622,"Beetzsee Center, Brielower Landstraße, Massowburg, Brandenburg an der Havel, Brandenburg, 14772, Deutschland",bus_stop,highway,POINT (12.5495622 52.4324556)
333,Massowburg,bus_stop,"333913,7","5811316,5","['Bus stop Massowburg, Brandenburg, 14770']",haltestelle massowburg,52.4277402,12.5558597,"Massowburg, Brielower Landstraße, Massowburg, Brandenburg an der Havel, Brandenburg, 14772, Deutschland",bus_stop,highway,POINT (12.5558597 52.4277402)
334,Massowburg,bus_stop,"333825,25","5811424,5","['Bus stop Massowburg, Brandenburg, 14770']",haltestelle massowburg,52.4277402,12.5558597,"Massowburg, Brielower Landstraße, Massowburg, Brandenburg an der Havel, Brandenburg, 14772, Deutschland",bus_stop,highway,POINT (12.5558597 52.4277402)
335,Beetzsee Center Landstraße,bus_stop,"333598,62",5811925,"['Bus stop Beetzsee Center Landstraße, Brandenburg, 14770']",haltestelle beetzsee center landstraße,52.4325203,12.5516748,"Beetzsee Center Landstraße, Brielower Landstraße, Massowburg, Brandenburg an der Havel, Brandenburg, 14772, Deutschland",bus_stop,highway,POINT (12.5516748 52.4325203)
336,Christinenstraße,bus_stop,331750,5812717,"['Bus stop Christinenstraße, Brandenburg, 14770']",haltestelle christinenstraße,52.4384643,12.5240712,"Christinenstraße, Sophienstraße, Hohenstücken, Brandenburg an der Havel, Brandenburg, 14772, Deutschland",bus_stop,highway,POINT (12.5240712 52.4384643)
337,Willi-Sänger-Straße,bus_stop,"332829,2",5810604,"['Bus stop Willi-Sänger-Straße, Brandenburg, 14770']",haltestelle willi-sänger-straße,52.4200681,12.5416339,"Willi-Sänger-Straße, Nord, Brandenburg an der Havel, Brandenburg, 14770, Deutschland",bus_stop,highway,POINT (12.5416339 52.4200681)
338,Willi-Sänger-Straße,bus_stop,"332828,78",5810612,"['Bus stop Willi-Sänger-Straße, Brandenburg, 14770']",haltestelle willi-sänger-straße,52.4200681,12.5416339,"Willi-Sänger-Straße, Nord, Brandenburg an der Havel, Brandenburg, 14770, Deutschland",bus_stop,highway,POINT (12.5416339 52.4200681)
339,Zum Marienberg,bus_stop,"333205,2",5810509,"['Bus stop Zum Marienberg, Brandenburg, 14770']",haltestelle zum marienberg,52.4193300,12.5472052,"Zum Marienberg, Nordaufgang, Nord, Brandenburg an der Havel, Brandenburg, 14770, Deutschland",bus_stop,highway,POINT (12.5472052 52.41933)
340,Zum Marienberg,bus_stop,"333215,53",5810525,"['Bus stop Zum Marienberg, Brandenburg, 14770']",haltestelle zum marienberg,52.4193300,12.5472052,"Zum Marienberg, Nordaufgang, Nord, Brandenburg an der Havel, Brandenburg, 14770, Deutschland",bus_stop,highway,POINT (12.5472052 52.41933)
341,Brielower Aue,bus_stop,"332332,53","5813870,5","['Bus stop Brielower Aue, Brandenburg, 14770']",haltestelle brielower aue,52.4492570,12.5326986,"Brielower Aue, Brielower Ausbau, Brandenburg an der Havel, Brandenburg, 14772, Deutschland",bus_stop,highway,POINT (12.5326986 52.449257)
342,Brielower Aue,bus_stop,"332348,28",5813877,"['Bus stop Brielower Aue, Brandenburg, 14770']",haltestelle brielower aue,52.4492570,12.5326986,"Brielower Aue, Brielower Ausbau, Brandenburg an der Havel, Brandenburg, 14772, Deutschland",bus_stop,highway,POINT (12.5326986 52.449257)
343,Brielower Landstraße,bus_stop,"333135,28","5812916,5","['Bus stop Brielower Landstraße, Brandenburg, 14770']",haltestelle brielower landstraße,52.4409332,12.5449762,"Brielower Landstraße, Brielower Grenze, Brielower Ausbau, Brandenburg an der Havel, Brandenburg, 14772, Deutschland",bus_stop,highway,POINT (12.5449762 52.4409332)
344,Brielower Landstraße,bus_stop,"333147,25","5812919,5","['Bus stop Brielower Landstraße, Brandenburg, 14770']",haltestelle brielower landstraße,52.4409332,12.5449762,"Brielower Landstraße, Brielower Grenze, Brielower Ausbau, Brandenburg an der Havel, Brandenburg, 14772, Deutschland",bus_stop,highway,POINT (12.5449762 52.4409332)
345,Butterlake,bus_stop,"331508,78",5813826,"['Bus stop Butterlake, Brandenburg, 14770']",haltestelle butterlake,52.4486041,12.5206115,"Butterlake, Brielower Aue, Butterlake, Brandenburg an der Havel, Brandenburg, 14772, Deutschland",bus_stop,highway,POINT (12.5206115 52.4486041)
346,Butterlake,bus_stop,"331509,9","5813837,5","['Bus stop Butterlake, Brandenburg, 14770']",haltestelle butterlake,52.4486041,12.5206115,"Butterlake, Brielower Aue, Butterlake, Brandenburg an der Havel, Brandenburg, 14772, Deutschland",bus_stop,highway,POINT (12.5206115 52.4486041)
347,Freiheitsweg,bus_stop,"332850,1",5813817,"['Bus stop Freiheitsweg, Brandenburg, 14770']",haltestelle freiheitsweg,52.4501523,12.5396786,"Freiheitsweg, Chausseestraße, Blumensiedlung, Brielow Ausbau, Brielow, Beetzsee, Amt Beetzsee, Potsdam-Mittelmark, Brandenburg, 14778, Deutschland",bus_stop,highway,POINT (12.5396786 52.4501523)
348,Feldstraße,bus_stop,"332984,75",5807415,"['Bus stop Feldstraße, Brandenburg, 14770']",haltestelle feldstraße,52.3913226,12.5453856,"Feldstraße, Göttiner Landstraße, Wilhelmsdorfer Vorstadt, Brandenburg an der Havel, Brandenburg, 14776, Deutschland",bus_stop,highway,POINT (12.5453856 52.3913226)
349,Feldstraße,bus_stop,"332975,34","5807413,5","['Bus stop Feldstraße, Brandenburg, 14770']",haltestelle feldstraße,52.3913226,12.5453856,"Feldstraße, Göttiner Landstraße, Wilhelmsdorfer Vorstadt, Brandenburg an der Havel, Brandenburg, 14776, Deutschland",bus_stop,highway,POINT (12.5453856 52.3913226)
350,Rochowstraße,bus_stop,332770,"5807858,5","['Bus stop Rochowstraße, Brandenburg, 14770']",haltestelle rochowstraße,52.3953904,12.5421429,"Rochowstraße, Wilhelmsdorfer Vorstadt, Brandenburg an der Havel, Brandenburg, 14776, Deutschland",bus_stop,highway,POINT (12.5421429 52.3953904)
351,Rehaklinik Hohenstücken,bus_stop,"331035,7","5812226,5","['Bus stop Rehaklinik Hohenstücken, Brandenburg, 14770']",haltestelle rehaklinik hohenstücken,52.4340905,12.5144662,"Rehaklinik Hohenstücken, Sophienstraße, Hohenstücken, Brandenburg an der Havel, Brandenburg, 14772, Deutschland",bus_stop,highway,POINT (12.5144662 52.4340905)
352,Rehaklinik Hohenstücken,bus_stop,"331022,84",5812248,"['Bus stop Rehaklinik Hohenstücken, Brandenburg, 14770']",haltestelle rehaklinik hohenstücken,52.4340905,12.5144662,"Rehaklinik Hohenstücken, Sophienstraße, Hohenstücken, Brandenburg an der Havel, Brandenburg, 14772, Deutschland",bus_stop,highway,POINT (12.5144662 52.4340905)
353,Rosa-Luxemburg-Allee,bus_stop,"331640,12","5811904,5","['Bus stop Rosa-Luxemburg-Allee, Brandenburg, 14770']",haltestelle rosa-luxemburg-allee,52.4313195,12.5249352,"Rosa-Luxemburg-Allee, Hohenstücken, Brandenburg an der Havel, Brandenburg, 14772, Deutschland",bus_stop,highway,POINT (12.5249352 52.4313195)
354,Tschirchdamm,bus_stop,"331536,8","5812162,5","['Bus stop Tschirchdamm, Brandenburg, 14770']",haltestelle tschirchdamm,52.4336694,12.5218625,"Tschirchdamm, Hohenstücken, Brandenburg an der Havel, Brandenburg, 14772, Deutschland",bus_stop,highway,POINT (12.5218625 52.4336694)
355,Willibald-Alexis-Straße,bus_stop,"332051,53",5811863,"['Bus stop Willibald-Alexis-Straße, Brandenburg, 14770']",haltestelle willibald-alexis-straße,52.4311391,12.5295772,"Willibald-Alexis-Straße, Rosa-Luxemburg-Allee, Hohenstücken, Brandenburg an der Havel, Brandenburg, 14772, Deutschland",bus_stop,highway,POINT (12.5295772 52.4311391)
356,Willibald-Alexis-Straße,bus_stop,"332029,53",5811891,"['Bus stop Willibald-Alexis-Straße, Brandenburg, 14770']",haltestelle willibald-alexis-straße,52.4311391,12.5295772,"Willibald-Alexis-Straße, Rosa-Luxemburg-Allee, Hohenstücken, Brandenburg an der Havel, Brandenburg, 14772, Deutschland",bus_stop,highway,POINT (12.5295772 52.4311391)
357,Am Silokanal,bus_stop,"331846,3",5811164,"['Bus stop Am Silokanal, Brandenburg, 14770']",haltestelle am silokanal,52.4247961,12.5269129,"Am Silokanal, Gördenallee, Görden, Brandenburg an der Havel, Brandenburg, 14772, Deutschland",bus_stop,highway,POINT (12.5269129 52.4247961)
358,Am Silokanal,bus_stop,"331843,66","5811178,5","['Bus stop Am Silokanal, Brandenburg, 14770']",haltestelle am silokanal,52.4247961,12.5269129,"Am Silokanal, Gördenallee, Görden, Brandenburg an der Havel, Brandenburg, 14772, Deutschland",bus_stop,highway,POINT (12.5269129 52.4247961)
359,Wiener Straße,bus_stop,"331881,75","5811489,5","['Bus stop Wiener Straße, Brandenburg, 14770']",haltestelle wiener straße,52.4277328,12.5272700,"Wiener Straße, Hohenstücken, Brandenburg an der Havel, Brandenburg, 14772, Deutschland",bus_stop,highway,POINT (12.52727 52.4277328)
360,Wiener Straße,bus_stop,"331869,7","5811490,5","['Bus stop Wiener Straße, Brandenburg, 14770']",haltestelle wiener straße,52.4277328,12.5272700,"Wiener Straße, Hohenstücken, Brandenburg an der Havel, Brandenburg, 14772, Deutschland",bus_stop,highway,POINT (12.52727 52.4277328)
361,Rotdornweg,bus_stop,"331510,9","5811162,5","['Bus stop Rotdornweg, Brandenburg, 14770']",haltestelle rotdornweg,52.4246817,12.5219856,"Rotdornweg, Gördenallee, Görden, Brandenburg an der Havel, Brandenburg, 14772, Deutschland",bus_stop,highway,POINT (12.5219856 52.4246817)
362,Rotdornweg,bus_stop,"331452,4","5811170,5","['Bus stop Rotdornweg, Brandenburg, 14770']",haltestelle rotdornweg,52.4246817,12.5219856,"Rotdornweg, Gördenallee, Görden, Brandenburg an der Havel, Brandenburg, 14772, Deutschland",bus_stop,highway,POINT (12.5219856 52.4246817)
363,Heidekrug,bus_stop,"328960,28","5810362,5","['Bus stop Heidekrug, Brandenburg, 14770']",haltestelle heidekrug,52.4167016,12.4849213,"Heidekrug, Plauer Landstraße, Heidekrug, Brandenburg an der Havel, Brandenburg, 14772, Deutschland",bus_stop,highway,POINT (12.4849213 52.4167016)
364,Falkenbergswerder,bus_stop,"329204,84","5810275,5","['Bus stop Falkenbergswerder, Brandenburg, 14770']",haltestelle falkenbergswerder,52.4159990,12.4885581,"Falkenbergswerder, Plauer Landstraße, Heidekrug, Brandenburg an der Havel, Brandenburg, 14772, Deutschland",bus_stop,highway,POINT (12.4885581 52.415999)
365,Am Elisabethhof,bus_stop,"329727,78","5810507,5","['Bus stop Am Elisabethhof, Brandenburg, 14770']",haltestelle am elisabethhof,52.4182461,12.4961217,"Am Elisabethhof, Quenzweg, Quenzsiedlung, Brandenburg an der Havel, Brandenburg, 14772, Deutschland",bus_stop,highway,POINT (12.4961217 52.4182461)
366,Am Elisabethhof,bus_stop,"329713,12","5810514,5","['Bus stop Am Elisabethhof, Brandenburg, 14770']",haltestelle am elisabethhof,52.4182461,12.4961217,"Am Elisabethhof, Quenzweg, Quenzsiedlung, Brandenburg an der Havel, Brandenburg, 14772, Deutschland",bus_stop,highway,POINT (12.4961217 52.4182461)
367,Am Stadion/Industriemuseum,bus_stop,"330168,47",5810099,"['Bus stop Am Stadion/Industriemuseum, Brandenburg, 14770']",haltestelle am stadion/industriemuseum,52.4147118,12.5028028,"Am Stadion/Industriemuseum, Magdeburger Landstraße, Quenzsiedlung, Brandenburg an der Havel, Brandenburg, 14770, Deutschland",bus_stop,highway,POINT (12.5028028 52.4147118)
368,"Görden Bahnhof, Einkaufszentrum",bus_stop,"330240,16","5811434,5","['Bus stop Görden Bahnhof Einkaufszentrum, Brandenburg, 14770']","haltestelle görden bahnhof, einkaufszentrum",52.4267291,12.5031776,"Görden Bahnhof, Einkaufszentrum, Veilchenweg, Kolonie Görden, Brandenburg an der Havel, Brandenburg, 14772, Deutschland",bus_stop,highway,POINT (12.5031776 52.4267291)
369,Gerberaweg,bus_stop,329906,"5810888,5","['Bus stop Gerberaweg, Brandenburg, 14770']",haltestelle gerberaweg,52.4217230,12.4985457,"Gerberaweg, Veilchenweg, Kolonie Görden, Brandenburg an der Havel, Brandenburg, 14772, Deutschland",bus_stop,highway,POINT (12.4985457 52.421723)
370,Gerberaweg,bus_stop,"329901,53","5810927,5","['Bus stop Gerberaweg, Brandenburg, 14770']",haltestelle gerberaweg,52.4217230,12.4985457,"Gerberaweg, Veilchenweg, Kolonie Görden, Brandenburg an der Havel, Brandenburg, 14772, Deutschland",bus_stop,highway,POINT (12.4985457 52.421723)
371,Veilchenweg,bus_stop,"330034,34","5811251,5","['Bus stop Veilchenweg, Brandenburg, 14770']",haltestelle veilchenweg,52.4252005,12.5012540,"Veilchenweg, Kolonie Görden, Brandenburg an der Havel, Brandenburg, 14772, Deutschland",bus_stop,highway,POINT (12.501254 52.4252005)
372,Veilchenweg,bus_stop,"330103,5",5811269,"['Bus stop Veilchenweg, Brandenburg, 14770']",haltestelle veilchenweg,52.4252005,12.5012540,"Veilchenweg, Kolonie Görden, Brandenburg an der Havel, Brandenburg, 14772, Deutschland",bus_stop,highway,POINT (12.501254 52.4252005)
373,Bahnhof Görden,bus_stop,"330346,1",5811466,"['Bus stop Bahnhof Görden, Brandenburg, 14770']",haltestelle bahnhof görden,52.4270437,12.5047184,"Bahnhof Görden, Gördenallee, Görden, Brandenburg an der Havel, Brandenburg, 14772, Deutschland",bus_stop,highway,POINT (12.5047184 52.4270437)
374,Geranienweg,bus_stop,"330610,4","5811395,5","['Bus stop Geranienweg, Brandenburg, 14770']",haltestelle geranienweg,52.4264962,12.5086376,"Geranienweg, Gördenallee, Görden, Brandenburg an der Havel, Brandenburg, 14772, Deutschland",bus_stop,highway,POINT (12.5086376 52.4264962)
375,Geranienweg,bus_stop,"330614,66","5811407,5","['Bus stop Geranienweg, Brandenburg, 14770']",haltestelle geranienweg,52.4264962,12.5086376,"Geranienweg, Gördenallee, Görden, Brandenburg an der Havel, Brandenburg, 14772, Deutschland",bus_stop,highway,POINT (12.5086376 52.4264962)
376,Gördenallee,bus_stop,"330962,16","5811304,5","['Bus stop Gördenallee, Brandenburg, 14770']",haltestelle gördenallee,52.4258093,12.5138892,"Gördenallee, Görden, Brandenburg an der Havel, Brandenburg, 14772, Deutschland",bus_stop,highway,POINT (12.5138892 52.4258093)
377,Gördenallee,bus_stop,"330964,78",5811307,"['Bus stop Gördenallee, Brandenburg, 14770']",haltestelle gördenallee,52.4258093,12.5138892,"Gördenallee, Görden, Brandenburg an der Havel, Brandenburg, 14772, Deutschland",bus_stop,highway,POINT (12.5138892 52.4258093)
378,Waldcafé Görden,bus_stop,"329911,34",5811606,"['Bus stop Waldcafé Görden, Brandenburg, 14770']",haltestelle waldcafé görden,52.4281682,12.4982592,"Waldcafé Görden, Anton-Saefkow-Allee, Kolonie Görden, Brandenburg an der Havel, Brandenburg, 14772, Deutschland",bus_stop,highway,POINT (12.4982592 52.4281682)
379,Berliner Straße,bus_stop,336199,"5808523,5","['Bus stop Berliner Straße, Brandenburg, 14770']",haltestelle berliner straße,52.4024004,12.5921599,"Berliner Straße, Neuschmerzke, Brandenburg an der Havel, Brandenburg, 14776, Deutschland",bus_stop,highway,POINT (12.5921599 52.4024004)
380,Berliner Straße,bus_stop,"336225,56",5808531,"['Bus stop Berliner Straße, Brandenburg, 14770']",haltestelle berliner straße,52.4024004,12.5921599,"Berliner Straße, Neuschmerzke, Brandenburg an der Havel, Brandenburg, 14776, Deutschland",bus_stop,highway,POINT (12.5921599 52.4024004)
381,Wust-Sportpark,bus_stop,"337780,78","5809187,5","['Bus stop Wust-Sportpark, Brandenburg, 14770']",haltestelle wust-sportpark,52.4088352,12.6150679,"Wust, Sportpark, An der Bundesstraße 1, Wust, Brandenburg an der Havel, Brandenburg, 14776, Deutschland",bus_stop,highway,POINT (12.6150679 52.4088352)
382,Nicolaiplatz,bus_stop,"333339,7",5809514,"['Bus stop Nicolaiplatz, Brandenburg, 14770']",haltestelle nicolaiplatz,52.4110113,12.5486743,"Nicolaiplatz, Altstadt, Brandenburg an der Havel, Brandenburg, 14770, Deutschland",bus_stop,highway,POINT (12.5486743 52.4110113)
383,Nicolaiplatz,bus_stop,"333375,53",5809616,"['Bus stop Nicolaiplatz, Brandenburg, 14770']",haltestelle nicolaiplatz,52.4110113,12.5486743,"Nicolaiplatz, Altstadt, Brandenburg an der Havel, Brandenburg, 14770, Deutschland",bus_stop,highway,POINT (12.5486743 52.4110113)
384,August-Bebel-Straße,bus_stop,"332171,72",5810894,"['Bus stop August-Bebel-Straße, Brandenburg, 14770']",haltestelle august-bebel-straße,52.4224708,12.5318298,"August-Bebel-Straße, Nord, Brandenburg an der Havel, Brandenburg, 14770, Deutschland",bus_stop,highway,POINT (12.5318298 52.4224708)
385,August-Bebel-Straße,bus_stop,"332195,44",5810897,"['Bus stop August-Bebel-Straße, Brandenburg, 14770']",haltestelle august-bebel-straße,52.4224708,12.5318298,"August-Bebel-Straße, Nord, Brandenburg an der Havel, Brandenburg, 14770, Deutschland",bus_stop,highway,POINT (12.5318298 52.4224708)
386,Rathenower Landstraße,bus_stop,"332115,47",5812358,"['Bus stop Rathenower Landstraße, Brandenburg, 14770']",haltestelle rathenower landstraße,52.4344788,12.5317337,"Rathenower Landstraße, Hohenstücken, Brandenburg an der Havel, Brandenburg, 14772, Deutschland",bus_stop,highway,POINT (12.5317337 52.4344788)
387,Rathenower Landstraße,bus_stop,"332132,44",5812359,"['Bus stop Rathenower Landstraße, Brandenburg, 14770']",haltestelle rathenower landstraße,52.4344788,12.5317337,"Rathenower Landstraße, Hohenstücken, Brandenburg an der Havel, Brandenburg, 14772, Deutschland",bus_stop,highway,POINT (12.5317337 52.4344788)
388,Technische Hochschule/THB,bus_stop,"332621,22",5809735,"['Bus stop Technische Hochschule/THB, Brandenburg, 14770']",haltestelle technische hochschule/thb,52.4121974,12.5390137,"Technische Hochschule/THB, Magdeburger Straße, Neuendorfer Vorstadt, Brandenburg an der Havel, Brandenburg, 14770, Deutschland",bus_stop,highway,POINT (12.5390137 52.4121974)
389,Dreifertstraße,bus_stop,"331526,22",5809859,"['Bus stop Dreifertstraße, Brandenburg, 14770']",haltestelle dreifertstraße,52.4135566,12.5238055,"Dreifertstraße, Friedrich-Franz-Straße, SWB-Industrie- und Gewerbepark, Walzwerksiedlung, Brandenburg an der Havel, Brandenburg, 14770, Deutschland",bus_stop,highway,POINT (12.5238055 52.4135566)
390,Dreifertstraße,bus_stop,"331522,75",5809882,"['Bus stop Dreifertstraße, Brandenburg, 14770']",haltestelle dreifertstraße,52.4135566,12.5238055,"Dreifertstraße, Friedrich-Franz-Straße, SWB-Industrie- und Gewerbepark, Walzwerksiedlung, Brandenburg an der Havel, Brandenburg, 14770, Deutschland",bus_stop,highway,POINT (12.5238055 52.4135566)
391,Frankenstraße,bus_stop,"330709,16",5809976,"['Bus stop Frankenstraße, Brandenburg, 14770']",haltestelle frankenstraße,52.4137771,12.5108070,"Frankenstraße, Magdeburger Landstraße, Walzwerksiedlung, Brandenburg an der Havel, Brandenburg, 14770, Deutschland",bus_stop,highway,POINT (12.510807 52.4137771)
392,Frankenstraße,bus_stop,"330742,3",5809990,"['Bus stop Frankenstraße, Brandenburg, 14770']",haltestelle frankenstraße,52.4137771,12.5108070,"Frankenstraße, Magdeburger Landstraße, Walzwerksiedlung, Brandenburg an der Havel, Brandenburg, 14770, Deutschland",bus_stop,highway,POINT (12.510807 52.4137771)
393,Hessenweg,bus_stop,"330458,25",5810023,"['Bus stop Hessenweg, Brandenburg, 14770']",haltestelle hessenweg,52.4141178,12.5070980,"Hessenweg, Magdeburger Landstraße, Walzwerksiedlung, Brandenburg an der Havel, Brandenburg, 14770, Deutschland",bus_stop,highway,POINT (12.507098 52.4141178)
394,Hessenweg,bus_stop,"330449,5","5810045,5","['Bus stop Hessenweg, Brandenburg, 14770']",haltestelle hessenweg,52.4141178,12.5070980,"Hessenweg, Magdeburger Landstraße, Walzwerksiedlung, Brandenburg an der Havel, Brandenburg, 14770, Deutschland",bus_stop,highway,POINT (12.507098 52.4141178)
395,Nicolaiplatz,bus_stop,"333273,7","5809580,5","['Bus stop Nicolaiplatz, Brandenburg, 14770']",haltestelle nicolaiplatz,52.4110113,12.5486743,"Nicolaiplatz, Altstadt, Brandenburg an der Havel, Brandenburg, 14770, Deutschland",bus_stop,highway,POINT (12.5486743 52.4110113)
396,Nicolaiplatz,bus_stop,333278,5809589,"['Bus stop Nicolaiplatz, Brandenburg, 14770']",haltestelle nicolaiplatz,52.4110113,12.5486743,"Nicolaiplatz, Altstadt, Brandenburg an der Havel, Brandenburg, 14770, Deutschland",bus_stop,highway,POINT (12.5486743 52.4110113)
397,"Mötzow, Dorf",bus_stop,"336273,12",5815406,"['Bus stop Mötzow Dorf, Brandenburg, 14770']","haltestelle mötzow, dorf",52.4642423,12.5898767,"Mötzow, Dorf, Mötzower Dorfstraße, Mötzow, Butzow, Beetzseeheide, Amt Beetzsee, Potsdam-Mittelmark, Brandenburg, 14778, Deutschland",bus_stop,highway,POINT (12.5898767 52.4642423)
398,Segelflugplatz,bus_stop,"335678,44","5812678,5","['Bus stop Segelflugplatz, Brandenburg, 14770']",haltestelle segelflugplatz,52.4395416,12.5824871,"Segelflugplatz, Mötzower Landstraße, Mötzower Vorstadt, Brandenburg an der Havel, Brandenburg, 14776, Deutschland",bus_stop,highway,POINT (12.5824871 52.4395416)
399,Schmerzke,bus_stop,"336289,66","5806991,5","['Bus stop Schmerzke, Brandenburg, 14770']",haltestelle schmerzke,52.3889632,12.5938864,"Schmerzke, Altes Dorf, Schmerzke, Brandenburg an der Havel, Brandenburg, 14776, Deutschland",bus_stop,highway,POINT (12.5938864 52.3889632)
400,Friedhof,bus_stop,"339263,5","5805381,5","['Bus stop Friedhof, Brandenburg, 14770']",haltestelle friedhof,52.3758739,12.6388835,"Friedhof, Rietzer Dorfstraße, Rietz, Kloster Lehnin, Potsdam-Mittelmark, Brandenburg, 14797, Deutschland",bus_stop,highway,POINT (12.6388835 52.3758739)
401,Friedhof,bus_stop,"339284,56",5805471,"['Bus stop Friedhof, Brandenburg, 14770']",haltestelle friedhof,52.3758739,12.6388835,"Friedhof, Rietzer Dorfstraße, Rietz, Kloster Lehnin, Potsdam-Mittelmark, Brandenburg, 14797, Deutschland",bus_stop,highway,POINT (12.6388835 52.3758739)
402,"Rietz (bei Brandenburg), Dorf",bus_stop,"338972,34",5804934,"['Bus stop Rietz (bei Brandenburg) Dorf, Brandenburg, 14770']","haltestelle rietz (bei brandenburg), dorf",52.3709773,12.6346144,"Rietz (bei Brandenburg), Dorf, Prützker Straße, Rietz, Kloster Lehnin, Potsdam-Mittelmark, Brandenburg, 14797, Deutschland",bus_stop,highway,POINT (12.6346144 52.3709773)
403,"Rietz (bei Brandenburg), Dorf",bus_stop,"338979,1",5804954,"['Bus stop Rietz (bei Brandenburg) Dorf, Brandenburg, 14770']","haltestelle rietz (bei brandenburg), dorf",52.3709773,12.6346144,"Rietz (bei Brandenburg), Dorf, Prützker Straße, Rietz, Kloster Lehnin, Potsdam-Mittelmark, Brandenburg, 14797, Deutschland",bus_stop,highway,POINT (12.6346144 52.3709773)
404,Grebs (bei Lehnin),bus_stop,"340630,22","5801322,5","['Bus stop Grebs (bei Lehnin), Brandenburg, 14770']",haltestelle grebs (bei lehnin),52.3389638,12.6599711,"Grebs (bei Lehnin), Netzener Straße, Grebs, Kloster Lehnin, Potsdam-Mittelmark, Brandenburg, 14797, Deutschland",bus_stop,highway,POINT (12.6599711 52.3389638)
405,Grebs (bei Lehnin),bus_stop,"340579,2",5801320,"['Bus stop Grebs (bei Lehnin), Brandenburg, 14770']",haltestelle grebs (bei lehnin),52.3389638,12.6599711,"Grebs (bei Lehnin), Netzener Straße, Grebs, Kloster Lehnin, Potsdam-Mittelmark, Brandenburg, 14797, Deutschland",bus_stop,highway,POINT (12.6599711 52.3389638)
406,Görnsee,bus_stop,"340050,9",5801443,"['Bus stop Görnsee, Brandenburg, 14770']",haltestelle görnsee,52.3400820,12.6518522,"Görnsee, Görnseestraße, Grebs, Kloster Lehnin, Potsdam-Mittelmark, Brandenburg, 14797, Deutschland",bus_stop,highway,POINT (12.6518522 52.340082)
407,Görnsee,bus_stop,"340034,1",5801460,"['Bus stop Görnsee, Brandenburg, 14770']",haltestelle görnsee,52.3400820,12.6518522,"Görnsee, Görnseestraße, Grebs, Kloster Lehnin, Potsdam-Mittelmark, Brandenburg, 14797, Deutschland",bus_stop,highway,POINT (12.6518522 52.340082)
408,"Netzen, Dorf",bus_stop,"342141,75","5801497,5","['Bus stop Netzen Dorf, Brandenburg, 14770']","haltestelle netzen, dorf",52.3409884,12.6827682,"Netzen, Dorf, Lehniner Chaussee, Netzen, Kloster Lehnin, Potsdam-Mittelmark, Brandenburg, 14797, Deutschland",bus_stop,highway,POINT (12.6827682 52.3409884)
409,"Netzen, Dorf",bus_stop,"342174,22","5801494,5","['Bus stop Netzen Dorf, Brandenburg, 14770']","haltestelle netzen, dorf",52.3409884,12.6827682,"Netzen, Dorf, Lehniner Chaussee, Netzen, Kloster Lehnin, Potsdam-Mittelmark, Brandenburg, 14797, Deutschland",bus_stop,highway,POINT (12.6827682 52.3409884)
410,Klostertrift,bus_stop,"342894,03","5801397,5","['Bus stop Klostertrift, Brandenburg, 14770']",haltestelle klostertrift,52.3403490,12.6938252,"Klostertrift, Lehniner Chaussee, Netzen, Kloster Lehnin, Potsdam-Mittelmark, Brandenburg, 14797, Deutschland",bus_stop,highway,POINT (12.6938252 52.340349)
411,Klostertrift,bus_stop,"342915,06",5801380,"['Bus stop Klostertrift, Brandenburg, 14770']",haltestelle klostertrift,52.3403490,12.6938252,"Klostertrift, Lehniner Chaussee, Netzen, Kloster Lehnin, Potsdam-Mittelmark, Brandenburg, 14797, Deutschland",bus_stop,highway,POINT (12.6938252 52.340349)
412,Emstaler Straße,bus_stop,"347603,9",5798896,"['Bus stop Emstaler Straße, Brandenburg, 14770']",haltestelle emstaler straße,52.3192060,12.7640378,"Emstaler Straße, Beelitzer Straße, Lehnin, Kloster Lehnin, Potsdam-Mittelmark, Brandenburg, 14797, Deutschland",bus_stop,highway,POINT (12.7640378 52.319206)
413,Emstaler Straße,bus_stop,"347627,5",5798872,"['Bus stop Emstaler Straße, Brandenburg, 14770']",haltestelle emstaler straße,52.3192060,12.7640378,"Emstaler Straße, Beelitzer Straße, Lehnin, Kloster Lehnin, Potsdam-Mittelmark, Brandenburg, 14797, Deutschland",bus_stop,highway,POINT (12.7640378 52.319206)
414,Waldsiedlung,bus_stop,"348123,2",5798598,"['Bus stop Waldsiedlung, Brandenburg, 14770']",haltestelle waldsiedlung,52.3166708,12.7717851,"Waldsiedlung, Beelitzer Straße, Lehnin, Kloster Lehnin, Potsdam-Mittelmark, Brandenburg, 14797, Deutschland",bus_stop,highway,POINT (12.7717851 52.3166708)
415,"Saaringen, Dorf",bus_stop,"341126,25",5812927,"['Bus stop Saaringen Dorf, Brandenburg, 14770']","haltestelle saaringen, dorf",52.4434059,12.6624310,"Saaringen, Dorf, Saaringer Dorfstraße, Klein Kreutz/Saaringen, Brandenburg an der Havel, Brandenburg, 14776, Deutschland",bus_stop,highway,POINT (12.662431 52.4434059)
416,Abzweig Saaringen,bus_stop,"340668,75","5813537,5","['Bus stop Abzweig Saaringen, Brandenburg, 14770']",haltestelle abzweig saaringen,52.4487821,12.6554123,"Abzweig Saaringen, L 91, Klein Kreutz/Saaringen, Brandenburg an der Havel, Amt Beetzsee, Potsdam-Mittelmark, Brandenburg, 14776, Deutschland",bus_stop,highway,POINT (12.6554123 52.4487821)
417,Abzweig Saaringen,bus_stop,"340687,38","5813537,5","['Bus stop Abzweig Saaringen, Brandenburg, 14770']",haltestelle abzweig saaringen,52.4487821,12.6554123,"Abzweig Saaringen, L 91, Klein Kreutz/Saaringen, Brandenburg an der Havel, Amt Beetzsee, Potsdam-Mittelmark, Brandenburg, 14776, Deutschland",bus_stop,highway,POINT (12.6554123 52.4487821)
418,"Weseram, Ausbau",bus_stop,"341047,94",5814128,"['Bus stop Weseram Ausbau, Brandenburg, 14770']","haltestelle weseram, ausbau",52.4541738,12.6607079,"Weseram, Ausbau, Hauptstraße, Weseram Ausbau, Weseram, Roskow, Amt Beetzsee, Potsdam-Mittelmark, Brandenburg, 14778, Deutschland",bus_stop,highway,POINT (12.6607079 52.4541738)
419,"Weseram, Ausbau",bus_stop,"341058,28","5814126,5","['Bus stop Weseram Ausbau, Brandenburg, 14770']","haltestelle weseram, ausbau",52.4541738,12.6607079,"Weseram, Ausbau, Hauptstraße, Weseram Ausbau, Weseram, Roskow, Amt Beetzsee, Potsdam-Mittelmark, Brandenburg, 14778, Deutschland",bus_stop,highway,POINT (12.6607079 52.4541738)
420,"Weseram, Dorf",bus_stop,"341974,62",5815066,"['Bus stop Weseram Dorf, Brandenburg, 14770']","haltestelle weseram, dorf",52.4628703,12.6738894,"Weseram, Dorf, Hauptstraße, Weseram, Roskow, Amt Beetzsee, Potsdam-Mittelmark, Brandenburg, 14778, Deutschland",bus_stop,highway,POINT (12.6738894 52.4628703)
421,"Roskow, Abzweig",bus_stop,"343625,9","5816819,5","['Bus stop Roskow Abzweig, Brandenburg, 14770']","haltestelle roskow, abzweig",52.4790947,12.6973522,"Roskow, Abzweig, L 91, Roskow, Amt Beetzsee, Potsdam-Mittelmark, Brandenburg, 14778, Deutschland",bus_stop,highway,POINT (12.6973522 52.4790947)
422,Alter Bahnhof,bus_stop,"344555,53","5816215,5","['Bus stop Alter Bahnhof, Brandenburg, 14770']",haltestelle alter bahnhof,52.4736602,12.7109505,"Alter Bahnhof, Am alten Bahnhof, Roskow, Amt Beetzsee, Potsdam-Mittelmark, Brandenburg, 14778, Deutschland",bus_stop,highway,POINT (12.7109505 52.4736602)
423,"Roskow, Abzwieg",bus_stop,"343677,16","5816842,5","['Bus stop Roskow Abzwieg, Brandenburg, 14770']","haltestelle roskow, abzwieg",52.4793185,12.6980952,"Roskow, Abzwieg, Brandenburger Straße, Roskow, Amt Beetzsee, Potsdam-Mittelmark, Brandenburg, 14778, Deutschland",bus_stop,highway,POINT (12.6980952 52.4793185)
424,"Roskow, Abzweig",bus_stop,"343668,06",5816923,"['Bus stop Roskow Abzweig, Brandenburg, 14770']","haltestelle roskow, abzweig",52.4790947,12.6973522,"Roskow, Abzweig, L 91, Roskow, Amt Beetzsee, Potsdam-Mittelmark, Brandenburg, 14778, Deutschland",bus_stop,highway,POINT (12.6973522 52.4790947)
425,Schule,bus_stop,"345214,75",5815882,"['Bus stop Schule, Brandenburg, 14770']",haltestelle schule,52.4829607,12.5861166,"Schule, 11, Am Hasselberg, Radewege, Beetzsee, Amt Beetzsee, Potsdam-Mittelmark, Brandenburg, 14778, Deutschland",bus_stop,highway,POINT (12.5861166 52.4829607)
426,Päwesin,bus_stop,"344864,03","5820402,5","['Bus stop Päwesin, Brandenburg, 14770']",haltestelle päwesin,52.5116339,12.7138987,"Päwesin, Kirchplatz, Bagow, Päwesin, Amt Beetzsee, Potsdam-Mittelmark, Brandenburg, 14778, Deutschland",bus_stop,highway,POINT (12.7138987 52.5116339)
427,Dorfplatz,bus_stop,"349463,25",5817114,"['Bus stop Dorfplatz, Brandenburg, 14770']",haltestelle dorfplatz,52.4834344,12.7826177,"Dorfplatz, Dorfstraße, Zachow, Ketzin/Havel, Havelland, Brandenburg, 14669, Deutschland",bus_stop,highway,POINT (12.7826177 52.4834344)
428,Herrenhölzer Weg,bus_stop,319307,"5809978,5","['Bus stop Herrenhölzer Weg, Brandenburg, 14770']",haltestelle herrenhölzer weg,52.4101303,12.3433496,"Herrenhölzer Weg, Neubensdorf, Bensdorf, Wusterwitz, Potsdam-Mittelmark, Brandenburg, 14789, Deutschland",bus_stop,highway,POINT (12.3433496 52.4101303)
429,Vehlen,bus_stop,"317981,22",5812296,"['Bus stop Vehlen, Brandenburg, 14770']",haltestelle vehlen,52.4305358,12.3226920,"Vehlen, Bergstraße, Vehlen, Bensdorf, Wusterwitz, Potsdam-Mittelmark, Brandenburg, 14789, Deutschland",bus_stop,highway,POINT (12.322692 52.4305358)
430,Bahnhof,bus_stop,"327569,56","5819567,5","['Bus stop Bahnhof, Brandenburg, 14770']",haltestelle bahnhof,52.4989389,12.4597367,"Bahnhof, An der Marzahner Chaussee, Pritzerbe, Havelsee, Amt Beetzsee, Potsdam-Mittelmark, Brandenburg, 14798, Deutschland",bus_stop,highway,POINT (12.4597367 52.4989389)
431,Schule,bus_stop,"327353,03",5819112,"['Bus stop Schule, Brandenburg, 14770']",haltestelle schule,52.4829607,12.5861166,"Schule, 11, Am Hasselberg, Radewege, Beetzsee, Amt Beetzsee, Potsdam-Mittelmark, Brandenburg, 14778, Deutschland",bus_stop,highway,POINT (12.5861166 52.4829607)
432,Marzahner Chaussee,bus_stop,"328427,6","5820201,5","['Bus stop Marzahner Chaussee, Brandenburg, 14770']",haltestelle marzahner chaussee,52.5048216,12.4721204,"Marzahner Chaussee, An der Marzahner Chaussee, Pritzerbe, Havelsee, Amt Beetzsee, Potsdam-Mittelmark, Brandenburg, 14798, Deutschland",bus_stop,highway,POINT (12.4721204 52.5048216)
433,Marzahner Chaussee,bus_stop,"328432,94",5820192,"['Bus stop Marzahner Chaussee, Brandenburg, 14770']",haltestelle marzahner chaussee,52.5048216,12.4721204,"Marzahner Chaussee, An der Marzahner Chaussee, Pritzerbe, Havelsee, Amt Beetzsee, Potsdam-Mittelmark, Brandenburg, 14798, Deutschland",bus_stop,highway,POINT (12.4721204 52.5048216)
434,Dammstraße,bus_stop,"327441,88","5819471,5","['Bus stop Dammstraße, Brandenburg, 14770']",haltestelle dammstraße,52.4980370,12.4579074,"Dammstraße, Kützkow, Pritzerbe, Havelsee, Amt Beetzsee, Potsdam-Mittelmark, Brandenburg, 14798, Deutschland",bus_stop,highway,POINT (12.4579074 52.498037)
435,Am Flachsberg,bus_stop,"340758,56","5820199,5","['Bus stop Am Flachsberg, Brandenburg, 14770']",haltestelle am flachsberg,52.5085155,12.6535512,"Am Flachsberg, L 912, Gortz, Beetzseeheide, Amt Beetzsee, Potsdam-Mittelmark, Brandenburg, 14778, Deutschland",bus_stop,highway,POINT (12.6535512 52.5085155)
436,Am Flachsberg,bus_stop,"340758,12",5820187,"['Bus stop Am Flachsberg, Brandenburg, 14770']",haltestelle am flachsberg,52.5085155,12.6535512,"Am Flachsberg, L 912, Gortz, Beetzseeheide, Amt Beetzsee, Potsdam-Mittelmark, Brandenburg, 14778, Deutschland",bus_stop,highway,POINT (12.6535512 52.5085155)
437,Bollmannsruh,bus_stop,"342788,9",5820104,"['Bus stop Bollmannsruh, Brandenburg, 14770']",haltestelle bollmannsruh,52.5083000,12.6830903,"Bollmannsruh, L 912, Gortz, Päwesin, Amt Beetzsee, Potsdam-Mittelmark, Brandenburg, 14778, Deutschland",bus_stop,highway,POINT (12.6830903 52.5083)
438,Bollmannsruh,bus_stop,"342761,75","5820098,5","['Bus stop Bollmannsruh, Brandenburg, 14770']",haltestelle bollmannsruh,52.5083000,12.6830903,"Bollmannsruh, L 912, Gortz, Päwesin, Amt Beetzsee, Potsdam-Mittelmark, Brandenburg, 14778, Deutschland",bus_stop,highway,POINT (12.6830903 52.5083)
439,Bagow,bus_stop,"343887,62","5820666,5","['Bus stop Bagow, Brandenburg, 14770']",haltestelle bagow,52.5137254,12.6993987,"Bagow, Bagower Dorfstraße, Bagow, Päwesin, Amt Beetzsee, Potsdam-Mittelmark, Brandenburg, 14778, Deutschland",bus_stop,highway,POINT (12.6993987 52.5137254)
440,Bagow,bus_stop,"343885,12",5820675,"['Bus stop Bagow, Brandenburg, 14770']",haltestelle bagow,52.5137254,12.6993987,"Bagow, Bagower Dorfstraße, Bagow, Päwesin, Amt Beetzsee, Potsdam-Mittelmark, Brandenburg, 14778, Deutschland",bus_stop,highway,POINT (12.6993987 52.5137254)
441,Vogelgesang,bus_stop,"343684,88","5821210,5","['Bus stop Vogelgesang, Brandenburg, 14770']",haltestelle vogelgesang,52.5185200,12.6960052,"Vogelgesang, Bagower Dorfstraße, Vogelgesang, Bagow, Päwesin, Amt Beetzsee, Potsdam-Mittelmark, Brandenburg, 14778, Deutschland",bus_stop,highway,POINT (12.6960052 52.51852)
442,Vogelgesang,bus_stop,"343674,4",5821207,"['Bus stop Vogelgesang, Brandenburg, 14770']",haltestelle vogelgesang,52.5185200,12.6960052,"Vogelgesang, Bagower Dorfstraße, Vogelgesang, Bagow, Päwesin, Amt Beetzsee, Potsdam-Mittelmark, Brandenburg, 14778, Deutschland",bus_stop,highway,POINT (12.6960052 52.51852)
443,Ziegelei,bus_stop,"344089,97","5822176,5","['Bus stop Ziegelei, Brandenburg, 14770']",haltestelle ziegelei,52.5273805,12.7015339,"Ziegelei, K 6942, Vogelgesang, Bagow, Päwesin, Amt Beetzsee, Potsdam-Mittelmark, Brandenburg, 14778, Deutschland",bus_stop,highway,POINT (12.7015339 52.5273805)
444,Ziegelei,bus_stop,"344080,84",5822180,"['Bus stop Ziegelei, Brandenburg, 14770']",haltestelle ziegelei,52.5273805,12.7015339,"Ziegelei, K 6942, Vogelgesang, Bagow, Päwesin, Amt Beetzsee, Potsdam-Mittelmark, Brandenburg, 14778, Deutschland",bus_stop,highway,POINT (12.7015339 52.5273805)
445,Schulverkehr,bus_stop,"344044,84","5820667,5","['Bus stop Schulverkehr, Brandenburg, 14770']",haltestelle schulverkehr,52.5137833,12.7017129,"Schulverkehr, Bagower Dorfstraße, Bagow, Päwesin, Amt Beetzsee, Potsdam-Mittelmark, Brandenburg, 14778, Deutschland",bus_stop,highway,POINT (12.7017129 52.5137833)
446,Haltestelle Schulverkehr,bus_stop,"340010,97","5820862,5","['Bus stop Haltestelle Schulverkehr, Brandenburg, 14770']",haltestelle schulverkehr,,,,,,
447,Krahnepuhl (bei Brandenburg),bus_stop,"325971,88",5815023,"['Bus stop Krahnepuhl (bei Brandenburg), Brandenburg, 14770']",haltestelle krahnepuhl (bei brandenburg),52.4572368,12.4384749,"Krahnepuhl (bei Brandenburg), Ziegelei, Krahnepuhl, Briest, Havelsee, Amt Beetzsee, Potsdam-Mittelmark, Brandenburg, 14798, Deutschland",bus_stop,highway,POINT (12.4384749 52.4572368)
448,Krahnepuhl (bei Brandenburg),bus_stop,"325962,03",5814981,"['Bus stop Krahnepuhl (bei Brandenburg), Brandenburg, 14770']",haltestelle krahnepuhl (bei brandenburg),52.4572368,12.4384749,"Krahnepuhl (bei Brandenburg), Ziegelei, Krahnepuhl, Briest, Havelsee, Amt Beetzsee, Potsdam-Mittelmark, Brandenburg, 14798, Deutschland",bus_stop,highway,POINT (12.4384749 52.4572368)
449,Wendestelle,bus_stop,"327070,34","5816302,5","['Bus stop Wendestelle, Brandenburg, 14770']",haltestelle wendestelle,52.4695901,12.4539124,"Wendestelle, Am Kolonieweg, Fohrde, Havelsee, Amt Beetzsee, Potsdam-Mittelmark, Brandenburg, 14798, Deutschland",bus_stop,highway,POINT (12.4539124 52.4695901)
450,"Tieckow, Dorf",bus_stop,"327109,84",5816767,"['Bus stop Tieckow Dorf, Brandenburg, 14770']","haltestelle tieckow, dorf",,,,,,
451,"Tieckow, Dorf",bus_stop,"327102,44","5816762,5","['Bus stop Tieckow Dorf, Brandenburg, 14770']","haltestelle tieckow, dorf",,,,,,
452,Dorf,bus_stop,"328322,8","5817709,5","['Bus stop Dorf, Brandenburg, 14770']",haltestelle dorf,52.4414372,12.4264739,"Dorf, Dorfstraße, Briest, Havelsee, Amt Beetzsee, Potsdam-Mittelmark, Brandenburg, 14798, Deutschland",bus_stop,highway,POINT (12.4264739 52.4414372)
453,Dorf,bus_stop,"328325,06","5817769,5","['Bus stop Dorf, Brandenburg, 14770']",haltestelle dorf,52.4414372,12.4264739,"Dorf, Dorfstraße, Briest, Havelsee, Amt Beetzsee, Potsdam-Mittelmark, Brandenburg, 14798, Deutschland",bus_stop,highway,POINT (12.4264739 52.4414372)
454,Pritzerber Straße,bus_stop,"327831,8","5818281,5","['Bus stop Pritzerber Straße, Brandenburg, 14770']",haltestelle pritzerber straße,52.4874727,12.4642608,"Pritzerber Straße, Rote Ziegelei, Fohrde, Havelsee, Amt Beetzsee, Potsdam-Mittelmark, Brandenburg, 14798, Deutschland",bus_stop,highway,POINT (12.4642608 52.4874727)
455,Pritzerber Straße,bus_stop,"327823,88","5818278,5","['Bus stop Pritzerber Straße, Brandenburg, 14770']",haltestelle pritzerber straße,52.4874727,12.4642608,"Pritzerber Straße, Rote Ziegelei, Fohrde, Havelsee, Amt Beetzsee, Potsdam-Mittelmark, Brandenburg, 14798, Deutschland",bus_stop,highway,POINT (12.4642608 52.4874727)
456,Landstraße,bus_stop,"327851,88","5818032,5","['Bus stop Landstraße, Brandenburg, 14770']",haltestelle landstraße,52.4846303,12.4654079,"Landstraße, B 102, Rote Ziegelei, Fohrde, Havelsee, Amt Beetzsee, Potsdam-Mittelmark, Brandenburg, 14798, Deutschland",bus_stop,highway,POINT (12.4654079 52.4846303)
457,Mühlenweg,bus_stop,"325076,22",5812712,"['Bus stop Mühlenweg, Brandenburg, 14770']",haltestelle mühlenweg,52.4690797,12.5377878,"Mühlenweg, Chausseestraße, Brielow, Beetzsee, Amt Beetzsee, Potsdam-Mittelmark, Brandenburg, 14778, Deutschland",bus_stop,highway,POINT (12.5377878 52.4690797)
458,Kaltenhausen,bus_stop,"325656,84","5811457,5","['Bus stop Kaltenhausen, Brandenburg, 14770']",haltestelle kaltenhausen,52.4254935,12.4360028,"Kaltenhausen, Briest, Havelsee, Amt Beetzsee, Potsdam-Mittelmark, Brandenburg, 14798, Deutschland",bus_stop,highway,POINT (12.4360028 52.4254935)
459,"Briest (PM), Dorf",bus_stop,"325084,2",5813253,"['Bus stop Briest (PM) Dorf, Brandenburg, 14770']","haltestelle briest (pm), dorf",52.4415964,12.4262780,"Briest (PM), Dorf, Dorfstraße, Briest, Havelsee, Amt Beetzsee, Potsdam-Mittelmark, Brandenburg, 14798, Deutschland",bus_stop,highway,POINT (12.426278 52.4415964)
460,Kaltenhausen,bus_stop,"325668,8",5811457,"['Bus stop Kaltenhausen, Brandenburg, 14770']",haltestelle kaltenhausen,52.4254935,12.4360028,"Kaltenhausen, Briest, Havelsee, Amt Beetzsee, Potsdam-Mittelmark, Brandenburg, 14798, Deutschland",bus_stop,highway,POINT (12.4360028 52.4254935)
461,Mühlenweg,bus_stop,"325085,12","5812700,5","['Bus stop Mühlenweg, Brandenburg, 14770']",haltestelle mühlenweg,52.4690797,12.5377878,"Mühlenweg, Chausseestraße, Brielow, Beetzsee, Amt Beetzsee, Potsdam-Mittelmark, Brandenburg, 14778, Deutschland",bus_stop,highway,POINT (12.5377878 52.4690797)
462,"Briest (PM), Dorf",bus_stop,"325071,5",5813271,"['Bus stop Briest (PM) Dorf, Brandenburg, 14770']","haltestelle briest (pm), dorf",52.4415964,12.4262780,"Briest (PM), Dorf, Dorfstraße, Briest, Havelsee, Amt Beetzsee, Potsdam-Mittelmark, Brandenburg, 14798, Deutschland",bus_stop,highway,POINT (12.426278 52.4415964)
463,"Hohenferchesar, Dorf",bus_stop,"330283,78","5819296,5","['Bus stop Hohenferchesar Dorf, Brandenburg, 14770']","haltestelle hohenferchesar, dorf",52.4973785,12.4998087,"Hohenferchesar, Dorf, Heerstraße, Hohenferchesar, Havelsee, Amt Beetzsee, Potsdam-Mittelmark, Brandenburg, 14798, Deutschland",bus_stop,highway,POINT (12.4998087 52.4973785)
464,Marzahne,bus_stop,"332663,25","5820840,5","['Bus stop Marzahne, Brandenburg, 14770']",haltestelle marzahne,52.5116978,12.5342940,"Marzahne, Marzahner Straße, Marzahne, Havelsee, Amt Beetzsee, Potsdam-Mittelmark, Brandenburg, 14798, Deutschland",bus_stop,highway,POINT (12.534294 52.5116978)
465,"Brielow, Dorf",bus_stop,"332671,16",5815296,"['Bus stop Brielow Dorf, Brandenburg, 14770']","haltestelle brielow, dorf",52.4620792,12.5372058,"Brielow, Dorf, Chausseestraße, Brielow, Beetzsee, Amt Beetzsee, Potsdam-Mittelmark, Brandenburg, 14778, Deutschland",bus_stop,highway,POINT (12.5372058 52.4620792)
466,"Radewege, Siedlung",bus_stop,"332855,06","5816919,5","['Bus stop Radewege Siedlung, Brandenburg, 14770']","haltestelle radewege, siedlung",52.4761334,12.5386984,"Radewege, Siedlung, Kastanienstraße, Radewege Siedlung, Radewege, Beetzsee, Amt Beetzsee, Potsdam-Mittelmark, Brandenburg, 14778, Deutschland",bus_stop,highway,POINT (12.5386984 52.4761334)
467,Mühlenweg,bus_stop,"332741,72",5816071,"['Bus stop Mühlenweg, Brandenburg, 14770']",haltestelle mühlenweg,52.4690797,12.5377878,"Mühlenweg, Chausseestraße, Brielow, Beetzsee, Amt Beetzsee, Potsdam-Mittelmark, Brandenburg, 14778, Deutschland",bus_stop,highway,POINT (12.5377878 52.4690797)
468,Freiheitsweg,bus_stop,"332810,2",5813954,"['Bus stop Freiheitsweg, Brandenburg, 14770']",haltestelle freiheitsweg,52.4501523,12.5396786,"Freiheitsweg, Chausseestraße, Blumensiedlung, Brielow Ausbau, Brielow, Beetzsee, Amt Beetzsee, Potsdam-Mittelmark, Brandenburg, 14778, Deutschland",bus_stop,highway,POINT (12.5396786 52.4501523)
469,"Wust, Ortsmitte",bus_stop,"337368,7","5809800,5","['Bus stop Wust Ortsmitte, Brandenburg, 14770']","haltestelle wust, ortsmitte",52.4142178,12.6087172,"Wust, Ortsmitte, Wuster Straße, Wust, Brandenburg an der Havel, Brandenburg, 14776, Deutschland",bus_stop,highway,POINT (12.6087172 52.4142178)
470,"Wust, Ortsmitte",bus_stop,"337400,7",5809838,"['Bus stop Wust Ortsmitte, Brandenburg, 14770']","haltestelle wust, ortsmitte",52.4142178,12.6087172,"Wust, Ortsmitte, Wuster Straße, Wust, Brandenburg an der Havel, Brandenburg, 14776, Deutschland",bus_stop,highway,POINT (12.6087172 52.4142178)
471,"Wust, An der B1",bus_stop,"337806,34",5809435,"['Bus stop Wust An der B1, Brandenburg, 14770']","haltestelle wust, an der b1",52.4110667,12.6153234,"Wust, An der B1, Wuster Straße, Wust, Brandenburg an der Havel, Brandenburg, 14776, Deutschland",bus_stop,highway,POINT (12.6153234 52.4110667)
472,Kindergarten,bus_stop,"345325,66",5809762,"['Bus stop Kindergarten, Brandenburg, 14770']",haltestelle kindergarten,52.4161825,12.7256292,"Kindergarten, Deetzer Weg, Götz, Groß Kreutz (Havel), Potsdam-Mittelmark, Brandenburg, 14550, Deutschland",bus_stop,highway,POINT (12.7256292 52.4161825)
473,Kindergarten,bus_stop,"345326,4","5809751,5","['Bus stop Kindergarten, Brandenburg, 14770']",haltestelle kindergarten,52.4161825,12.7256292,"Kindergarten, Deetzer Weg, Götz, Groß Kreutz (Havel), Potsdam-Mittelmark, Brandenburg, 14550, Deutschland",bus_stop,highway,POINT (12.7256292 52.4161825)
474,Dorf,bus_stop,"348480,94",5812909,"['Bus stop Dorf, Brandenburg, 14770']",haltestelle dorf,52.4414372,12.4264739,"Dorf, Dorfstraße, Briest, Havelsee, Amt Beetzsee, Potsdam-Mittelmark, Brandenburg, 14798, Deutschland",bus_stop,highway,POINT (12.4264739 52.4414372)
475,Ortsmitte,bus_stop,"344882,03",5810082,"['Bus stop Ortsmitte, Brandenburg, 14770']",haltestelle ortsmitte,52.2829280,12.4681877,"Ortsmitte, Poststraße, Wollin, Ziesar, Potsdam-Mittelmark, Brandenburg, 14778, Deutschland",bus_stop,highway,POINT (12.4681877 52.282928)
476,Waldweg,bus_stop,"344466,5",5810891,"['Bus stop Waldweg, Brandenburg, 14770']",haltestelle waldweg,52.4260807,12.7124819,"Waldweg, Havelstraße, Götz, Groß Kreutz (Havel), Potsdam-Mittelmark, Brandenburg, 14550, Deutschland",bus_stop,highway,POINT (12.7124819 52.4260807)
477,Waldweg,bus_stop,"344475,9","5810894,5","['Bus stop Waldweg, Brandenburg, 14770']",haltestelle waldweg,52.4260807,12.7124819,"Waldweg, Havelstraße, Götz, Groß Kreutz (Havel), Potsdam-Mittelmark, Brandenburg, 14550, Deutschland",bus_stop,highway,POINT (12.7124819 52.4260807)
478,"Radewege, Nord",bus_stop,"335068,56",5817201,"['Bus stop Radewege Nord, Brandenburg, 14770']","haltestelle radewege, nord",52.4799716,12.5711510,"Radewege, Nord, Dorfstraße, Radewege, Beetzsee, Amt Beetzsee, Potsdam-Mittelmark, Brandenburg, 14778, Deutschland",bus_stop,highway,POINT (12.571151 52.4799716)
479,"Radewege, Nord",bus_stop,"335060,1",5817198,"['Bus stop Radewege Nord, Brandenburg, 14770']","haltestelle radewege, nord",52.4799716,12.5711510,"Radewege, Nord, Dorfstraße, Radewege, Beetzsee, Amt Beetzsee, Potsdam-Mittelmark, Brandenburg, 14778, Deutschland",bus_stop,highway,POINT (12.571151 52.4799716)
480,Butzow,bus_stop,"337117,12","5818342,5","['Bus stop Butzow, Brandenburg, 14770']",haltestelle butzow,52.4905330,12.6008350,"Butzow, Butzower Dorfstraße, Butzow, Beetzseeheide, Amt Beetzsee, Potsdam-Mittelmark, Brandenburg, 14778, Deutschland",bus_stop,highway,POINT (12.600835 52.490533)
481,Butzow,bus_stop,"337114,62",5818305,"['Bus stop Butzow, Brandenburg, 14770']",haltestelle butzow,52.4905330,12.6008350,"Butzow, Butzower Dorfstraße, Butzow, Beetzseeheide, Amt Beetzsee, Potsdam-Mittelmark, Brandenburg, 14778, Deutschland",bus_stop,highway,POINT (12.600835 52.490533)
482,"Ketzür, Dorf",bus_stop,"339003,1",5818952,"['Bus stop Ketzür Dorf, Brandenburg, 14770']","haltestelle ketzür, dorf",52.4969069,12.6283117,"Ketzür, Ketzürer Dorfstraße, Ketzür, Beetzseeheide, Amt Beetzsee, Potsdam-Mittelmark, Brandenburg, 14778, Deutschland",bus_stop,highway,POINT (12.6283117 52.4969069)
483,"Gortz, Dorf",bus_stop,"340163,75",5820632,"['Bus stop Gortz Dorf, Brandenburg, 14770']","haltestelle gortz, dorf",52.5125786,12.6442385,"Gortz, Dorf, Gortzer Dorfstraße, Gortz, Beetzseeheide, Amt Beetzsee, Potsdam-Mittelmark, Brandenburg, 14778, Deutschland",bus_stop,highway,POINT (12.6442385 52.5125786)
484,"Gortz, Dorf",bus_stop,"340140,97","5820659,5","['Bus stop Gortz Dorf, Brandenburg, 14770']","haltestelle gortz, dorf",52.5125786,12.6442385,"Gortz, Dorf, Gortzer Dorfstraße, Gortz, Beetzseeheide, Amt Beetzsee, Potsdam-Mittelmark, Brandenburg, 14778, Deutschland",bus_stop,highway,POINT (12.6442385 52.5125786)
485,Rotscherlinde,bus_stop,"336705,56","5800796,5","['Bus stop Rotscherlinde, Brandenburg, 14770']",haltestelle rotscherlinde,52.3331446,12.6033603,"Rotscherlinde, B 102, Rotscherlinde, Krahne, Kloster Lehnin, Potsdam-Mittelmark, Brandenburg, 14797, Deutschland",bus_stop,highway,POINT (12.6033603 52.3331446)
486,Rotscherlinde,bus_stop,"336696,8",5800782,"['Bus stop Rotscherlinde, Brandenburg, 14770']",haltestelle rotscherlinde,52.3331446,12.6033603,"Rotscherlinde, B 102, Rotscherlinde, Krahne, Kloster Lehnin, Potsdam-Mittelmark, Brandenburg, 14797, Deutschland",bus_stop,highway,POINT (12.6033603 52.3331446)
487,Roberdamm,bus_stop,"322616,97","5809582,5","['Bus stop Roberdamm, Brandenburg, 14770']",haltestelle roberdamm,52.4075278,12.3926511,"Roberdamm, Chausseestraße, Roberdam, Plaue, Brandenburg an der Havel, Brandenburg, 14774, Deutschland",bus_stop,highway,POINT (12.3926511 52.4075278)
488,Roberdamm,bus_stop,"322613,44",5809565,"['Bus stop Roberdamm, Brandenburg, 14770']",haltestelle roberdamm,52.4075278,12.3926511,"Roberdamm, Chausseestraße, Roberdam, Plaue, Brandenburg an der Havel, Brandenburg, 14774, Deutschland",bus_stop,highway,POINT (12.3926511 52.4075278)
489,Emstal,bus_stop,"348288,7","5796902,5","['Bus stop Emstal, Brandenburg, 14770']",haltestelle emstal,52.3014468,12.7749642,"Emstal, Emstaler Hauptstraße, Emstal, Kloster Lehnin, Potsdam-Mittelmark, Brandenburg, 14797, Deutschland",bus_stop,highway,POINT (12.7749642 52.3014468)
490,Jacobstraße,tram_stop,333874,"5808938,5","['Tram stop Jacobstraße, Brandenburg, 14770']",haltestelle jacobstraße,52.4052940,12.5576310,"Jacobstraße, Bahnhofsvorstadt, Brandenburg an der Havel, Brandenburg, 14776, Deutschland",tram_stop,railway,POINT (12.557631 52.405294)
491,Steinstraße/Kino,tram_stop,"334004,8",5809077,"['Tram stop Steinstraße/Kino, Brandenburg, 14770']",haltestelle steinstraße/kino,52.4067080,12.5596629,"Steinstraße/Kino, Steinstraße, Neustadt, Brandenburg an der Havel, Brandenburg, 14776, Deutschland",tram_stop,railway,POINT (12.5596629 52.406708)
492,Luckenberger Straße,tram_stop,"333247,03","5809394,5","['Tram stop Luckenberger Straße, Brandenburg, 14770']",haltestelle luckenberger straße,52.4088509,12.5483455,"Luckenberger Straße, Altstadt, Brandenburg an der Havel, Brandenburg, 14770, Deutschland",tram_stop,railway,POINT (12.5483455 52.4088509)
493,Nicolaiplatz,tram_stop,"333276,34","5809584,5","['Tram stop Nicolaiplatz, Brandenburg, 14770']",haltestelle nicolaiplatz,52.4110630,12.5487156,"Nicolaiplatz, Altstadt, Brandenburg an der Havel, Brandenburg, 14770, Deutschland",tram_stop,railway,POINT (12.5487156 52.411063)
494,Technische Hochschule/THB,tram_stop,"332624,4",5809743,"['Tram stop Technische Hochschule/THB, Brandenburg, 14770']",haltestelle technische hochschule/thb,52.4122520,12.5389753,"Technische Hochschule/THB, Magdeburger Straße, Neuendorfer Vorstadt, Brandenburg an der Havel, Brandenburg, 14770, Deutschland",tram_stop,railway,POINT (12.5389753 52.412252)
495,Technische Hochschule/THB,tram_stop,"332618,8",5809741,"['Tram stop Technische Hochschule/THB, Brandenburg, 14770']",haltestelle technische hochschule/thb,52.4122520,12.5389753,"Technische Hochschule/THB, Magdeburger Straße, Neuendorfer Vorstadt, Brandenburg an der Havel, Brandenburg, 14770, Deutschland",tram_stop,railway,POINT (12.5389753 52.412252)
496,Technische Hochschule/THB,tram_stop,"332628,4",5809740,"['Tram stop Technische Hochschule/THB, Brandenburg, 14770']",haltestelle technische hochschule/thb,52.4122520,12.5389753,"Technische Hochschule/THB, Magdeburger Straße, Neuendorfer Vorstadt, Brandenburg an der Havel, Brandenburg, 14770, Deutschland",tram_stop,railway,POINT (12.5389753 52.412252)
497,Magdeburger Straße/OLG,tram_stop,"332949,53","5809702,5","['Tram stop Magdeburger Straße/OLG, Brandenburg, 14770']",haltestelle magdeburger straße/olg,52.4119856,12.5438434,"Magdeburger Straße/OLG, Magdeburger Straße, Neuendorfer Vorstadt, Brandenburg an der Havel, Brandenburg, 14770, Deutschland",tram_stop,railway,POINT (12.5438434 52.4119856)
498,Jahrtausendbrücke,tram_stop,"333882,16",5809562,"['Tram stop Jahrtausendbrücke, Brandenburg, 14770']",haltestelle jahrtausendbrücke,52.4110403,12.5575237,"Jahrtausendbrücke, Hauptstraße, Neustadt, Brandenburg an der Havel, Brandenburg, 14776, Deutschland",tram_stop,railway,POINT (12.5575237 52.4110403)
499,Hauptstraße,tram_stop,"334045,72",5809440,"['Tram stop Hauptstraße, Brandenburg, 14770']",haltestelle hauptstraße,52.4101191,12.5597735,"Hauptstraße, Neustadt, Brandenburg an der Havel, Brandenburg, 14776, Deutschland",tram_stop,railway,POINT (12.5597735 52.4101191)
500,Ritterstraße/Museum,tram_stop,"333607,12",5809764,"['Tram stop Ritterstraße/Museum, Brandenburg, 14770']",haltestelle ritterstraße/museum,52.4127647,12.5534941,"Ritterstraße/Museum, Ritterstraße, Altstadt, Brandenburg an der Havel, Brandenburg, 14770, Deutschland",tram_stop,railway,POINT (12.5534941 52.4127647)
501,Neustädtischer Markt,tram_stop,"334172,7","5809235,5","['Tram stop Neustädtischer Markt, Brandenburg, 14770']",haltestelle neustädtischer markt,52.4084643,12.5638264,"Neustädtischer Markt, Sankt-Annen-Straße, Neustadt, Brandenburg an der Havel, Brandenburg, 14776, Deutschland",tram_stop,railway,POINT (12.5638264 52.4084643)
502,Kanalstraße,tram_stop,"333422,8",5809124,"['Tram stop Kanalstraße, Brandenburg, 14770']",haltestelle kanalstraße,52.4073046,12.5507299,"Kanalstraße, Bauhofstraße, Ring, Brandenburg an der Havel, Brandenburg, 14776, Deutschland",tram_stop,railway,POINT (12.5507299 52.4073046)
503,Hauptbahnhof,tram_stop,"334419,38","5808499,5","['Tram stop Hauptbahnhof, Brandenburg, 14770']",haltestelle hauptbahnhof,52.4014385,12.5652094,"Hauptbahnhof, Am Hauptbahnhof, Bahnhofsvorstadt, Brandenburg an der Havel, Brandenburg, 14776, Deutschland",tram_stop,railway,POINT (12.5652094 52.4014385)
504,Hauptbahnhof,tram_stop,"334414,8","5808506,5","['Tram stop Hauptbahnhof, Brandenburg, 14770']",haltestelle hauptbahnhof,52.4014385,12.5652094,"Hauptbahnhof, Am Hauptbahnhof, Bahnhofsvorstadt, Brandenburg an der Havel, Brandenburg, 14776, Deutschland",tram_stop,railway,POINT (12.5652094 52.4014385)
505,Hauptstraße,tram_stop,"334025,12",5809456,"['Tram stop Hauptstraße, Brandenburg, 14770']",haltestelle hauptstraße,52.4101191,12.5597735,"Hauptstraße, Neustadt, Brandenburg an der Havel, Brandenburg, 14776, Deutschland",tram_stop,railway,POINT (12.5597735 52.4101191)
506,Jahrtausendbrücke,tram_stop,"333875,6","5809563,5","['Tram stop Jahrtausendbrücke, Brandenburg, 14770']",haltestelle jahrtausendbrücke,52.4110403,12.5575237,"Jahrtausendbrücke, Hauptstraße, Neustadt, Brandenburg an der Havel, Brandenburg, 14776, Deutschland",tram_stop,railway,POINT (12.5575237 52.4110403)
507,Freiheitsweg,bus_stop,"332802,9",5813840,"['Bus stop Freiheitsweg, Brandenburg, 14770']",haltestelle freiheitsweg,52.4501523,12.5396786,"Freiheitsweg, Chausseestraße, Blumensiedlung, Brielow Ausbau, Brielow, Beetzsee, Amt Beetzsee, Potsdam-Mittelmark, Brandenburg, 14778, Deutschland",bus_stop,highway,POINT (12.5396786 52.4501523)
508,Busbahnhof,bus_stop,"346304,5",5798767,"['Bus stop Busbahnhof, Brandenburg, 14770']",haltestelle busbahnhof,52.3178522,12.7449407,"Busbahnhof, Goethestraße, Lehnin, Kloster Lehnin, Potsdam-Mittelmark, Brandenburg, 14797, Deutschland",bus_stop,highway,POINT (12.7449407 52.3178522)
509,Busbahnhof,bus_stop,"346299,06",5798750,"['Bus stop Busbahnhof, Brandenburg, 14770']",haltestelle busbahnhof,52.3178522,12.7449407,"Busbahnhof, Goethestraße, Lehnin, Kloster Lehnin, Potsdam-Mittelmark, Brandenburg, 14797, Deutschland",bus_stop,highway,POINT (12.7449407 52.3178522)
510,Busbahnhof,bus_stop,"346297,78",5798786,"['Bus stop Busbahnhof, Brandenburg, 14770']",haltestelle busbahnhof,52.3178522,12.7449407,"Busbahnhof, Goethestraße, Lehnin, Kloster Lehnin, Potsdam-Mittelmark, Brandenburg, 14797, Deutschland",bus_stop,highway,POINT (12.7449407 52.3178522)
511,ZOB,bus_stop,"334536,84",5808519,"['Bus stop ZOB, Brandenburg, 14770']",haltestelle zob,52.4015671,12.5669759,"ZOB, Am Hauptbahnhof, Bahnhofsvorstadt, Brandenburg an der Havel, Brandenburg, 14776, Deutschland",bus_stop,highway,POINT (12.5669759 52.4015671)
512,ZOB,bus_stop,"334559,2",5808531,"['Bus stop ZOB, Brandenburg, 14770']",haltestelle zob,52.4015671,12.5669759,"ZOB, Am Hauptbahnhof, Bahnhofsvorstadt, Brandenburg an der Havel, Brandenburg, 14776, Deutschland",bus_stop,highway,POINT (12.5669759 52.4015671)
513,ZOB,bus_stop,"334579,22","5808541,5","['Bus stop ZOB, Brandenburg, 14770']",haltestelle zob,52.4015671,12.5669759,"ZOB, Am Hauptbahnhof, Bahnhofsvorstadt, Brandenburg an der Havel, Brandenburg, 14776, Deutschland",bus_stop,highway,POINT (12.5669759 52.4015671)
514,Festplatz,bus_stop,"344595,84",5804463,"['Bus stop Festplatz, Brandenburg, 14770']",haltestelle festplatz,52.3683698,12.7173655,"Festplatz, Schenkenberger Straße, Trechwitz, Kloster Lehnin, Potsdam-Mittelmark, Brandenburg, 14797, Deutschland",bus_stop,highway,POINT (12.7173655 52.3683698)
515,Festplatz,bus_stop,"344587,88","5804385,5","['Bus stop Festplatz, Brandenburg, 14770']",haltestelle festplatz,52.3683698,12.7173655,"Festplatz, Schenkenberger Straße, Trechwitz, Kloster Lehnin, Potsdam-Mittelmark, Brandenburg, 14797, Deutschland",bus_stop,highway,POINT (12.7173655 52.3683698)
516,Paterdamm,bus_stop,"336438,62",5803905,"['Bus stop Paterdamm, Brandenburg, 14770']",haltestelle paterdamm,52.3609839,12.5979327,"Paterdamm, B 102, Prützke, Kloster Lehnin, Potsdam-Mittelmark, Brandenburg, 14797, Deutschland",bus_stop,highway,POINT (12.5979327 52.3609839)
517,Paterdamm,bus_stop,"336433,5",5803885,"['Bus stop Paterdamm, Brandenburg, 14770']",haltestelle paterdamm,52.3609839,12.5979327,"Paterdamm, B 102, Prützke, Kloster Lehnin, Potsdam-Mittelmark, Brandenburg, 14797, Deutschland",bus_stop,highway,POINT (12.5979327 52.3609839)
518,Neustädtischer Markt,bus_stop,"334172,22",5809236,"['Bus stop Neustädtischer Markt, Brandenburg, 14770']",haltestelle neustädtischer markt,52.4084643,12.5638264,"Neustädtischer Markt, Sankt-Annen-Straße, Neustadt, Brandenburg an der Havel, Brandenburg, 14776, Deutschland",bus_stop,highway,POINT (12.5638264 52.4084643)
519,Lindenstraße,bus_stop,"344602,16",5810560,"['Bus stop Lindenstraße, Brandenburg, 14770']",haltestelle lindenstraße,52.4231278,12.7145498,"Lindenstraße, Havelstraße, Götz, Groß Kreutz (Havel), Potsdam-Mittelmark, Brandenburg, 14550, Deutschland",bus_stop,highway,POINT (12.7145498 52.4231278)
520,Lindenstraße,bus_stop,"344596,72","5810558,5","['Bus stop Lindenstraße, Brandenburg, 14770']",haltestelle lindenstraße,52.4231278,12.7145498,"Lindenstraße, Havelstraße, Götz, Groß Kreutz (Havel), Potsdam-Mittelmark, Brandenburg, 14550, Deutschland",bus_stop,highway,POINT (12.7145498 52.4231278)
521,Am Walde,bus_stop,"347941,9",5812477,"['Bus stop Am Walde, Brandenburg, 14770']",haltestelle am walde,52.4411317,12.7623555,"Am Walde, Götzer Straße, Deetz, Groß Kreutz (Havel), Potsdam-Mittelmark, Brandenburg, 14550, Deutschland",bus_stop,highway,POINT (12.7623555 52.4411317)
522,Am Walde,bus_stop,"347908,94",5812459,"['Bus stop Am Walde, Brandenburg, 14770']",haltestelle am walde,52.4411317,12.7623555,"Am Walde, Götzer Straße, Deetz, Groß Kreutz (Havel), Potsdam-Mittelmark, Brandenburg, 14550, Deutschland",bus_stop,highway,POINT (12.7623555 52.4411317)
523,Kaltenhausener Weg,bus_stop,"328192,53","5811294,5","['Bus stop Kaltenhausener Weg, Brandenburg, 14770']",haltestelle kaltenhausener weg,52.4248325,12.4731651,"Kaltenhausener Weg, Anton-Saefkow-Allee, Heidekrug, Brandenburg an der Havel, Brandenburg, 14772, Deutschland",bus_stop,highway,POINT (12.4731651 52.4248325)
524,Oskar Campus,bus_stop,"332769,6","5811768,5","['Bus stop Oskar Campus, Brandenburg, 14770']",haltestelle oskar campus,52.4303979,12.5401201,"Oskar Campus, Upstallstraße, Industriegebiet Nord, Nord, Brandenburg an der Havel, Brandenburg, 14772, Deutschland",bus_stop,highway,POINT (12.5401201 52.4303979)
525,Oskar Campus,bus_stop,"332765,38",5811756,"['Bus stop Oskar Campus, Brandenburg, 14770']",haltestelle oskar campus,52.4303979,12.5401201,"Oskar Campus, Upstallstraße, Industriegebiet Nord, Nord, Brandenburg an der Havel, Brandenburg, 14772, Deutschland",bus_stop,highway,POINT (12.5401201 52.4303979)
526,Gollwitz (bei Jeserig),bus_stop,"339768,16",5810263,"['Bus stop Gollwitz (bei Jeserig), Brandenburg, 14770']",haltestelle gollwitz (bei jeserig),52.4190829,12.6437442,"Gollwitz (bei Jeserig), Schlossallee, Gollwitz, Brandenburg an der Havel, Brandenburg, 14776, Deutschland",bus_stop,highway,POINT (12.6437442 52.4190829)
527,"Gollwitz, Am Schloss",bus_stop,"339883,28",5810502,"['Bus stop Gollwitz Am Schloss, Brandenburg, 14770']","haltestelle gollwitz, am schloss",52.4212610,12.6453213,"Gollwitz, Am Schloss, Schlossallee, Gollwitz, Brandenburg an der Havel, Brandenburg, 14776, Deutschland",bus_stop,highway,POINT (12.6453213 52.421261)
528,"Gollwitz, Sommerweg",bus_stop,"339685,6",5809967,"['Bus stop Gollwitz Sommerweg, Brandenburg, 14770']","haltestelle gollwitz, sommerweg",52.4163962,12.6426732,"Gollwitz, Sommerweg, Schlossallee, Gollwitz, Brandenburg an der Havel, Brandenburg, 14776, Deutschland",bus_stop,highway,POINT (12.6426732 52.4163962)
529,"Gollwitz, Sommerweg",bus_stop,"339695,06","5809966,5","['Bus stop Gollwitz Sommerweg, Brandenburg, 14770']","haltestelle gollwitz, sommerweg",52.4163962,12.6426732,"Gollwitz, Sommerweg, Schlossallee, Gollwitz, Brandenburg an der Havel, Brandenburg, 14776, Deutschland",bus_stop,highway,POINT (12.6426732 52.4163962)
530,"Wust, Heininge",bus_stop,"337027,9",5809653,"['Bus stop Wust Heininge, Brandenburg, 14770']","haltestelle wust, heininge",52.4127935,12.6037830,"Wust, Heininge, Wuster Straße, Wust, Brandenburg an der Havel, Brandenburg, 14776, Deutschland",bus_stop,highway,POINT (12.603783 52.4127935)
531,"Wust, Heininge",bus_stop,"337032,72",5809647,"['Bus stop Wust Heininge, Brandenburg, 14770']","haltestelle wust, heininge",52.4127935,12.6037830,"Wust, Heininge, Wuster Straße, Wust, Brandenburg an der Havel, Brandenburg, 14776, Deutschland",bus_stop,highway,POINT (12.603783 52.4127935)
532,"Plaue, Chauseestraße-B1",bus_stop,"323430,1","5809448,5","['Bus stop Plaue Chauseestraße-B1, Brandenburg, 14770']","haltestelle plaue, chauseestraße-b1",52.4067382,12.4041733,"Plaue, Chauseestraße-B1, Chausseestraße, Plauer Schleuse, Plaue, Brandenburg an der Havel, Brandenburg, 14774, Deutschland",bus_stop,highway,POINT (12.4041733 52.4067382)
533,August­Sonntag­Straße,bus_stop,"330936,25","5810483,5","['Bus stop August\xadSonntag\xadStraße, Brandenburg, 14770']",haltestelle august­sonntag­straße,52.4177473,12.5142498,"August­Sonntag­Straße, August-Sonntag-Straße, SWB-Industrie- und Gewerbepark, Walzwerksiedlung, Brandenburg an der Havel, Brandenburg, 14770, Deutschland",bus_stop,highway,POINT (12.5142498 52.4177473)
534,August­Sonntag­Straße,bus_stop,"330958,47","5810409,5","['Bus stop August\xadSonntag\xadStraße, Brandenburg, 14770']",haltestelle august­sonntag­straße,52.4177473,12.5142498,"August­Sonntag­Straße, August-Sonntag-Straße, SWB-Industrie- und Gewerbepark, Walzwerksiedlung, Brandenburg an der Havel, Brandenburg, 14770, Deutschland",bus_stop,highway,POINT (12.5142498 52.4177473)
535,Eibenweg,bus_stop,"331399,44",5805330,"['Bus stop Eibenweg, Brandenburg, 14770']",haltestelle eibenweg,52.3725081,12.5235709,"Eibenweg, Buchenweg, Siedlung Eigene Scholle, Brandenburg an der Havel, Brandenburg, 14776, Deutschland",bus_stop,highway,POINT (12.5235709 52.3725081)
536,Göttin,bus_stop,"333051,25","5804812,5","['Bus stop Göttin, Brandenburg, 14770']",haltestelle göttin,52.3681344,12.5478369,"Göttin, Brandenburger Straße, Göttin, Brandenburg an der Havel, Brandenburg, 14776, Deutschland",bus_stop,highway,POINT (12.5478369 52.3681344)
537,Göttin,bus_stop,"333059,38",5804816,"['Bus stop Göttin, Brandenburg, 14770']",haltestelle göttin,52.3681344,12.5478369,"Göttin, Brandenburger Straße, Göttin, Brandenburg an der Havel, Brandenburg, 14776, Deutschland",bus_stop,highway,POINT (12.5478369 52.3681344)
538,Eichhorstweg,bus_stop,"332930,9","5805943,5","['Bus stop Eichhorstweg, Brandenburg, 14770']",haltestelle eichhorstweg,52.3781966,12.5454233,"Eichhorstweg, Göttiner Landstraße, Siedlung Eigene Scholle, Göttin, Brandenburg an der Havel, Brandenburg, 14776, Deutschland",bus_stop,highway,POINT (12.5454233 52.3781966)
539,Eichhorstweg,bus_stop,"332930,38","5805850,5","['Bus stop Eichhorstweg, Brandenburg, 14770']",haltestelle eichhorstweg,52.3781966,12.5454233,"Eichhorstweg, Göttiner Landstraße, Siedlung Eigene Scholle, Göttin, Brandenburg an der Havel, Brandenburg, 14776, Deutschland",bus_stop,highway,POINT (12.5454233 52.3781966)
540,Göttiner Straße,bus_stop,"333024,03","5808072,5","['Bus stop Göttiner Straße, Brandenburg, 14770']",haltestelle göttiner straße,52.3974033,12.5459207,"Göttiner Straße, Wilhelmsdorfer Straße, Wilhelmsdorfer Vorstadt, Brandenburg an der Havel, Brandenburg, 14776, Deutschland",bus_stop,highway,POINT (12.5459207 52.3974033)
541,Wittstocker Gäßchen,bus_stop,"331881,34","5806898,5","['Bus stop Wittstocker Gäßchen, Brandenburg, 14770']",haltestelle wittstocker gäßchen,52.3864960,12.5295703,"Wittstocker Gäßchen, Ziesarer Landstraße, Siedlung Eigene Scholle, Brandenburg an der Havel, Brandenburg, 14776, Deutschland",bus_stop,highway,POINT (12.5295703 52.386496)
542,Steinstraße/Kino,bus_stop,"334001,28","5809075,5","['Bus stop Steinstraße/Kino, Brandenburg, 14770']",haltestelle steinstraße/kino,52.4066948,12.5596118,"Steinstraße/Kino, Steinstraße, Neustadt, Brandenburg an der Havel, Brandenburg, 14776, Deutschland",bus_stop,highway,POINT (12.5596118 52.4066948)
543,Grillendamm,bus_stop,"334675,62","5810267,5","['Bus stop Grillendamm, Brandenburg, 14770']",haltestelle grillendamm,52.4179273,12.5682887,"Grillendamm, Dom, Brandenburg an der Havel, Brandenburg, 14776, Deutschland",bus_stop,highway,POINT (12.5682887 52.4179273)
544,Neuendorfer Straße,bus_stop,"333113,16",5809314,"['Bus stop Neuendorfer Straße, Brandenburg, 14770']",haltestelle neuendorfer straße,52.4086446,12.5467812,"Neuendorfer Straße, Neuendorfer Vorstadt, Brandenburg an der Havel, Brandenburg, 14770, Deutschland",bus_stop,highway,POINT (12.5467812 52.4086446)
545,Gödenstraße,bus_stop,"333526,53",5808544,"['Bus stop Gödenstraße, Brandenburg, 14770']",haltestelle gödenstraße,52.4017644,12.5529607,"Gödenstraße, Wilhelmsdorfer Straße, Ring, Brandenburg an der Havel, Brandenburg, 14776, Deutschland",bus_stop,highway,POINT (12.5529607 52.4017644)
546,Wilhelmsdorfer Straße,bus_stop,"333296,9",5808345,"['Bus stop Wilhelmsdorfer Straße, Brandenburg, 14770']",haltestelle wilhelmsdorfer straße,52.4002583,12.5480771,"Wilhelmsdorfer Straße, Otto-Sidow-Straße, Ring, Brandenburg an der Havel, Brandenburg, 14776, Deutschland",bus_stop,highway,POINT (12.5480771 52.4002583)
547,Klein Kreutz,bus_stop,"338691,88","5812129,5","['Bus stop Klein Kreutz, Brandenburg, 14770']",haltestelle klein kreutz,52.4337255,12.6180342,"Klein Kreutz, Eigenheime, Klein Kreutzer Dorfstraße, Klein Kreutz/Saaringen, Brandenburg an der Havel, Brandenburg, 14776, Deutschland",bus_stop,highway,POINT (12.6180342 52.4337255)
548,Grillendamm,bus_stop,"334700,06","5810341,5","['Bus stop Grillendamm, Brandenburg, 14770']",haltestelle grillendamm,52.4179273,12.5682887,"Grillendamm, Dom, Brandenburg an der Havel, Brandenburg, 14776, Deutschland",bus_stop,highway,POINT (12.5682887 52.4179273)
549,"Roskow, Dorf",bus_stop,"344953,25","5815966,5","['Bus stop Roskow Dorf, Brandenburg, 14770']","haltestelle roskow, dorf",52.4718107,12.7168804,"Roskow, Dorf, Dorfstraße, Roskow, Amt Beetzsee, Potsdam-Mittelmark, Brandenburg, 14778, Deutschland",bus_stop,highway,POINT (12.7168804 52.4718107)
550,Am Piperfenn,bus_stop,"336248,3",5806061,"['Bus stop Am Piperfenn, Brandenburg, 14770']",haltestelle am piperfenn,52.3818867,12.5943499,"Am Piperfenn, B 102, Schmerzke, Brandenburg an der Havel, Brandenburg, 14776, Deutschland",bus_stop,highway,POINT (12.5943499 52.3818867)
